name,slug,country,city,homepage,lat,lng,programs
"tu berlin","tu-berlin","Tyskland","Berlin","","52.5170365","13.3888599","{'materialteknologi':1,'msc industriell økologi':1,'industriell matematikk':2,'kybernetikk og robotikk (sivilingeniør -5årig master)':1,'mtmart':1,'energi og miljø':1,'industriell økonomi (marin)':1,'bygg- og miljøteknikk':1,'mt bygg':1,'marin teknikk':1,}"
"danmark tekniske universitet","danmark-tekniske-universitet","Danmark","københavn","","55.6867243","12.5700724","{'bioteknologi msbiotech':1,'master i industriell økonomi og teknologiledelse':1,}"
"politecnico di milano","politecnico-di-milano","Italia","Milano","","45.4641943","9.1896346","{'produktutvikling og produksjon':9,'bygg- og miljøteknikk':5,'energi og miljø':7,'indøk':3,'mtdt':1,'datateknologi':2,'5-åring master i arkitektur':1,'industriell økonomi og teknologiledelse':6,'bygg og miljøteknikk, 5.årig':1,'logistikkingeniør':1,'energi &amp; miljø':1,'mtdesig (industriell design)':1,'industriell økonomi og teknologiledelse (data)':1,'ingeniørvitenskap og ikt':1,'mtbygg':3,'mting':1,'konstruksjon':1,'':1,'industriell design':2,'industriell kjemi og bioteknologi':6,'kommunikasjonsteknologi':4,'master i arkitektur':1,'bygg og miljøteknikk - konstruksjon':1,'mtenerg':1,'kybernetikk og robotikk':2,'bygg og miljøteknikk':2,'produktutvikling og produksjon, 5-årig':1,'bygg -og miljøteknikk':1,'tekniske geofag (mttekgeo)':1,'produsjonsteknologi':1,'mtprod':1,'produktutvikling og produksjon - industriell mekanikk':1,'produktutvikling og produksjon (produksjonsteknologi)':1,'sustainable manufacturing':1,'teknisk kybernetikk':1,'sustainable architecture':1,}"
"ludwig-maximilian universität (lmu)","ludwig-maximilian-universität-(lmu)","Tyskland","München","","48.1371079","11.5753822","{'profesjonsstudiet i psykologi':1,}"
"la sapienza","la-sapienza","Italia","Roma","","41.8933203","12.4829321","{'i&amp;ikt - geomatikk':1,'datateknologi, 5-årig':1,'arkitektur':1,'industriell økonomi og teknologiledelse':1,'kybernetikk og robotikk':2,'mtfyma':1,'informatikk':1,'master i teknologiledelse':1,'kommunikasjonsteknologi':2,'energi og miljø':1,}"
"boku, universität für bodenkultur","boku,-universität-für-bodenkultur","Østerrike","Wien","","48.2083537","16.3725042","{'bygg og miljøteknikk, vann og miljøteknikk':1,}"
"universitetet i bolgona","universitetet-i-bolgona","Italia","Bologna","","44.4938203","11.3426327","{'fysikk og matematikk':1,}"
"osaka metropolitan university","osaka-metropolitan-university","Japan","Osaka","","34.661629000000005","135.49992679245517","{'kybernetikk og robotikk':1,}"
"upv","upv","Spania","Valencia","","39.4697065","-0.3763353","{'produktutvikling og produksjon - robotikk og automasjon':1,'indøk':1,'pup puma':1,'kybernetikk og robotikk':1,'produktutvikling og produksjon':2,'marin teknikk':1,'bygg- og miljøteknikk':10,'bygg og miljøteknikk':3,'mtenerg':4,'industriell økonomi og teknologiledelse':1,'energi og miljø':1,'mtdt':1,}"
"university of bologna","university-of-bologna","Italia","Bologna","","44.4938203","11.3426327","{'datateknologi, 5-årig':1,'datateknologi':3,'industriell økonomi og teknologiledelse':4,'kommunikasjonsteknologi og digital sikkerthet':1,'':2,'sivilingeniør, datateknologi':1,'energi og miljø':6,'mtfyma, retning industriell matematikk':1,'bygg- og miljøteknikk':4,'kybernetikk og robotikk':3,'medisin - profesjon':1,'kommunikasjonsteknologi':1,'bygg og miljøteknikk':1,'kybernetikk of robotikk':1,'medisin':1,'master i samfunnsøkonomi':1,'kybernetikk':1,}"
"universitetet i genoa","universitetet-i-genoa","Italia","Genoa","","44.40726","8.9338624","{'marin teknikk':1,}"
"technische universität münchen (tum)","technische-universität-münchen-(tum)","Tyskland","München","","48.1371079","11.5753822","{'mttk':1,'produktutvikling og produksjon (maskin)':1,'bygg-og miljøteknikk':1,'fysikk og matematikk - masterstudium (5-årig)':1,'energi og miljø':1,'industriell økonomi og teknologiledelse':2,'sivilingeniør bygg- og miljøteknikk':1,'kybernetikk og robotikk':2,}"
"ist","ist","Portugal","Lisboa","","38.7077507","-9.1365919","{'energi og miljø':1,'informatikk':1,'ingeniørvitenskap og ikt':3,'bygg- og miljøteknikk':2,'fysikk og matematikk':1,'elektronisk systemdesign og innovasjon':1,'datateknologi':1,'ingeniørvitenskap og ikt - geomatikk':1,'i&amp;ikt':1,'industriell kjemi og bioteknologi':1,'marin teknikk':3,'komtek':1,'mtmart':1,'kybernetikk og robotikk':1,'':1,'produktutvikling og produksjon':1,'mttk':1,'mtprod':1,}"
"università di bologna","università-di-bologna","Italia","Bologna","","44.4938203","11.3426327","{'kybernetikk og robotikk':1,'energi og miljø':3,'industriell matematikk':1,'medisin profesjon':1,'bygg- og miljøteknikk':3,'industriell kjemi og bioteknologi':1,'kommunikasjonsteknologi':2,'bygg og miljøteknikk':1,'mtbygg':1,'industriell økonomi og teknologiledelse (maskin)':1,'datateknologi':1,'bygg - og miljøteknikk':1,'mtfyma':1,'medisin':1,}"
"università degli studi di padova","università-degli-studi-di-padova","Italia","Padova","","45.4077172","11.8734455","{'fysikk og matematikk':1,'energi og miljø':3,'energi og miljø - energiforsyning og klimatisering i bygninger':1,'mttk':1,'datateknologi':1,'mtkj':1,'psykologi bachelor':1,'indøk':1,'industriell økonomi og teknologiledelse':1,'digital forretningsutvikling':1,'mtiøt':1,}"
"tu graz","tu-graz","Østerrike","Graz","","47.0708678","15.4382786","{'fysmat':1,'fysikk og matematikk':1,'bygg-og miljøteknikk':1,'energi og miljø':1,'mtbygg':1,'mt bygg':1,'produktutvikling og produksjon':1,'bioteknologi':1,}"
"sorbonne universite","sorbonne-universite","Frankrike","Paris","","48.8534951","2.3483915","{'fysikk og matematikk  (5-årig)':1,}"
"university of california santa barbara","university-of-california-santa-barbara","USA","Santa Barbara","","34.4221319","-119.702667","{'produktutvikling og produksjon':1,'økonomi og administrasjon':1,'ingeniørvitenskap og ikt':1,'master informatikk - interaksjonsdesign, spill og læringsteknologi':1,'marin teknikk':1,'mtdt':1,}"
"instituto superior tecnico","instituto-superior-tecnico","Portugal","Lisboa","","38.7077507","-9.1365919","{'produktutvikling og produksjon(pup)':1,'kybernetikk og robotikk':3,'mtmt':1,'ingeniørvitenskap og ikt':1,'tekniske geofag':1,'fysikk og matematikk':2,'datateknologi':3,'energi og miljø':1,'ingeniørvitenskap &amp; ikt':1,'produktutvikling og produksjon':2,'marin teknikk':2,'marinteknikk':1,'produktutvikling og produksjon  (mtprod)':1,'mtprod':1,'master i bioteknologi':1,'pup':1,'ms electric power engineering':1,}"
"puc","puc","Brazil","Rio de Janeiro","","-22.9110137","-43.2093727","{'bygg og miljøteknikk':1,}"
"danmarks tekniske universitet","danmarks-tekniske-universitet","Danmark","Kongens Lyngby / København","","0","0","{'vann- og miljøteknikk':1,'datateknologi':2,'produktutvikling og produksjon':2,'industriell økonomi og teknologi ledelse/energi og miljø':1,'bioteknologi':1,'mtpetr':1,'elsys':1,'industriell kjemi og bioteknologi':2,'mtbygg':3,'bygg- og miljøteknikk':3,'mit':1,'industriell design':2,'energi og miljø, energiplanlegging og miljøanalyse':1,'master bygg- og miljøteknikk':1,}"
"tu delft","tu-delft","Nederland","Delft","","51.999457199999995","4.362724538543995","{'vann- og miljøteknikk':1,'mtkj-bioteknologi':1,'industriell design':2,'fysikk og matematikk':2,'industriell design - interaksjonsdesign':1,'datateknologi med spesialisering i programvaresystemer':1,'master i informatikk':1,'mtfyma - teknisk fysikk':1,'marin teknikk (marine konstruksjoner)':1,'marin teknikk':5,'komtek':1,'kybernetikk og robotikk':2,'elektronisk systemdesign og innovasjon':2,'industriell økonomi og teknologiledelse':1,'tekniske geofag':1,'mtbygg - konstruksjon':1,'5-årig master i bioteknologi':1,'energi og miljø':2,'bygg- og miljøteknikk':1,'produktutvikling og produksjon (puma)':1,'mtbygg':1,'mttk':1,'teknisk kybernetikk':1,'produktutvikling og produksjon (pup / maskin)':1,'mtenerg':1,'mtmart':1,'':1,}"
"sapienza","sapienza","Italia","Roma","","41.8933203","12.4829321","{'datateknologi':1,'arkitektur':1,'informatikk':1,}"
"technische universität münchen","technische-universität-münchen","Tyskland","München","","48.1371079","11.5753822","{'kybernetikk og robotikk':5,'nanoteknologi':2,'fysikk og matematikk - teknisk fysikk':1,'mtnano':2,'':1,'fysikk og matematikk, masterstudium':1,'industriell økonomi og teknologiledelse':1,'ingeniørvitenskap og ikt':1,'bygg og miljøteknikk':1,'arkitektur':2,'fysikk og matematikk':1,'mtkj':1,'produktutvikling og produksjon':2,'fysikk og matematikk - industriell matematikk':1,'bygg- og miljøteknikk':1,'mtfyma':1,'datateknikk':1,'indøk data':1,'indøk':1,}"
"budapest university of technology and economics","budapest-university-of-technology-and-economics","Ungarn","Budapest","","47.4978918","19.0401609","{'':1,'kommunikasjonsteknologi og digital sikkerhet':1,'fysikk og matematikk, teknisk fysikk':1,'kommunikasjonsteknologi':2,}"
"tecnico","tecnico","Portugal","Lisboa","","38.7077507","-9.1365919","{'indøk':1,'energi og miljø, 5-årig':1,'tekniske geofag':1,'mtelsys':1,'energi og miljø':2,}"
"aarhus universitet","aarhus-universitet","Danmark","Aarhus","","56.1496278","10.2134046","{'lektor i språkfag - nordisk':1,'bachelor i programmering':1,'mtnano-ne':1,'siv.ing. nanoteknologi':1,'nanoteknologi':1,'bevegelsesvitenskap':1,}"
"tum","tum","Tyskland","München","","48.1371079","11.5753822","{'materialteknologi':1,'arkitektur':3,'mttk':2,'fysikk og matematikk - industriell matematikk':1,'mtfyma':1,'i og ikt, konstruksjonsteknikk':1,'pup':1,'fysikk og matematikk':2,'master, fysikk og matematikk, tekfys':1,'bygg og miljøteknikk':2,'produktutvikling og produksjon':3,'kybernetikk og robotikk':1,'mtprod':1,'energi og miljø':4,'ingeniørvitenskap og ikt':2,'i &amp; ikt':1,'energibruk og energiplanlegging':1,'bygg- og miljøteknikk':1,'bygg -og miljøteknikk':1,'mtnano':1,'geomatikk':1,'teknisk kybernetikk':2,'indøk':1,}"
"upc - universitat politecnica de catalunya","upc---universitat-politecnica-de-catalunya","Spania","Barcelona","","41.3828939","2.1774322","{'kybernetikk og robotikk':1,}"
"ense3 ved inp grenoble","ense3-ved-inp-grenoble","Frankrike","Grenoble","","45.1875602","5.7357819","{'energi og miljø':1,}"
"politecnico di torino","politecnico-di-torino","Italia","Torino","","45.0677551","7.6824892","{'kybernetikk og robotikk':3,'bygg- og miljøteknikk':1,'mtkj':1,'petroleumsfag':1,'industriell økonomi og teknologiledelse':3,'indøk - pup':1,'mtfyma':1,'ingeniørvitenskap &amp; ikt':2,'mt-iøt':1,'ingeniørvitenskap og ikt':2,'i&amp;ikt':1,'indøk marin':1,'indøk':1,}"
"cole polytechnique fédérale de lausanne (epfl)","cole-polytechnique-fédérale-de-lausanne-(epfl)","Sveits","Lausanne","","46.5218269","6.6327025","{'industriell økonomi og teknologiledelse':1,}"
"montana state university","montana-state-university","USA","Bozeman","","45.6794293","-111.044047","{'bygg og miljøteknikk':1,'konstruksjon':1,}"
"oth-regensburg","oth-regensburg","Tyskland","Regensburg","","49.0195333","12.0974869","{'samfunnsøkonomi 5-årig master':1,'digital infrastruktur og cybersikkerhet':1,}"
"politecnio di milano","politecnio-di-milano","Italia","Milano","","45.4641943","9.1896346","{'industriell økonomi og teknologiledelse':1,}"
"university of british columbia (ubc)","university-of-british-columbia-(ubc)","Canada","Vancouver","","49.2608724","-123.113952","{'energi og miljø':1,'mtfyma':1,'industriell økonomi og teknologiledelse':2,}"
"eurecom","eurecom","Frankrike","Antibes","","43.5812868","7.1262071","{'kommunikasjonsteknologi':14,'kommunikasjonsteknologi og digital sikkerhet':2,'datateknologi':4,'datateknologi med ai':1,'datateknologi siving':1,'elsys':2,'mtdt':1,'ingeniørvitenskap &amp; ikt':1,'ingeniørvitenskap og ikt':1,'elektronisk systemdesign og innovasjon':6,'master informatikk, interaksjonsdesign, spill- og læringsteknologi':1,'mtkom':4,'4. år master i informatikk - interaksjonsdesign, spill- og læringsteknologi':1,'elektronisk systemdesign &amp; innovasjon':1,'datateknikk':1,}"
"instituto superior tecnicó","instituto-superior-tecnicó","Portugal","Lisboa","","38.7077507","-9.1365919","{'datateknologi 5 åring':1,}"
"école polytechnique fédérale de lausanne (epfl)","école-polytechnique-fédérale-de-lausanne-(epfl)","Sveits","Lausanne","","46.5218269","6.6327025","{'kommunikasjonsteknologi og digital sikkerhet (mtkom)':1,}"
"università di roma, la sapienza","università-di-roma,-la-sapienza","Italia","Roma","","41.8933203","12.4829321","{'kommunikasjonsteknologi og digital sikkerhet':1,}"
"universitetet i københavn","universitetet-i-københavn","Danmark","København","","55.6867243","12.5700724","{'lektor, nordisk':1,}"
"uc3m","uc3m","Spania","Madrid","","40.4167047","-3.7035825","{'kommunikasjonsteknologi og digital sikkerhet':1,'digital forretningsutvikling':1,}"
"universidad carlos iii de madrid","universidad-carlos-iii-de-madrid","Spania","Madrid","","40.4167047","-3.7035825","{'datateknologi':2,'økonomi og administrasjon':4,'europastudier med statsvitenskap':1,'statsvitenskap':1,'sosialantropologi, bachelor':1,'mlreal':1,}"
"insa toulouse","insa-toulouse","Frankrike","Toulouse","","43.6044622","1.4442469","{'kybernetikk og robotikk':1,'mtfyma':1,}"
"epfl","epfl","Sveits","Lausanne","","46.5218269","6.6327025","{'fysikk og matematikk- teknisk fysikk - sivilingeniør/masterprogram 5-årig':1,'mtelsys':1,'bygg og miljøteknikk 5 årig':1,'industriell økonomi og teknologiledelse':1,'mtfyma':1,'industriell økonomi og teknologi ledelse':1,'produktutvikling og produksjon, industriell mekanikk':1,'produktutvikling og produksjon, ept':1,'nanoteknologi (nanoelektronikk)':1,'bygg- og miljøteknikk, 5-årig':1,'master i fysikk':1,}"
"university of british columbia","university-of-british-columbia","Canada","Vancouver","","49.2608724","-123.113952","{'bachelor i statsvitenskap':1,'datateknologi':2,'informatikk, 2-årig master':1,'marin teknikk':3,'bygg- og miljøteknikk':2,'kybernetikk og robotikk':3,'mtfyma':2,'industriell økonomi og teknologiledelse':3,'myfyma':1,'materialteknologi':1,'materialteknologi, mtmt':1,'mtkom kommunikasjonsteknologi':1,'teknisk kybernetikk':1,'tekniske geofag':1,}"
"dtu","dtu","Danmark","Kongens Lyngby","","55.7718649","12.5051413","{'chemistry':1,'kybernetikk og robotikk (5-årig)':1,'datateknologi':1,'mtprod':3,'kybernetikk og robotikk':1,'industriell kjemi og bioteknologi':2,'energi og prosessteknikk (strømningsteknikk)':1,'energi og miljø':4,'industriell økonomi og teknologiledelse':3,'industriel design':1,'elsys':1,'bygg -og miljøteknikk':1,'fysikk og matematikk':1,'bachelor elektroingeniør med rettning automasjon':1,'ledelse av teknologi':1,'mtfyma':1,'mbiot5':1,'mtkj':5,'mtiøt':1,'mtkj bioteknologi':1,'energibruk og energiplanlegging':2,'bygg- og miljøteknikk':2,'kommunikasjonsteknologi':1,'pup':1,'industriell økonomi og teknologi ledelse':1,'mtkj- materialteknologi':1,'bygg og miljøteknikk (konstruksjonsteknikk)':2,'industriell design':1,'produktutvikling og produksjon':1,'materialteknologi':1,'bbi':1,'energi og miljø- elkraft':1,'':1,}"
"danmarks tekniske universitet (dtu)","danmarks-tekniske-universitet-(dtu)","Danmark","København","","55.6867243","12.5700724","{'bygg- og miljøteknikk':1,'industriell kjemi og bioteknologi':1,'produktutvikling og produksjon (ipk)':1,'energi og miljø':2,'mtbygg':1,'industriell økologi':1,'industriell design':1,'marin teknikk':1,}"
"sciences po","sciences-po","Frankrike","Lyon","","45.7578137","4.8320114","{'bachelor i statsvitenskap':1,'europastudier med statsvitenskap':1,}"
"yıldız teknik üniversitesi","yıldız-teknik-üniversitesi","Tyrkia","Istanbul","","41.0091982","28.9662187","{'kybernetikk og robotikk':1,}"
"universiteit gent","universiteit-gent","Belgia","Gent","","51.0538286","3.7250121","{'environmental toxicology and chemistry':1,'industriell kjemi og bioteknologi':1,'msøk':1,}"
"university of copenhagen","university-of-copenhagen","Danmark","København","","55.6867243","12.5700724","{'datateknologi':1,'urban ecological planning':1,}"
"universitat politecnica de valencia","universitat-politecnica-de-valencia","Spania","Valencia","","39.4697065","-0.3763353","{'industriell kjemi og bioteknologi':1,'mttk':1,'mtbygg':1,'sivilingeniør - fysikk og matematikk - 5-årig masterprogram':1,'bygg- og miljøteknikk':1,'bygg og miljøteknikk':1,'kommunikasjonsteknologi':1,}"
"ucsb","ucsb","USA","Santa Barbara","","34.4221319","-119.702667","{'produktutvikling og produksjon':1,'kybernetikk og robotikk':4,'mttk - kybernetikk og robotikk':1,'':1,'mtiøt':1,'allmenn litteraturvitenskap':1,'industriell kjemi og bioteknologi':2,'master i matematikk':1,'indøk':1,'datateknikk':1,'datateknologi':1,'mtkom':1,'ingeniørvitenskap &amp; ikt':1,'energi og miljø':1,}"
"universita degli studi di padova","universita-degli-studi-di-padova","Italia","Padova","","45.4077172","11.8734455","{'energi og miljø, energibruk i bygninger':1,'industriell kjemi og bioteknologi - mtkj':1,'indøk data':1,'mtkj':1,}"
"tu/e - technische universiteit eindhoven","tu/e---technische-universiteit-eindhoven","Nederland","Eindhoven","","51.4392648","5.478633","{'mtfyma - teknisk fysikk':1,}"
"instituto superior técnico","instituto-superior-técnico","Portugal","Lisboa","","38.7077507","-9.1365919","{'bygg- og miljøteknikk':2,'produktutvikling og produksjon':5,'energi og miljø':4,'kybernetikk og robotikk':5,'tekniske geofag':3,'ingeniørvitenskap og ikt':2,'materialteknologi':2,'indøk':1,'fysikk og matematikk':1,'industriell kjemi- og bioteknologi':1,'mtelsys':1,'informatikk':1,'sivilingeniør marin teknikk, 5-årig':1,'energi og miljø, elkraft':1,'elektronikk':1,}"
"","","","","","0","0","{'':11,}"
"københavns universitet","københavns-universitet","Danmark","København","","55.6867243","12.5700724","{'samfunn- og idrettsvitenskap':1,'lektorprogrammet i språkfag - nordisk':1,'bachelor i biologi':2,'bevegelsesvitenskap, bachelor':1,'lektorutdanning i samfunnsfag, masterprogram i sosiologi':1,'lektorutdanning i språk, nordisk':1,'master i nordisk språk':1,'samfunnsøkonomi':1,'siviløkonom/ masterprogram 2-årig':1,'profesjonsstudiet i psykologi':1,'indøk':2,'mtfyma':1,'psykologi bachelor':1,}"
"eth","eth","Sveits","Zürich","","47.3744489","8.5410422","{'kybernetikk og robotikk':1,'mttk - kybernetikk og robotikk':1,'produktutvikling og produksjon':1,'mtenerg':1,'mtdt':1,}"
"tu eindhoven","tu-eindhoven","Nederland","Eindhoven","","51.4392648","5.478633","{'energi og miljø':1,'mttk':1,}"
"tsinghua","tsinghua","Kina","Beijing","","39.9057136","116.3912972","{'datateknologi':1,'mtdt':1,'indøk':1,}"
"politecnico","politecnico","Italia","Milano","","45.4641943","9.1896346","{'industriell økonomi og teknologiledelse':1,'marin teknikk':1,}"
"texas tech university","texas-tech-university","USA","Lubbock","","33.5855677","-101.8470215","{'petroleumsfag':2,'mgeol':1,'petroleumsteknologi':2,}"
"università di pisa","università-di-pisa","Italia","Pisa","","43.7159395","10.4018624","{'datateknologi':1,}"
"university college dublin","university-college-dublin","Irland","Dublin","","53.3493795","-6.2605593","{'fysikk og matematikk':1,'europastudier med statsvitenskap':1,'master fysikk':1,'bygg- og miljøteknikk':1,'energi og miljø - elektrisk energiteknikk og smarte nett':1,}"
"universita di bologna","universita-di-bologna","Italia","Bologna","","44.4938203","11.3426327","{'samfunnsøkonomi':1,'bygg- og miljøteknikk':2,'energi og miljø, 5-åring master':1,'medisin':1,'energi og miljø':2,'mtprod':1,'ingeniørvitenskap og ikt':1,'teknisk kybernetikk':1,}"
"universitá degli studi di padova","universitá-degli-studi-di-padova","Italia","Padova","","45.4077172","11.8734455","{'5-årig master bygg- og miljøteknikk':1,}"
"universidad de politecnica de madrid","universidad-de-politecnica-de-madrid","Spania","Madrid","","40.4167047","-3.7035825","{'datateknologi':2,}"
"universita studi degli padova","universita-studi-degli-padova","Italia","Padova","","45.4077172","11.8734455","{'industriell kjemi og bioteknologi':1,}"
"university of innsbruck","university-of-innsbruck","Østerrike","Innsbruck","","47.2654296","11.3927685","{'mtfyma':1,'mtnano':1,'nanoteknologi':1,}"
"universitat politècnica de valènci","universitat-politècnica-de-valènci","Spania","Valencia","","39.4697065","-0.3763353","{'industriell kjemi og bioteknologi':1,}"
"san diego state university","san-diego-state-university","USA","San Diego","","32.7174202","-117.1627728","{'master of science in informatics':1,'profesjonsstudiet i psykologi':3,'energi og miljø':2,'master i samfunnsøkonomi':1,'shipping management':1,'mtfyma':1,'energi &amp; miljø':1,'mtbygg':2,'master i ledelse av teknologi':2,'logistikk':1,'logistikkingeniør':1,'byggingeniør, bachelor':1,'logistikk ingeniør':1,'bachelor bygg':1,'lektorutdanning med hovedfag i engelsk':1,'bygg- og miljøteknikk':1,'markedsføring og ledelse':1,'ledelse av teknologi':1,'energi og miljø - elkraft':1,'psykologi':1,'spesialpedagogikk':1,}"
"university of california san diego","university-of-california-san-diego","USA","san diego","","32.7174202","-117.1627728","{'energi og miljø, 5-årig':1,'datateknologi':3,'fysikk og matematikk':1,'marin teknikk':2,'':1,'industriell økonomi og teknologiledelse':6,'produktutvikling og produksjon':2,'indøk':1,'mtenerg':1,}"
"uga","uga","Frankrike","Grenoble","","45.1875602","5.7357819","{'bygg- og miljøteknikk':1,}"
"ucsd","ucsd","USA","San Diego","","32.7174202","-117.1627728","{'industriell økonomi og teknologiledelse':8,'energi og miljø':1,'ingeniørvitenskap &amp; ikt - konstruksjon':1,'kybernetikk og robotikk':3,'mtiøt':3,'bygg og miljøteknikk':3,'bygg- og miljøteknikk':7,'informatikk':1,'indøk':1,'produktutvikling og produksjon, maskin':1,'mtelsys':1,'nanoteknologi':1,'mtdt':1,'mbiot5':2,'mtbygg':4,'mtprod (in.mek.)':1,'bioteknologi':2,'mtprod':1,'datateknologi':1,'produktutvikling og produktsjon':1,'marin teknikk':1,'mtmart':1,'indøk-data':1,'bygg- og miljøteknikk - konstruksjon':1,'mlspråk':1,'bygg- og miljøteknikk (konstruksjon)':1,'datateknikk':1,'industriell mekanikk':1,'økonomi og administrasjon':1,}"
"columbia university of new york","columbia-university-of-new-york","USA","New York","","40.7127281","-74.0060152","{'industriell økonomi og teknologiledelse':1,}"
"ist, instituto superior tecnico","ist,-instituto-superior-tecnico","Portugal","Lisboa","","38.7077507","-9.1365919","{'datateknologi':1,}"
"albert-ludwig-universität freiburg","albert-ludwig-universität-freiburg","Tyskland","Freiburg im Breisgau","","47.9960901","7.8494005","{'europastudier med tysk':1,}"
"universidad politécnica de madrid","universidad-politécnica-de-madrid","Spania","Madrid","","40.4167047","-3.7035825","{'datateknologi':2,'elektronisk systemdesign og innovasjon':1,}"
"ucsd(university of california san diego)","ucsd(university-of-california-san-diego)","USA","San Diego","","32.7174202","-117.1627728","{'industriell økonomi og teknologiledelse':1,}"
"universiteit van amsterdam","universiteit-van-amsterdam","Nederland","Amsterdam","","52.3730796","4.8924534","{'fysikk og matematikk- fysmat':1,'mtdt':1,'fysikk og matematikk':1,}"
"university of the highlands and islands","university-of-the-highlands-and-islands","Storbritannia","Kirkwall","","58.9816049","-2.960369","{'bachelor i arkeologi':1,'arkeologi':2,}"
"eindhoven university of technology (technische universiteit eindhoven)","eindhoven-university-of-technology-(technische-universiteit-eindhoven)","Nederland","Eindhoven","","51.4392648","5.478633","{'kybernetikk og robotikk (fordypning: robotsystemer)':1,}"
"bogazici universitetet","bogazici-universitetet","Tyrkia","Istanbul","","41.0091982","28.9662187","{'allmenn litteraturvitenskap - bachelor':1,}"
"ubc","ubc","Canada","Vancouver","","49.2608724","-123.113952","{'mtkj':2,'bygg- og miljøteknikk':2,'mtkom':1,'tekniske geofag':1,'energi og miljø':1,'mtbygg':1,'industriell kjemi og bioteknologi':1,}"
"university of padova","university-of-padova","Italia","Padova","","45.4077172","11.8734455","{'bioteknologi (mbiot5)':1,'mtkj':2,'industriell kjemi og bioteknologi':1,'bachelor psykologi':1,'psykologi bachelor':1,}"
"universita degli di padova","universita-degli-di-padova","Italia","Padova","","45.4077172","11.8734455","{'industriell økonomi og teknologiledelse':1,}"
"universita degli studi di genova","universita-degli-studi-di-genova","Italia","Genova","","44.40726","8.9338624","{'kybernetikk og robotikk':1,}"
"usi","usi","Sveits","Mendrisio","","45.8709661","8.9875293","{'arkitektur':1,}"
"dtu: danmarks tekniske universitet","dtu:-danmarks-tekniske-universitet","Danmark","Kongens Lyngby","","55.7718649","12.5051413","{'mtkj - bioteknologi':1,}"
"aalto university","aalto-university","Finland","Espoo/Helsinki","","60.2047672","24.6568435","{'ingeniørvitenskap og ikt':1,'arkitektur':2,}"
"institut détudes politiques de toulouse","institut-détudes-politiques-de-toulouse","Frankrike","Toulouse","","43.6044622","1.4442469","{'europastudier - bachelorstudium':1,'statsvitenskap':1,}"
"universidade de lisboa","universidade-de-lisboa","Portugal","Lisboa","","38.7077507","-9.1365919","{'industriell design':1,}"
"technische universität graz","technische-universität-graz","Østerrike","Graz","","47.0708678","15.4382786","{'fysikk og matematikk (tekfys)':1,'bygg- og miljøteknikk':2,}"
"upc-fme","upc-fme","Spania","Barcelona","","41.3828939","2.1774322","{'fysikk og matematikk':1,}"
"accademia di belle arti di brera","accademia-di-belle-arti-di-brera","Italia","Milano","","45.4641943","9.1896346","{'industriell design':1,}"
"czech technical university","czech-technical-university","Tsjekkia","Praha","","50.0874654","14.4212535","{'kybernetikk og robotikk':1,}"
"univeristetet i bologna","univeristetet-i-bologna","Italia","Bologna","","44.4938203","11.3426327","{'bygg og miljøteknikk':1,}"
"kungliga tekniska högskolan","kungliga-tekniska-högskolan","Sverige","Stockholm","","59.3251172","18.0710935","{'ingeniørvitenskap og ikt - konstruksjonsteknikk':1,'energi og miljø':2,}"
"ist - tecniso lisboa","ist---tecniso-lisboa","Portugal","Lisboa","","38.7077507","-9.1365919","{'ingeniørvitenskap og ikt':1,}"
"università di genova","università-di-genova","Italia","Genova","","44.40726","8.9338624","{'ingeniørvitenskap &amp;amp; ikt':1,}"
"kaist","kaist","Korea","Daejeon","","36.3497007","127.3849016","{'datateknologi':2,'kybernetikk og robotikk (mttk)':1,'mtdt':1,'mttk':1,'produktutvikling og produksjon':1,'fysikk og matematikk':2,'produksjon og produktutvikling':1,}"
"hochschule lucerne","hochschule-lucerne","Sveits","Luzern","","47.0505452","8.3054682","{'master i arkitektur':1,}"
"ku leuven","ku-leuven","Belgia","Leuven","","50.879202","4.7011675","{'fysikk og matematikk - industriell matematikk':1,'datateknologi':2,'':1,'industriell kjemi og bioteknologi':1,'mtkj':1,'kommunikasjonsteknologi':1,'bygg og miljøteknikk':1,'sivilingeniør i nanoteknologi':1,}"
"eindhoven university of technology (tu eindhoven)","eindhoven-university-of-technology-(tu-eindhoven)","Nederland","Eindhoven","","51.4392648","5.478633","{'kybernetikk og robotikk masterprogram (sivilingeniør) 5-årig':1,}"
"university of hawaii at manoa","university-of-hawaii-at-manoa","USA","Honolulu","","21.304547","-157.855676","{'bachelor i biologi':1,'kybernetikk og robotikk':1,'europastudier med statsvitenskap':1,'økonomi og administrasjon bachelor':2,'bachelor i økonomi og administrasjon':1,}"
"universitat politècnica de valència","universitat-politècnica-de-valència","Spania","Valencia","","39.4697065","-0.3763353","{'industriell økonomi og teknologiledelse, emil':1,'marin teknikk':1,'kybernetikk og robotikk':1,'bygg- og miljøteknikk':1,'fysikk og matematikk - industriell matematikk':1,'master i arkitektur':1,}"
"universitet mannheim","universitet-mannheim","Tyskland","Mannheim","","49.4892913","8.4673098","{'industriell økonomi og teknologiledelse':2,}"
"università degli studi di firenze","università-degli-studi-di-firenze","Italia","Firenze","","43.7698712","11.2555757","{'arkitektur':1,'statsvitenskap':1,}"
"ist - instituto superior técnico","ist---instituto-superior-técnico","Portugal","Lisboa","","38.7077507","-9.1365919","{'kybernitikk og robotikk':1,}"
"universita degli studi di firenze (unifi)","universita-degli-studi-di-firenze-(unifi)","Italia","Firenze","","43.7698712","11.2555757","{'industriell økonomi og teknologiledelse - data':1,}"
"chalmers university","chalmers-university","Sverige","Gothenburg","","57.7072326","11.9670171","{'industrial ecology':1,}"
"ugent","ugent","Belgia","Gent","","51.0538286","3.7250121","{'ingeniørvitenskap og ikt, konstruksjon':1,'bygg - og miljøteknikk':1,}"
"københavns professionshøjskole","københavns-professionshøjskole","Danmark","København","","55.6867243","12.5700724","{'bachelor i sosialt arbeid (sosionom)':1,'barnevernspedagogikk bachelor':1,'sykepleierutdanning, bachelor heltid':1,'sykepleie, bachelor heltid':1,}"
"sapienza universita di roma","sapienza-universita-di-roma","Italia","Roma","","41.8933203","12.4829321","{'mtnano':1,}"
"universitat politecnica de catalunya","universitat-politecnica-de-catalunya","Spania","Barcelona","","41.3828939","2.1774322","{'industriell matematikk':1,'datateknologi':1,'kybernetikk og robotikk':1,'bygg- og miljøteknikk':1,}"
"ucd","ucd","Irland","Dublin","","53.3493795","-6.2605593","{'arkitektur':1,'elektrisk energiteknikk og smarte nett':1,'mtbygg':1,}"
"university of roehampton","university-of-roehampton","Storbritannia","London","","51.5073359","-0.12765","{'drama og teater':1,}"
"upv, universitat politècnica de valència","upv,-universitat-politècnica-de-valència","Spania","Valencia","","39.4697065","-0.3763353","{'mtprod':1,'bygg- og miljøteknikk':1,}"
"unibo","unibo","Italia","Bologna","","44.4938203","11.3426327","{'datateknologi':1,'energi og miljø':2,'fysmat':1,'mlt':1,'religionsvitenskap / årsstudium engelsk':1,}"
"bme","bme","Ungarn","Budapest","","47.4978918","19.0401609","{'kybernetikk og robotikk':1,'kommunikasjonsteknologi':2,}"
"czech technical university (ctu)","czech-technical-university-(ctu)","Tsjekkia","Praha","","50.0874654","14.4212535","{'kybernetikk og robotikk':1,'datateknologi':1,}"
"uc berkeley","uc-berkeley","USA","Berkeley","","37.8708393","-122.272863","{'mtnano':1,'industriell økonomi og teknologiledelse':3,'kybernetikk og robotikk':1,'psykologi bachelor':1,'industriell kjemi og bioteknologi':2,'bachelor økonomi og administrasjon':1,'mtiøt - data':1,'mtdt - datateknologi':1,'bachelor psykologi':1,'ingeniørvitenskap og ikt':1,'fysikk og matematikk':3,'dataingeniør':2,'mtkj':1,'mtfyma':2,'mttk':1,'bygg- og miljøteknikk':1,'emil':1,'energi og miljø':1,'nanoteknologi':1,'produktutvikling og produksjon':1,'industriell økonomi og teknologiledelse med valgt teknologiretning emil og elkraft':1,'marine teknikk':1,'mtprod':2,'sosiologi':1,'konstruksjonsteknikk':1,'master i matematikk':1,'lektor i samfunnsfag':1,}"
"alma mater studiorum università di bologna","alma-mater-studiorum-università-di-bologna","Italia","Bologna","","44.4938203","11.3426327","{'industriell kjemi og bioteknologi':1,}"
"technical university of denmark - dtu","technical-university-of-denmark---dtu","Danmark","Kongens Lyngby/København","","0","0","{'marin teknikk':1,}"
"seoul national university","seoul-national-university","Korea","Seoul","","37.5666791","126.9782914","{'master i matematikk':1,'kybernetikk og robotikk':2,'datateknologi':2,'bygg- og miljøteknikk':1,'samfunnsøkonomi':1,'samfunnsøkonomi 5-årig master':1,}"
"universidad carlos iii de madrid (uc3m)","universidad-carlos-iii-de-madrid-(uc3m)","Spania","Madrid","","40.4167047","-3.7035825","{'datateknologi':1,}"
"lunds universitet","lunds-universitet","Sverige","Lund","","55.7029296","13.1929449","{'arkitektur':1,'bachelor i psykologi':1,}"
"sungkyunkwan university","sungkyunkwan-university","Korea","Suwon","","37.2633325","127.0287472","{'bygg- og miljøteknikk':1,'dataingeniør':2,'dataingeniør bachelor':1,'master sts':1,'master i informatikk':1,'mbiot5':2,'fysikk og matematikk, siving.':1,'elektroingeniør':1,'arkitektur':1,'mtfyma':1,}"
"sapienza università di roma","sapienza-università-di-roma","Italia","Roma","","41.8933203","12.4829321","{'industriell økonomi og teknologiledelse':1,}"
"ohio state university","ohio-state-university","USA","Columbus, Ohio","","39.9622601","-83.0007065","{'bioingeniør':1,'bioingeniørfag, bachelor':1,}"
"universidad de valencia (uv)","universidad-de-valencia-(uv)","Spania","Valencia","","39.4697065","-0.3763353","{'samfunnsøkonomi':1,'industriell kjemi og bioteknologi':1,}"
"university of hawaii","university-of-hawaii","USA","Honolulu","","21.304547","-157.855676","{'kybernetikk og robotikk':1,}"
"universidad de granada (ugr)","universidad-de-granada-(ugr)","Spania","Granada","","37.1734995","-3.5995337","{'elektronisk systemdesign og innovasjon (nanoelektronikk og fotonikk)':1,}"
"science po","science-po","Frankrike","LYON","","45.7578137","4.8320114","{'europastudier':1,}"
"reykjavik university","reykjavik-university","Island","Reykjavik","","64.145981","-21.9422367","{'energi og miljø':1,}"
"harvard university","harvard-university","USA","Boston","","42.3554334","-71.060511","{'mtiøt':1,'industriell økonomi og teknologiledelse':7,'indøk':2,'nanoteknologi':1,'nanoteknologi, sivilingeniør/masterprogram 5-årig':1,'mtiøt-dt':1,'elektronisk systemdesign og innovasjon':1,'marin teknikk prosjektering':1,}"
"ucly","ucly","Frankrike","Lyon","","45.7578137","4.8320114","{'bachelor i bioingeniørfag':1,}"
"university of cape town - uct","university-of-cape-town---uct","Sør Afrika","Cape Town","","-33.928992","18.417396","{'indøk data':1,}"
"free university of bozen-bolzano (unibz)","free-university-of-bozen-bolzano-(unibz)","Italia","Bolzano","","46.655945450000004","11.23021287087526","{'indøk data':1,}"
"kungliga konsthögskolan","kungliga-konsthögskolan","Sverige","Stockholm","","59.3251172","18.0710935","{'bbk':1,}"
"california state university, los angeles","california-state-university,-los-angeles","USA","los angeles","","34.0536909","-118.242766","{'psykologi batchelor':1,}"
"technical university of denmark (dtu)","technical-university-of-denmark-(dtu)","Danmark","København","","55.6867243","12.5700724","{'kommunikasjonsteknologi og digital sikkerhet':1,}"
"dtu - danmarks tekniske universitet","dtu---danmarks-tekniske-universitet","Danmark","København","","55.6867243","12.5700724","{'energi og miljø':1,'mtprod':1,'bimas':1,'kybernetikk og robotikk':1,'elsys':1,'produktutvikling':1,}"
"university of california, berkeley","university-of-california,-berkeley","USA","Berkeley","","37.8708393","-122.272863","{'industriell økonomi og teknologiledelse, data':1,'byggingeniør - ålesund':1,'datateknologi':1,'master i datateknologi':1,'mtfyma':1,'profesjonsstudiet i psykologi':1,'nanoteknologi':2,'fysikk og matematikk (teknisk fysikk)':1,'indøk':1,'industriell økonomi og teknologiledelse':1,'mtprod':1,'bygg- og miljøteknikk. studieretning: bygg og anlegg':1,'bygg- og miljøteknikk (bygg og anlegg)':1,'':1,'mtbygg':1,'mtnano':1,'bygg- og miljøteknikk':1,'marin teknikk':1,'lektorutdanning i språkfag':1,}"
"chalmers tekniska hogskola","chalmers-tekniska-hogskola","Sverige","Göteborg","","57.7072326","11.9670171","{'elektronisk systemdesign og innovasjon':1,}"
"texas a&amp;m university","texas-a&amp;m-university","USA","College Station","","30.5955289","-96.3071042","{'petroleumsfag':4,'petroleumsteknologi':1,}"
"texas a&amp;m","texas-a&amp;m","USA","College station","","30.5955289","-96.3071042","{'mtpetr':1,'petroleumsfag':2,}"
"danmarks tekniske universitet - dtu","danmarks-tekniske-universitet---dtu","Danmark","København","","55.6867243","12.5700724","{'bygg- og miljøteknikk':1,'kommunikasjonsteknologi':1,}"
"university of strathclyde","university-of-strathclyde","Storbritannia","Glasgow","","55.861155","-4.2501687","{'marin teknikk, prosjektering og logistikk':1,'elektronisk systemdesign &amp; innovasjon':1,'bachelor i økonomi og administrasjon':1,'marin teknikk':3,'bachelor i samfunnsøkonomi':1,'indøk':1,'industriell økonomi og teknologiledelse':1,}"
"universitetet i bern","universitetet-i-bern","Sveits","Bern","","46.9484742","7.4521749","{'fysikk og matematikk':1,}"
"university of wisconsin madison","university-of-wisconsin-madison","USA","Madison","","43.074761","-89.3837613","{'bygg- og miljøteknikk':1,}"
"vysoká škola báňská – technická univerzita ostrava","vysoká-škola-báňská-–-technická-univerzita-ostrava","Tsjekkia","Ostrava","","49.8349139","18.2820084","{'global manufacturing management, 2-årig master':1,}"
"london metropolitan university","london-metropolitan-university","Storbritannia","London","","51.5073359","-0.12765","{'psykologi profesjon':1,'økonomi og administrasjon':1,'engelsk bachelor':1,'engelsk':1,'bachelor i markedsføring og ledelse':1,'film og videoproduksjon':1,}"
"sciences po strasbourg","sciences-po-strasbourg","Frankrike","Strasbourg","","48.584614","7.7507127","{'europastudier med statsvitenskap':1,}"
"sdsu","sdsu","USA","San Diego","","32.7174202","-117.1627728","{'lektorutdanning - engelsk':1,'statsvitenskap':1,}"
"sciences po lyon","sciences-po-lyon","Frankrike","Lyon","","45.7578137","4.8320114","{'statsvitenskap':1,}"
"universitetet i padova","universitetet-i-padova","Italia","Padova","","45.4077172","11.8734455","{'mtkj':1,}"
"grenoble inp","grenoble-inp","Frankrike","Grenoble","","45.1875602","5.7357819","{'indøk':1,'materialteknologi':1,}"
"university of glasgow","university-of-glasgow","Storbritannia","Glasgow","","55.861155","-4.2501687","{'lektor i engelsk':1,'lektor i språkfag':1,'mtbygg - konstruksjon':1,'bygg- og miljøteknikk':1,'arkeologi':1,'englesk bachelor':1,'produktutvikling og produksjon':1,'energi og miljø':2,'statsvitenskap':1,'fysikk og matematikk':1,'master i historie':1,'sivilingeniør, 5-årig, fysikk og matematikk':1,'fysikk bachelor':1,'informatikk - master':1,'produktutvikling og produksjon, puma':1,}"
"universitá degli studi di siena","universitá-degli-studi-di-siena","Italia","Siena","","43.1672254","11.467181161339118","{'industriell økonomi og teknologiledelse':1,}"
"università degli studi di siena","università-degli-studi-di-siena","Italia","Siena","","43.1672254","11.467181161339118","{'industriell økonomi og teknologiledelse':1,}"
"albert-ludwigs-universität freiburg","albert-ludwigs-universität-freiburg","Tyskland","Freiburg im Breisgau","","47.9960901","7.8494005","{'lektor i samfunnsfag':1,'bachelor tysk - språk og litteratur':1,'fysikk og matematikk':1,'europastudier med fremmedspråk':1,}"
"management center innsbruck (mci)","management-center-innsbruck-(mci)","Østerrike","Innsbruck","","47.2654296","11.3927685","{'master i økonomi og administrasjon':1,}"
"uv - universitat de valencia","uv---universitat-de-valencia","Spania","Valencia","","39.4697065","-0.3763353","{'profesjonsstudiet i psykologi':1,}"
"national university of singapore","national-university-of-singapore","Singapore","Singapore","","1.357107","103.8194992","{'statsvitenskap':1,'økonomi og administrasjon':1,'datateknologi':1,'dataingeniør':1,'indøk':1,'marin teknikk':7,'mtmart':1,'nanoteknologi':2,'mtnano':1,'mtiøt':1,'industriell økonomi og teknologiledelse':1,'produktutvikling og produksjon':1,}"
"amsterdam university of applied sciences","amsterdam-university-of-applied-sciences","Nederland","Amsterdam","","52.3730796","4.8924534","{'dataingeniør':2,'dataingeniør (bachelor)':1,}"
"ajou university","ajou-university","Korea","Suwon","","37.2633325","127.0287472","{'digital infrastruktur og cybersikkerhet':2,'energi og miljø':1,'datateknologi':1,'kommunikasjonsteknologi':1,'informatikk master':1,}"
"hawaii pacific university","hawaii-pacific-university","USA","Honolulu","","21.304547","-157.855676","{'biomarin innovasjon':2,'markedsføring og ledelse':1,'mtdt':1,'geografi':1,'bachelor i psykologi':1,}"
"politecninco di milano","politecninco-di-milano","Italia","Milano","","45.4641943","9.1896346","{'industriell design':1,}"
"albert-ludwigs-universität","albert-ludwigs-universität","Tyskland","Freiburg","","47.9960901","7.8494005","{'lektor i samfunnsfag/tysk':1,}"
"eth zürich","eth-zürich","Sveits","Zürich","","47.3744489","8.5410422","{'ingeniørvitenskap og ikt':2,'mtfyma':1,'mtelsys':1,}"
"cafoscari","cafoscari","Italia","Venezia","","45.4371908","12.3345898","{'ledelse av teknologi':1,}"
"insitituto superior tecnico","insitituto-superior-tecnico","Portugal","Lisboa","","38.7077507","-9.1365919","{'tekniske geofag':1,}"
"kth","kth","Sverige","Stockholm","","59.3251172","18.0710935","{'ingeniørvitenskap og ikt':1,'energi og miljø':1,'mttk':1,'energibruk og energiplanlegging':1,'arkitektur':2,'mtprod':2,'industriell design':1,}"
"institut détudes politiques de lyon (sciences po lyon)","institut-détudes-politiques-de-lyon-(sciences-po-lyon)","Frankrike","Lyon","","45.7578137","4.8320114","{'lektorutdanning i samfunnsfag':1,}"
"università degli studi di torino","università-degli-studi-di-torino","Italia","Torino","","45.0677551","7.6824892","{'master i ledelse av teknologi':1,'ledelse av teknologi':1,'økonomi og administrasjon':1,'økonomi og administrasjon, bachelor':1,}"
"universität innsbruck","universität-innsbruck","Østerrike","Innsbruck","","47.2654296","11.3927685","{'ledelse av teknologi':1,'kommunikasjonsteknologi':1,'bygg- og miljøteknikk':1,}"
"universidad de alicante","universidad-de-alicante","Spania","Alicante","","38.3436365","-0.4881708","{'mglu 1-7':1,'software engineering':1,'økonomi og administrasjon':2,'indøk':1,'industriell økonomi og teknologiledelse':2,}"
"management center innsbruck","management-center-innsbruck","Østerrike","Innsbruck","","47.2654296","11.3927685","{'økonomi og administrasjon bachelor':1,}"
"iqs ramon lull","iqs-ramon-lull","Spania","Barcelona","","41.3828939","2.1774322","{'økad':1,}"
"politecnico di milano (leonardo)","politecnico-di-milano-(leonardo)","Italia","Milano","","45.4641943","9.1896346","{'arkitektur (5-årig master)':1,}"
"iqs - universitat ramon llull","iqs---universitat-ramon-llull","Spania","Barcelona","","41.3828939","2.1774322","{'bachelor i økonomi og administrasjon':1,}"
"universitat de barcelona","universitat-de-barcelona","Spania","Barcelona","","41.3828939","2.1774322","{'markedsføring, innovasjon og ledelse':1,'fysikk og matematikk':1,'msc in biology- ecology, behaviour, evolution and biosystematics':1,'bioingeniør':2,'master of science in molecular medicine':1,'petroleumsfag':1,'molecular medicine':1,'markedsføring og ledelse, spesialisering eksportmarkedsføring':1,}"
"sapienza universitet i roma","sapienza-universitet-i-roma","Italia","Roma","","41.8933203","12.4829321","{'digital infrastruktur og cybersikkerhet':1,}"
"university of york","university-of-york","Storbritannia","York","","53.9590555","-1.0815361","{'bachelor i engelsk':1,'lektor språkfag - engelsk':1,'lektorutdanning i språkfag (engelsk)':1,'arkeologi':2,'bachelor i arkeologi':1,'engelsk':1,'engelsk bachelor':1,'ba engelsk':1,'mlspråk':1,'lektorutdanning i språkfag - engelsk':1,'lektorutdanning i språkfag':1,}"
"university of padua","university-of-padua","Italia","Padova","","45.4077172","11.8734455","{'indøk':1,'industriell økonomi og teknologiledelse':1,'bachelor i samfunnsøkonomi':1,'ingeniørvitenskap og ikt':1,}"
"university of zürich (uzh)","university-of-zürich-(uzh)","Sveits","Zürich","","47.3744489","8.5410422","{'master i statsvitenskap':1,}"
"alma","alma","Italia","Bologna","","44.4938203","11.3426327","{'energi og miljø':1,}"
"instituto superior tècnico","instituto-superior-tècnico","Portugal","Lisboa","","38.7077507","-9.1365919","{'tekniske geofag':1,}"
"chung-ang university","chung-ang-university","Korea","Seoul","","37.5666791","126.9782914","{'bachelor i kjemi':1,'datateknologi':1,'bachelor psykologi':1,'kommunikasjonsteknologi':1,'økonomi og adminisrajon':1,'teknisk kybernetikk':1,}"
"ie university","ie-university","Spania","Madrid","","40.4167047","-3.7035825","{'industriell økonomi og teknologiledelse':1,}"
"hong kong polytechnic university","hong-kong-polytechnic-university","Kina","Hong Kong","","22.2793278","114.1628131","{'indøk - emil':1,'industriell økonomi og teknologiledelse':1,'samfunnsøkonomi':1,}"
"ca foscari","ca-foscari","Italia","venezia","","45.4371908","12.3345898","{'økonomi og administrasjon':1,'master i ledelse av teknologi':2,'industriell økonomi og teknologiledelse':1,}"
"universita degli studi di firenze","universita-degli-studi-di-firenze","Italia","Firenze","","43.7698712","11.2555757","{'statsvitenskap':1,'økonomi og administrasjon':1,}"
"università degli studi di roma la sapienza","università-degli-studi-di-roma-la-sapienza","Italia","Roma","","41.8933203","12.4829321","{'master, international business and marketing':1,}"
"st. pölten university of applied sciences","st.-pölten-university-of-applied-sciences","Østerrike","St. Pölten","","48.2043985","15.6229118","{'digital infrastruktur og cybersikkerhet':1,}"
"rennes school of business","rennes-school-of-business","Frankrike","Rennes","","48.1113387","-1.6800198","{'økonomi og administrasjon':1,}"
"iqs ramon llull","iqs-ramon-llull","Spania","Barcelona","","41.3828939","2.1774322","{'økonomi og administrasjon':1,}"
"tor vergata","tor-vergata","Italia","Roma","","41.8933203","12.4829321","{'indøk':1,}"
"university of california berkeley","university-of-california-berkeley","USA","Berkeley","","37.8708393","-122.272863","{'økonomi og administrasjon':1,'lektorprogrammet i språkfag':1,'bachelor ingeniør bygg':1,'produktutvikling og produksjon':1,'sivilingeniør bygg og miljøteknikk 5-årig':1,}"
"university of california santa barbara ucsb","university-of-california-santa-barbara-ucsb","USA","Santa Barbara","","34.4221319","-119.702667","{'indøk produktutvikling':1,}"
"universitetet i alicante","universitetet-i-alicante","Spania","Alicante","","38.3436365","-0.4881708","{'grunnskolelærer 1-7':1,}"
"university of alicante","university-of-alicante","Spania","Alicante","","38.3436365","-0.4881708","{'informatikk':1,}"
"aalto","aalto","Finland","Helsinki","","60.1674881","24.9427473","{'ingeniørvitenskap og ikt':1,}"
"universitetet i padova - unipd","universitetet-i-padova---unipd","Italia","Padova","","45.4077172","11.8734455","{'kybernetikk og robotikk':1,}"
"upc - fib","upc---fib","Spania","Barcelona","","41.3828939","2.1774322","{'indøk':1,'datateknologi':1,}"
"technische universität berlin","technische-universität-berlin","Tyskland","Berlin","","52.5170365","13.3888599","{'grunnskolelærerutdanning 5.-10. trinn':1,'bygg- og miljøteknikk':4,'kybernetikk og robotikk':2,'fysikk og matematikk':2,'marin teknikk':2,'master i informatikk - programvaresystemer':1,}"
"technisches universität berlin","technisches-universität-berlin","Tyskland","Berlin","","52.5170365","13.3888599","{'grunnskolelærerutdanning 5.-10 trinn masterstudium (5-årig)':1,}"
"universite grenoble alpes","universite-grenoble-alpes","Frankrike","Grenoble","","45.1875602","5.7357819","{'kybernetikk og robotikk':1,}"
"universidad politécnica de valencia","universidad-politécnica-de-valencia","Spania","Valencia","","39.4697065","-0.3763353","{'kybernetikk og robotikk (5 årig)':1,'master i informatikk':1,'informatikk, programvaresystemer':1,'marin teknikk':1,'bygg- og miljøteknikk':1,}"
"universidade de lisboa/instituto superior técnico","universidade-de-lisboa/instituto-superior-técnico","Portugal","Lisboa","","38.7077507","-9.1365919","{'marin teknikk':1,}"
"university of konstanz","university-of-konstanz","Tyskland","Konstanz","","47.659216","9.1750718","{'msc in chemistry':1,}"
"técnico lisboa","técnico-lisboa","Portugal","Lisboa","","38.7077507","-9.1365919","{'mttk':1,'marin teknikk':1,'produktutvikling og produksjon (sivilingeniør/master, 5 år) - ntnu':1,}"
"montanuniversität leoben","montanuniversität-leoben","Østerrike","Leoben","","47.3805128","15.0947756","{'petroleumsteknologi':1,}"
"iade","iade","Portugal","Lisboa","","38.7077507","-9.1365919","{'industriell design':1,}"
"mit","mit","USA","Boston","","42.3554334","-71.060511","{'mtfyma':1,'mttk':1,'industriell økonomi og teknologiledelse':1,'produktutvikling og produksjon':1,}"
"universidad de la laguna","universidad-de-la-laguna","Spania","La Laguna","","28.4857715","-16.3159422","{'datateknologi':1,'mtkom':1,'kommunikasjonsteknologi og digital sikkerhet':1,}"
"technical university of munich","technical-university-of-munich","Tyskland","München","","48.1371079","11.5753822","{'elektronisk systemdesign og innovasjon':1,'kybernetikk og robotikk':1,'industriell økonomi og teknologiledelse':1,'industriell kjemi og bioteknologi':1,}"
"arkitektskolen aarhus","arkitektskolen-aarhus","Danmark","Aarhus","","56.1496278","10.2134046","{'arkitektur':1,}"
"universidad de la laguna (ull)","universidad-de-la-laguna-(ull)","Spania","San Cristóbal de La Laguna","","28.4857715","-16.3159422","{'kommunikasjonsteknologi og digital sikkerhet':1,}"
"universitetet i bologna","universitetet-i-bologna","Italia","Bologna","","44.4938203","11.3426327","{'mttk':1,'energi og miljø':2,'økonomi og administrasjon':1,'bygg- og miljøteknikk':1,'industriell økonomi og teknologiledelse':1,}"
"chalmers university of technology","chalmers-university-of-technology","Sverige","Gøteborg","","57.7072326","11.9670171","{'fysikk og matematikk - industriell matematikk':1,'elektronisk systemdesign og innovasjon. akustikk':1,'mtbygg':1,}"
"universitat politècnica de catalunya (upc)","universitat-politècnica-de-catalunya-(upc)","Spania","Barcelona","","41.3828939","2.1774322","{'fysikk og matematikk':1,'bygg- og miljøteknikk':1,'kommunikasjonsteknologi':1,}"
"ist, instituto superior tecnico (universidade de lisboa)","ist,-instituto-superior-tecnico-(universidade-de-lisboa)","Portugal","Lisboa","","38.7077507","-9.1365919","{'ingeniørvitenskap &amp; ikt':1,}"
"university of southampton","university-of-southampton","Storbritannia","Southampton","","50.9025349","-1.404189","{'marine subsea operation':1,'undervannsteknologi':1,'marin teknikk':2,'comem':1,}"
"danske tekniske universitet (dtu)","danske-tekniske-universitet-(dtu)","Danmark","København","","55.6867243","12.5700724","{'':1,}"
"uniwersytet jagiellonski","uniwersytet-jagiellonski","Polen","Krakow","","50.0619474","19.9368564","{'european studies- masters programme':1,}"
"université de nantes","université-de-nantes","Frankrike","Nantes","","47.2186371","-1.5541362","{'europastudier med statsvitenskap':1,}"
"czech technical university, ctu","czech-technical-university,-ctu","Tsjekkia","Praha","","50.0874654","14.4212535","{'mibygg':1,}"
"university of twente","university-of-twente","Nederland","Enschede","","52.2209855","6.8940537","{'elektronisk systemdesign og innovasjon':1,'mtnano':2,'kybernetikk og robotikk: fiskeri- og havbruks-kybernetikk (mttk)':1,'sivilingeniør nanoteknologi':1,'dataingeniør bachelor':1,'bpsy':1,}"
"ostravska univerzita","ostravska-univerzita","Tsjekkia","Ostrava","","49.8349139","18.2820084","{'lektor i geografi':1,}"
"technical university of denmark","technical-university-of-denmark","Danmark","København","","55.6867243","12.5700724","{'industriell økonomi og teknologiledelse':1,}"
"elte - eötvös loránd university","elte---eötvös-loránd-university","Ungarn","Budapest","","47.4978918","19.0401609","{'master i psykologi':1,}"
"ntnus brusselkontor","ntnus-brusselkontor","Belgia","Brussel","","50.8465573","4.351697","{'european studies master':1,}"
"internship ntnu brusselkontor","internship-ntnu-brusselkontor","Belgia","Brussel","","50.8465573","4.351697","{'europastudier master':1,}"
"sintef","sintef","Belgia","Brussel","","50.8465573","4.351697","{'europastudier':1,'masters in european studies':1,}"
"uva","uva","Nederland","Amsterdam","","52.3730796","4.8924534","{'master i informatikk':1,}"
"göteborg universitet","göteborg-universitet","Sverige","Göteborg","","57.7072326","11.9670171","{'klassiske fag':1,}"
"the university of tokyo","the-university-of-tokyo","Japan","Tokyo","","35.6840574","139.7744912","{'datateknologi':1,'arkitektur':1,}"
"tu wien","tu-wien","Østerrike","Wien","","48.2083537","16.3725042","{'ph.d. i industriell økonomi og teknologiledelse':1,'maar':1,'mtdt':1,'energi og miljø':1,}"
"alma university","alma-university","Italia","Bologna","","44.4938203","11.3426327","{'mtenerg':1,}"
"università degli studi di perugia","università-degli-studi-di-perugia","Italia","Perugia","","43.1070321","12.402996209906487","{'petroleumsfag/petroleumsgeofysikk':1,'petroleumsgeofysikk':1,}"
"university of stuttgart","university-of-stuttgart","Tyskland","Stuttgart","","48.7784485","9.1800132","{'arkitektur':1,'mtfyma':1,}"
"ghent university","ghent-university","Belgia","Gent","","51.0538286","3.7250121","{'industriell kjemi og bioteknologi':1,'materialteknologi':1,'europastudier master':1,}"
"shanghai jiao tong university","shanghai-jiao-tong-university","Kina","Shanghai","","31.2323437","121.4691024","{'dataingeniør':1,'industriell økonomi og teknologiledelse':1,'produktutvikling og produksjon':1,'produksjon og produktutvikling':1,'kybernetikk og robotikk':1,'industriell kybernetikk':1,'datateknologi (mtdt)':1,'energibruk og energiplanlegging':1,}"
"università ca’ foscari venezia","università-ca’-foscari-venezia","Italia","Venezia","","45.4371908","12.3345898","{'industriell økonomi og teknologiledelse':1,}"
"national taiwan university of science and technology","national-taiwan-university-of-science-and-technology","Taiwan","Taipei","","25.0375198","121.5636796","{'industriell økonomi og teknologiledelse':1,'ledelse av teknologi':1,'master i ledelse av teknologi':1,'elektronisk systemdesign og innovasjon':1,'bioteknologi':1,'datateknologi':1,}"
"university of otago","university-of-otago","New Zealand","Dunedin","","-45.8740984","170.5035755","{'':1,'bygg- og miljøteknikk (bygg og anlegg)':1,'ingeniørvitenskap og ikt':1,'bachelor i biologi':1,'masterprogram (2-årig) lærar i samfunnsfag':1,'industriell økonomi og teknologiledelse (data/ai)':1,'master i geologi':1,'biologi, bachelor':1,'bachelor i geomatikk':1,'grunnskolelærer 1-7 m. realfag':1,'lektorutdanning i realfag':1,}"
"rwth","rwth","Tyskland","Aachen","","50.776351","6.083862","{'bygg-og miljøteknikk':1,'mtprod':1,'kybernetikk og robotikk, 5årig master':1,'energi og miljø':3,'master fysikk':1,'mtmt':1,'materialteknologi':1,}"
"universidad de lisboa","universidad-de-lisboa","Portugal","Lisboa","","38.7077507","-9.1365919","{'energi og miljø':1,}"
"universidade autonoma de lisboa","universidade-autonoma-de-lisboa","Portugal","Lisboa","","38.7077507","-9.1365919","{'arkitektur':3,}"
"karlsruher institut für technologie","karlsruher-institut-für-technologie","Tyskland","Karlrsuhe","","0","0","{'bygg- og miljøteknikk (veg)':1,}"
"universidade autónoma de lisboa (ual)","universidade-autónoma-de-lisboa-(ual)","Portugal","Lisboa","","38.7077507","-9.1365919","{'arkitektur - masterstudium (5-årig) (maar)':1,}"
"ual","ual","Portugal","Lisabon","","38.7077507","-9.1365919","{'arkitektur':1,'arkitektur (master 5-årig)':1,}"
"universidad de politecnica de valencia","universidad-de-politecnica-de-valencia","Spania","Valencia","","39.4697065","-0.3763353","{'master i industriell design':1,}"
"university of queensland","university-of-queensland","Australia","Brisbane","","-27.4689682","153.0234991","{'industriell kjemi og bioteknologi':1,'lektorutdanning i samfunnsfag':2,'lektor i engelsk':1,'bygg- og miljøteknikk':2,'profesjonsstudiet i psykologi':5,'datateknologi':4,'master i samfunnsøkonomi':1,'global manufacturing management, purchasing':1,'bachelor i psykologi':1,'mbiot5':1,'kybernetikk og robotikk':2,'bachelor i økonomi og administrasjon':1,'master i økonomi og administrasjon':2,'geografi (bachelor)':1,'master i voksnes læring':1,'fornybar energi':1,'lektor i samfunnsfag':3,'masterutdanning i voksnes læring':1,'mtdt':1,'psykologi':1,'psykologi - bacelorstudium':1,'samfunnsøkonomi':4,'produktutvikling og produksjon':1,'digital forretningsutvikling':2,'master i fag- og yrkesdidaktikk og lærerprofesjon. studieretning: samfunnsfag':1,'energi og miljø':2,'bachelor i informatikk':1,'industriell økonomi og teknologiledelse':8,'indøk':2,'dataingeniør':2,'elektroingeniør - elkraft':1,'bygg- og miljøteknikk, konstruksjonsteknikk':1,'mtbygg':1,'kybernetikk og robotikk (5 - årig master)':1,'mtenerg':1,'bachelor i samfunnsøkonomi':2,'bygg og miljøteknikk':1,'psykologi, profesjon':1,'økonomi og administrasjon':5,'integrert master i samfunnsøkonomi':1,'sivilingeniør fysikk og matematikk':1,'bevegelsesvitenskap':1,'markedsføring og ledelse':1,'mtprod':1,'datateknikk':1,'arkeologi bachelor':1,}"
"radboud university","radboud-university","Nederland","Nijmegen","","51.842574850000005","5.838960628748229","{'sosialantropologi':1,}"
"pontificia universidad católica de chile","pontificia-universidad-católica-de-chile","Chile","Santiago","","9.8694792","-83.7980749","{'bygg- og miljøteknikk (5-årig)':1,'statsvitenskap - bachelor':1,'industriell design':1,'nanoteknologi':1,'lektorutdanning i historie':1,'indøk - maskin':1,'bygg- og miljøteknikk':1,}"
"upc - universitat politècnica de catalunya","upc---universitat-politècnica-de-catalunya","Spania","Barcelona","","41.3828939","2.1774322","{'mtdt, datateknologi':1,}"
"karlsruhe institute of technology, kit","karlsruhe-institute-of-technology,-kit","Tyskland","Karlsruhe","","49.0068705","8.4034195","{'bygg- og miljøteknikk':1,}"
"uzh","uzh","Sveits","Zürich","","47.3744489","8.5410422","{'bfy':1,}"
"universidad politecnica de valencia (upv)","universidad-politecnica-de-valencia-(upv)","Spania","Valencia","","39.4697065","-0.3763353","{'mtbygg':1,}"
"isc paris business school","isc-paris-business-school","Frankrike","Paris","","48.8534951","2.3483915","{'økonomi og administrasjon':1,}"
"universitat de valencia","universitat-de-valencia","Spania","Valencia","","39.4697065","-0.3763353","{'fysikk og matematikk, fordypning i teknisk fysikk':1,'psykologi - bachelor':1,'master i ledelse av teknologi':1,'psykologi, bachelor':2,'psykologi':2,}"
"unibo - lalma mater studiorum - università di bologna","unibo---lalma-mater-studiorum---università-di-bologna","Italia","Bologna","","44.4938203","11.3426327","{'bygg- og miljøteknikk':1,}"
"maastricht university","maastricht-university","Nederland","Maastricht","","50.8512438","5.6909768","{'medievitenskap (bachelor)':1,'europastudier med engelsk':2,'europastudier m/ engelsk':1,'europastudier':1,}"
"bond university","bond-university","Australia","Gold Coast","","-28.0023731","153.4145987","{'økonomi, ledelse og bærekraft':2,'økonomi og administrasjon':30,'økonomi og administrasjon (bachelor)':1,'økonomi og administrasjon, bachelor':1,'øknonomi og administrasjon':1,'økad':1,'bachelor i økonomi og administrasjon':1,'økonomi, ledelse og bærekraft. nettbasert.':1,'shipping management':1,'økonomi og ledelse':1,'økonomi og administasjon':1,'medieledelse':1,}"
"lunds university","lunds-university","Sverige","Lund","","55.7029296","13.1929449","{'informatikk, drift av datasystemer':1,}"
"upc","upc","Spania","Barcelona","","41.3828939","2.1774322","{'industriell matematikk':1,'indmat':1,'energi og miljø':1,'mtmt':1,'https://www.ntnu.no/studier/mtkom':1,'mit':1,'kybernetikk og kybernetikk':1,'sivilingeniør, fysikk og matematikk':1,}"
"universitat politècnica de valència (upv)","universitat-politècnica-de-valència-(upv)","Spania","Valencia","","39.4697065","-0.3763353","{'ingeniørvitenskap og ikt':1,}"
"leeds beckett university","leeds-beckett-university","Storbritannia","Leeds","","53.7974185","-1.5437941","{'økonomi og administrasjon':1,}"
"university of cape town","university-of-cape-town","Sør Afrika","Cape Town","","-33.928992","18.417396","{'marin teknikk':1,'kjemisk prosessteknologi':1,'bevegelsesvitenskap':1,'bachelor bevegelsesvitenskap':1,'mtmart':1,'industriell økonomi og teknologiledelse':3,'sosiologi':1,'sosialt arbeid bachelor':1,'mtbygg':1,'2-årig master i samfunnsøkonomi':1,'lektor i geografi':1,'mtiøt':1,'bygg- og miljøteknikk':1,'statsvitenskap':2,}"
"insa lyon","insa-lyon","Frankrike","Lyon","","45.7578137","4.8320114","{'energi og miljø':1,'marin teknikk':1,}"
"the university of queensland","the-university-of-queensland","Australia","Brisbane","","-27.4689682","153.0234991","{'grunnskolelærer 5-10':1,'kybernetikk og robotikk':1,'bevegelsesvitenskap':1,'sosialantropologi':1,'samfunnsøkonomi':1,'arkitektur':1,'økonomi og administrasjon':1,}"
"wageningen university and research","wageningen-university-and-research","Nederland","Wageningen","","51.9685817","5.668298061827958","{'bachelor i biologi':1,}"
"duale hochschule baden-württemberg","duale-hochschule-baden-württemberg","Tyskland","Ravensburg","","47.7811014","9.612468","{'grafisk design':1,'':1,}"
"uba - universidad de buenos aires","uba---universidad-de-buenos-aires","Argentina","Buenos Aires","","-34.6075682","-58.4370894","{'spansk bachelor':1,}"
"kathmandu university","kathmandu-university","Nepal","Dhulikhel","","27.61765065","85.56351523229989","{'videreutdanning i helsesykepleie':1,'medisin':3,'bachelor sykepleie':2,'medisin profesjon':1,'sykepleie bachelor':1,'bachelor i sykepleie':1,}"
"queensland university of technology","queensland-university-of-technology","Australia","Brisbane","","-27.4689682","153.0234991","{'industriell økonomi og teknologiledelse':4,'medievitenskap (mki)':1,'sosiologi':1,'indøk pup':2,'mttk':1,'master ledelse av teknologi':1,'byggingeniør bachelor':1,'produktutvikling og produksjon':1,'materialteknologi 5 årig':1,'it-støttet bedriftsutvikling':1,'bygg- og miljøteknikk':1,'indøk':1,}"
"science po strasbourg - institut détudes politiques de strasbourg","science-po-strasbourg---institut-détudes-politiques-de-strasbourg","Frankrike","Strasbourg","","48.584614","7.7507127","{'europastudier':1,}"
"universita degli studi firenze","universita-degli-studi-firenze","Italia","Firenze","","43.7698712","11.2555757","{'bachelor i økonomi og administrasjon':1,}"
"school of engineering,university of florence","school-of-engineering,university-of-florence","Italia","Frienze /Florens","","0","0","{'økonomi og administrasjon':1,}"
"sciencespo","sciencespo","Frankrike","Lyon","","45.7578137","4.8320114","{'statsvitenskap':1,}"
"national taiwan university of science and technology / taiwan tech","national-taiwan-university-of-science-and-technology-/-taiwan-tech","Taiwan","Taipei","","25.0375198","121.5636796","{'datateknologi':1,}"
"ntust","ntust","Taiwan","Taipei","","25.0375198","121.5636796","{'bygg- og miljøteknikk':1,'elsys':1,}"
"national university of singapore (nus)","national-university-of-singapore-(nus)","Singapore","Singapore","","1.357107","103.8194992","{'datateknologi':2,'produktutvikling og produksjon':1,'nanoteknologi':1,'industriell økonomi og teknologiledelse':1,'proman':1,'mtiøt':1,'industriell økonomi':1,}"
"kathmandu university - dhulikhel hospital","kathmandu-university---dhulikhel-hospital","Nepal","Dhulikhel","","27.61765065","85.56351523229989","{'bachelor i sykepleie':1,}"
"praksis på et dagsenter for barn med psykisk utviklingshemming","praksis-på-et-dagsenter-for-barn-med-psykisk-utviklingshemming","Nepal","Kathmandhu","","14.5528047","121.1346397","{'vernepleie':1,}"
"unsw","unsw","Australia","Sydney","","-33.8698439","151.2082848","{'industriell kjemi og bioteknologi':2,'bygg- og miljøteknikk':4,'i&amp;ikt':1,'mtbygg':1,'bygg og miljøteknikk':2,'kybernetikk og robotikk':2,'industriell design':2,'mbiot5':1,'ingeniørvitenskap og ikt':1,'bygg- og miljøteknikk, konstruksjonsteknikk':1,'bifener':1,'økonomi og administrasjon':1,'teknisk fysikk (fysikk og matematikk)':1,'marin teknikk':8,'datateknologi':1,'energi og miljø':2,'mtnano':2,'informatikk':1,'nanoteknologi':1,'indøk - maskin':1,'indøk':3,'produktutvikling og produksjon':4,'mtenerg':1,'fornybar energi ingeniør':1,'mtiøt':2,'lektor i kroppsøving og idrettsfag':1,'lektor i kroppsøving og idrett':1,'industriell økonomi og teknologiledelse':5,'fysikk og matematikk':1,'it støttet bedriftsutvikling':1,'mtdt':1,'2-årig master i bygg og miljøteknikk':1,'tekniske geofag':1,'indøk - data':1,'indøk data':1,'nt':1,'petroleumsteknologi':1,'mtpetro':1,'mtkj':2,}"
"qut","qut","Australia","Brisbane","","-27.4689682","153.0234991","{'indøk':1,'industriell økonomi og teknologiledelse':2,'kybernetikk og robotikk':2,'logistikkingeniør':1,}"
"rmit university","rmit-university","Australia","Melbourne","","-37.8142454","144.9631732","{'bygg og miljøteknikk':1,'industriell økonomi og teknologiledelse':1,'mtfyma':1,'bachelor i pedagogikk':1,}"
"dhulikhel hospital","dhulikhel-hospital","Nepal","Dhulikhel","","27.61765065","85.56351523229989","{'medisin':1,}"
"uba","uba","Argentina","Buenos Aires","","-34.6075682","-58.4370894","{'medisin, 6-årig profesjonsstudium':1,}"
"dette var et praksisopphold som lærer på hillcrest secondary school.","dette-var-et-praksisopphold-som-lærer-på-hillcrest-secondary-school.","Zambia","Livingstone","","-17.853135","25.861429","{'lektorutdanning i kroppsøving og idrettsfag - masterstudium':1,}"
"hillcrest secondary school (ungd.sk og vgs)","hillcrest-secondary-school-(ungd.sk-og-vgs)","Zambia","Livingstone","","-17.853135","25.861429","{'lektorutdanning i kroppsøving og idrettsfag':1,}"
"university of ghana","university-of-ghana","Ghana","Accra","","5.5571096","-0.2012376","{'sykepleie bachelor':1,'bioteknologi':1,'bachelor i engelsk':1,'bachelor, sykepleie':1,'sykepleie':2,'sykepleie bachelor heltid':1,'afrikastudier':1,}"
"uraccan","uraccan","Nicaragua","Bluefields","","12.0131543","-83.764907","{'bachelor sykepleie':1,'sykepleie':1,'sykepleien':1,}"
"praksis ved hillcrest national technical secondary school","praksis-ved-hillcrest-national-technical-secondary-school","Zambia","Livingstone","","-17.853135","25.861429","{'lektor i realfag':1,}"
"university of new south wales","university-of-new-south-wales","Australia","Sydney","","-33.8698439","151.2082848","{'bygg- og miljøteknikk. konstruksjon':1,'fysikk og matematikk':1,'lektorutdanning i språkfag (engelsk)':1,'mtbygg':2,'bygg- og miljøteknikk':1,'nanoteknologi':3,'mtdt':1,'bachelor i programmering':1,'byggingeniør':1,'informatikk':1,'fornybar energi':1,'marin teknikk':1,'lektor i engelsk':1,'lektor':1,'økonomi og administrasjon':3,'industriell økonomi og teknologiledelse':8,'mtfyma':1,'petroleumsfag':2,'mtmt':1,'bygg og miljøteknikk':1,}"
"university of california, santa barbara","university-of-california,-santa-barbara","USA","Santa Barbara","","34.4221319","-119.702667","{'mttk':1,'kybernetikk og robotikk':2,'informatikk':1,'kommunikasjonsteknologi':1,'ingeniørvitenskap og ikt':1,'energi og miljø sivilingeniør':1,'masterprogram i bioteknologi':1,'mtprod':1,'datateknologi':2,'teknisk kybernetikk':1,}"
"nova sbe","nova-sbe","Portugal","Lisboa","","38.7077507","-9.1365919","{'økønomi og administrasjon':1,'økonomi og administrasjon':1,}"
"kungliga tekniska högskolan - kth","kungliga-tekniska-högskolan---kth","Sverige","Stockholm","","59.3251172","18.0710935","{'fysikk og matematikk - teknisk fysikk':1,}"
"hillcrest technical secondary school (praksisskole)","hillcrest-technical-secondary-school-(praksisskole)","Zambia","Livingstone","","-17.853135","25.861429","{'lektorutdanningen i kroppsøving og idrettsfag':1,}"
"var ikke på et universitet, men bodde på mødrehjemmet abrigo rainha silvia i itaboraí","var-ikke-på-et-universitet,-men-bodde-på-mødrehjemmet-abrigo-rainha-silvia-i-itaboraí","Brazil","Rio de Janeiro","","-22.9110137","-43.2093727","{'barnevernspedagog':1,}"
"ingen","ingen","Sør Afrika","Cape Town","","-33.928992","18.417396","{'barnevernspedagog':2,'sosionom':1,'medisin profesjonsstudium':1,'':1,}"
"rheinische friedrich-wilhelms-universität bonn","rheinische-friedrich-wilhelms-universität-bonn","Tyskland","Bonn","","50.735851","7.10066","{'mathematical sciences':1,}"
"massachusetts institute of technology","massachusetts-institute-of-technology","USA","Cambridge","","52.2055314","0.1186637","{'fysikk og matematikk':1,'industriell økonomi og teknologiledelse':3,'marin teknikk':2,'5-årig sivilingeniør datateknologi':1,'datateknologi':1,}"
"university of valencia","university-of-valencia","Spania","Valencia","","39.4697065","-0.3763353","{'sosiologi bachelor':1,}"
"nanyang technological university (ntu)","nanyang-technological-university-(ntu)","Singapore","Singapore","","1.357107","103.8194992","{'industriell økonomi og teknologiledelse - emil':1,'marin teknikk, 5-årig master':1,'industriell økonomi og teknologiledelse, produktutvikling og produksjon':1,'industriell økonomi og teknologiledelse':1,'industriell økonomi -og teknologiledelse (indøk)':1,}"
"universidad san francisco de quito","universidad-san-francisco-de-quito","Ecuador","Quito","","-0.2201641","-78.5123274","{'medisin':1,'politisk økonomi':1,'medisin profesjon':1,'medisinstudiet':1,}"
"universidad san francisco de quito (usfq)","universidad-san-francisco-de-quito-(usfq)","Ecuador","Quito","","-0.2201641","-78.5123274","{'medisin':1,}"
"rmit","rmit","Australia","Melbourne","","-37.8142454","144.9631732","{'industriell økonomi og teknologiledelse':1,'bprog':1,'fysikk og matematikk':2,'bioteknologi':1,'tekniske geofag':1,'industriell design':2,'matematikk og fysikk':1,'bygg- og miljøteknikk':1,'kybernetikk og robotikk':1,'energi og miljø':2,'datateknikk':1,'datateknologi':1,}"
"ntnu","ntnu","Sør Afrika","Cape Town","","-33.928992","18.417396","{'sosialt arbeid':2,'soaialantropologi master':1,}"
"unam","unam","Namibia","Windhoek","","-22.5776104","17.0772739","{'sykepleie bachelor':3,'491097':1,'bachelor heltid sykepleie':1,'sykepleie':5,'sykepleier':1,'sykepleien':1,'bachelor i sykepleie':1,'':1,'industriell design':1,}"
"prosjektstudie med organisasjon","prosjektstudie-med-organisasjon","Zambia","Livingstone","","-17.853135","25.861429","{'sosialt arbeid':1,}"
"samarbeid med respons network, en ikke-statlig organisasjon.","samarbeid-med-respons-network,-en-ikke-statlig-organisasjon.","Zambia","Livingstone","","-17.853135","25.861429","{'sosialt arbeid':1,}"
"mcgill university","mcgill-university","Canada","Montreal","","45.5031824","-73.5698065","{'industriell økonomi og teknologiledelse':1,}"
"queen mary university of london","queen-mary-university-of-london","Storbritannia","London","","51.5073359","-0.12765","{'kybernetikk og robotikk':1,}"
"uruccan","uruccan","Nicaragua","Bluefields, Nicaragua","","12.0131543","-83.764907","{'sykepleie, ntnu':1,}"
"prosjektstudie i samarbeid med response network, ikke tilknyttet noe universitet","prosjektstudie-i-samarbeid-med-response-network,-ikke-tilknyttet-noe-universitet","Zambia","Livingstone","","-17.853135","25.861429","{'sosialt arbeid':1,}"
"uraccan bluefields","uraccan-bluefields","Nicaragua","Bluefields","","12.0131543","-83.764907","{'sykepleie':1,}"
"universidad politecnica de valencia","universidad-politecnica-de-valencia","Spania","Valencia","","39.4697065","-0.3763353","{'bygg- og miljøeknikk':1,}"
"universidad de valencia","universidad-de-valencia","Spania","Valencia","","39.4697065","-0.3763353","{'lektor i kroppsøving og idrett':1,'bioteknologi':1,'ledelse av teknologi':1,'mbiot5':2,'psykologi, profesjon':1,'psykologi bachelor':1,}"
"universiry of california, santa barbara","universiry-of-california,-santa-barbara","USA","Santa Barbara","","34.4221319","-119.702667","{'marin teknikk':1,}"
"nanyang technological university","nanyang-technological-university","Singapore","Singapore","","1.357107","103.8194992","{'industriell økonomi og teknologiledelse':6,'energi og miljø, elkraft':1,'kybernetikk og robotikk':1,'indøk, datateknologi':1,'bioteknologi':1,'nanoteknologi':1,'indøk':3,'industriell økonomi og teknologiledelse - datateknologi':1,'fysikk og matematikk':1,'energi og miljø':1,'industriell økonomi og teknologiledelse, data':1,'industriell økonomi og teknologiledelse, produksjon og produktutvikling':1,'kommunikasjonsteknologi':1,}"
"university of namibia","university-of-namibia","Namibia","Windhoek","","-22.5776104","17.0772739","{'bachelor sykepleie':1,'sykepleie':2,'sykepleien':1,}"
"streetlight inc.","streetlight-inc.","Filippinene","Tacloban","","11.2436208","125.0079543","{'barnevernspedagog':1,}"
"national taiwan university of science and technology (ntust)","national-taiwan-university-of-science-and-technology-(ntust)","Taiwan","Taipei","","25.0375198","121.5636796","{'industriell økonomi og teknologiledelse':1,}"
"aahurs universitet","aahurs-universitet","Danmark","Aarhus","","56.1496278","10.2134046","{'bachelor tysk/historie':1,}"
"tokyo institute of technology","tokyo-institute-of-technology","Japan","Tokyo","","35.6840574","139.7744912","{'kybernetikk og robotikk':5,'bygg- og miljøteknikk (mtbygg), konstruksjonsteknikk':1,'kommunikasjonsteknologi':1,'bygg- og miljøteknikk, konstruksjonsteknikk':1,'mtnano':1,}"
"muhas","muhas","Tanzania","Dar es Salaam","","-6.8160837","39.2803583","{'medisin':3,}"
"hamburg university of technology","hamburg-university-of-technology","Tyskland","Hamburg - Harburg","","53.4557227","9.9917669","{'marin teknikk':1,}"
"university of birmingham","university-of-birmingham","Storbritannia","Birmingham","","52.4796992","-1.9026911","{'kybernetikk og robotikk':1,'bachelor i pedagogikk':1,}"
"university college london","university-college-london","Storbritannia","London","","51.5073359","-0.12765","{'industriell økonomi og teknologiledelse':1,}"
"dongguk university","dongguk-university","Korea","Seoul","","37.5666791","126.9782914","{'mdtd':1,'informatikk':1,}"
"university of otagp","university-of-otagp","New Zealand","Dunedin","","-45.8740984","170.5035755","{'industriell økonomi og teknologiledelse':1,}"
"soas","soas","Storbritannia","London","","51.5073359","-0.12765","{'medievitenskap':1,}"
"utfsm","utfsm","Chile","Valparaíso","","-33.0458456","-71.6196749","{'kybernetikk og robotikk':1,}"
"università degli padova","università-degli-padova","Italia","Padova","","45.4077172","11.8734455","{'fysikk og matematikk':1,}"
"university of ljubljana","university-of-ljubljana","Slovenia","Ljubljana","","46.0500268","14.5069289","{'medisin':4,'profesjonsstudiet i medisin':1,'medisin profesjon':1,}"
"n/a","n/a","Belgia","Brussel","","50.8465573","4.351697","{'sosiologi':1,'natural resource management international masters':1,}"
"kings college london","kings-college-london","Storbritannia","London","","51.5073359","-0.12765","{'industriell økonomi og teknologiledelse':1,'filosofi master':1,'master i engelsk litteratur':1,'klassiske fag':1,'master i klassiske fag og antikkens kultur':1,}"
"university of waterloo","university-of-waterloo","Canada","Waterloo","","42.498275","-92.3328743","{'kommunikasjonsteknologi':2,'datateknologi':2,'bevegelsesvitenskap':1,'sosialantropologi':1,'fysikk og matematikk':1,}"
"universität wien","universität-wien","Østerrike","Wien","","48.2083537","16.3725042","{'bachelor i generell filosofi':1,'statsvitenskap- master':1,'master i matematikk (topologi)':1,'nanoteknologi':1,}"
"university of tasmania","university-of-tasmania","Australia","Launceston","","-41.4340813","147.1373496","{'marin teknikk':2,}"
"universita ca foscari","universita-ca-foscari","Italia","Venezia","","45.4371908","12.3345898","{'økonomi og administrasjon':1,}"
"kathmandu medical college","kathmandu-medical-college","Nepal","Kathmandu","","27.708317","85.3205817","{'bachelor sykepleie heltid':1,'bachelor sykepleie':1,'sykepleie':2,'bachelor sykepleie ntnu':1,'fysioterapi':1,'sykepleieutdanning':1,}"
"kmc","kmc","Nepal","Kathmandu","","27.708317","85.3205817","{'sykepleie':1,'fysioterapi':1,'sykepleien':1,}"
"stellenbosch university","stellenbosch-university","Sør Afrika","Stellenbosch","","-33.934444","18.869167","{'statsvitenskap':1,'afrika studier':1,'mtnano':1,}"
"university of new south wales - unsw","university-of-new-south-wales---unsw","Australia","Sydney","","-33.8698439","151.2082848","{'mtnano':1,}"
"burapha university","burapha-university","Thailand","Bang Saen","","13.2848334","100.9179506","{'sykepleie':1,}"
"århus universitet","århus-universitet","Danmark","Århus","","56.1496278","10.2134046","{'sosialantropologi':1,}"
"columbia university","columbia-university","USA","New York City","","40.7127281","-74.0060152","{'industriell økonomi og teknologiledelse':1,'indøk data':1,'mtiøt':1,'industriell økonomi':1,'iøt':1,}"
"massachusetts institute of technology - mit","massachusetts-institute-of-technology---mit","USA","Boston","","42.3554334","-71.060511","{'kybernetikk og robotikk':1,}"
"la sapienza roma","la-sapienza-roma","Italia","Roma","","41.8933203","12.4829321","{'informatikk':1,}"
"la sapienza university","la-sapienza-university","Italia","roma","","41.8933203","12.4829321","{'master i ledelse av teknologi':1,}"
"harvard","harvard","USA","Cambridge","","52.2055314","0.1186637","{'indøk data':1,'industriell økonomi og teknologiledelse':1,}"
"san diego state univesity","san-diego-state-univesity","USA","San Diego","","32.7174202","-117.1627728","{'bygg- og miljøteknikk':1,}"
"instituto superior technico","instituto-superior-technico","Portugal","Lisboa","","38.7077507","-9.1365919","{'':1,}"
"waseda daigaku","waseda-daigaku","Japan","Tokyo","","35.6840574","139.7744912","{'nanoteknologi':1,}"
"waseda university","waseda-university","Japan","Tokyo","","35.6840574","139.7744912","{'mtnano':1,'bachelor i økonomi og administrasjon':1,}"
"universidad de buenos aires (uba), faculdad de ciencias sociales","universidad-de-buenos-aires-(uba),-faculdad-de-ciencias-sociales","Argentina","Buenos Aires","","-34.6075682","-58.4370894","{'statsvitenskap - bachelor':1,}"
"tsinghua university","tsinghua-university","Kina","Beijing","","39.9057136","116.3912972","{'industriell økonomi og teknologiledelse':3,'mtkj':2,'datateknologi':1,'bygg- og miljøteknikk':1,'kybernetikk':1,'produktutvikling og produksjon siv-ing':1,}"
"the university of british columbia","the-university-of-british-columbia","Canada","Vancouver","","49.2608724","-123.113952","{'bygg- og miljøteknikk, 5-årig masterstudium':1,}"
"pontificia universidad catolica","pontificia-universidad-catolica","Chile","Santiago","","9.8694792","-83.7980749","{'produktutvikling og produksjon (pup/maskin)':1,}"
"university of british columbia(ubc)","university-of-british-columbia(ubc)","Canada","Vancouver","","49.2608724","-123.113952","{'kybernetikk og robotikk':1,}"
"griffith university","griffith-university","Australia","Gold Coast","","-28.0023731","153.4145987","{'fornybar energi ingeniør':1,}"
"universidad de buenos aires, facultad de ciencias economicas","universidad-de-buenos-aires,-facultad-de-ciencias-economicas","Argentina","Buenos Aires","","-34.6075682","-58.4370894","{'logistikkingeniør':1,}"
"konkuk university","konkuk-university","Korea","Seoul","","37.5666791","126.9782914","{'ingeniørvitenskap og ikt':1,}"
"university of california, san diego","university-of-california,-san-diego","USA","San Diego","","32.7174202","-117.1627728","{'indøk data':1,'industriell økonomi og teknologiledelse':1,'produktutvikling og produksjon':3,'mtprod - industriell mekanikk':1,'bioteknologi':1,'mtfyma':1,'bygg- og miljøteknikk':1,'lektor i språkfag (engelsk)':1,'datateknologi':1,'mtbygg':1,}"
"university of california san diego (ucsd/uc san diego)","university-of-california-san-diego-(ucsd/uc-san-diego)","USA","San Diego","","32.7174202","-117.1627728","{'industriell økonomi og teknologiledelse':1,}"
"university of auckland","university-of-auckland","New Zealand","Auckland","","-36.852095","174.7631803","{'industriell økonomi og teknologiledelse':2,'datateknologi 5 årig':1,'bachelor i sykepleie':2,'datateknologi':3,'indøk':1,'kybernetikk og robotikk':1,'mtfyma':1,'dataingeniør':1,'arkitektur og design':1,'energi og miljø':3,'produktutvikling og produksjon masterstudium (2-årig)':1,'sykepleie':5,'sykepleien':1,'bygg og miljøteknikk':2,'sosialt arbeid':1,'fysikk og matematikk (industriell matematikk)':1,'bygg- og miljøteknikk':1,'mtdt':1,'bbi':1,'produktutvikling og produksjon':1,}"
"university of tokyo","university-of-tokyo","Japan","Tokyo","","35.6840574","139.7744912","{'teknisk fysikk':1,'kybernetikk og robotikk':1,'arkitektur 5-årig master':1,'teknisk kybernetikk':1,}"
"university of newcastle","university-of-newcastle","Australia","Newcastle","","54.9738474","-1.6131572","{'materialteknologi, 5-årig':1,'produktutvikling og produksjon':1,'materialteknologi, bachelor':1,}"
"university of california san diego (ucsd)","university-of-california-san-diego-(ucsd)","USA","San Diego","","32.7174202","-117.1627728","{'datateknologi':3,}"
"institut za bolesti djece (barneavd sykehuset)","institut-za-bolesti-djece-(barneavd-sykehuset)","Montenegro","Podgorica","","42.4415238","19.2621081","{'':1,}"
"instituto técnico superior","instituto-técnico-superior","Portugal","Lisboa","","38.7077507","-9.1365919","{'kybernetikk &amp; robotikk':1,}"
"università di padova","università-di-padova","Italia","Padova","","45.4077172","11.8734455","{'fysikk og matematikk':1,}"
"the hong kong polytechnic university (polyu)","the-hong-kong-polytechnic-university-(polyu)","Kina","Hongkong","","22.2793278","114.1628131","{'ingeniørvitenskap og ikt, geomatikk':1,}"
"university of leeds","university-of-leeds","Storbritannia","Leeds","","53.7974185","-1.5437941","{'industriell økonomi og teknologiledelse':1,}"
"vysoké učení technické v brně","vysoké-učení-technické-v-brně","Tsjekkia","Brno","","49.1922443","16.6113382","{'informatikk':1,}"
"hebrew university rehovot","hebrew-university-rehovot","Israel","Rehovot","","31.8930644","34.80340932920801","{'biomarin innovasjon':1,}"
"the university of manchester","the-university-of-manchester","Storbritannia","Manchester","","53.4794892","-2.2451148","{'industriell økonomi og teknologiledelse':1,}"
"university of stellenbosch","university-of-stellenbosch","Sør Afrika","Stellenbosch","","-33.934444","18.869167","{'industriell kjemi og bioteknologi':1,}"
"university of chichester","university-of-chichester","Storbritannia","Chichester","","50.84467705","-0.7831144316193243","{'lektorutdanning i kroppsøving og idrettsfag':1,'bevegelsesvitenskap':4,}"
"osaka prefecture university","osaka-prefecture-university","Japan","Osaka","","34.661629000000005","135.49992679245517","{'indstriell kjemi og bioteknologi - kjemisk prosessteknologi':1,'industriell kjemi og bioteknologi - masterstudie':1,'mtdt':1,'master i databaser og søk':1,}"
"universita degli studi di salerno","universita-degli-studi-di-salerno","Italia","Salerno","","40.419441649999996","15.310756230322482","{'nanoteknologi':1,}"
"aberdeen university","aberdeen-university","Storbritannia","Aberdeen","","57.1482429","-2.0928095","{'master- statsvitenskap':1,}"
"université libre de bruxelles (ulb) og vrije universiteit brussel","université-libre-de-bruxelles-(ulb)-og-vrije-universiteit-brussel","Belgia","Brussel","","50.8465573","4.351697","{'bygg- og miljøteknikk':1,}"
"katholieke hogeschool vives kortrijk","katholieke-hogeschool-vives-kortrijk","Belgia","Kortrijk","","50.8276429","3.2659884","{'bachelor sykepleie, heltid':1,}"
"university of wollongong","university-of-wollongong","Australia","Wollongong","","-34.4278083","150.893054","{'dataingeniør':2,'byggingeniør':1,'programmering [spill | app]':1,'bioteknologi':1,'industriell økonomi og teknologiledelse':1,'bachelor i biologi':1,}"
"iae aix-marseille","iae-aix-marseille","Frankrike","Aix-en-Provence","","43.5298424","5.4474738","{'master i økonomi og administrasjon':1,}"
"university of madison-wisconsin","university-of-madison-wisconsin","USA","Madison, Wisconsin","","43.074761","-89.3837613","{'mttk':1,}"
"royal melbourne institute of technology university","royal-melbourne-institute-of-technology-university","Australia","Melbourne","","-37.8142454","144.9631732","{'dataingeniør':1,}"
"postech","postech","Korea","Pohang","","36.0189315","129.3429384","{'nanoteknologi':1,'elektro ingeniør':1,'kybernetikk og robotikk':1,}"
"utrecht university","utrecht-university","Nederland","Utrecht","","52.080985600000005","5.12768396945229","{'lektor geografi':1,}"
"universitas gadjah mada","universitas-gadjah-mada","Indonesia","Yogyakarta","","-7.9778383999999996","110.36722565020224","{'master i entreprenørskap, innovasjon og samfunn':1,}"
"university of wisconsin - madison","university-of-wisconsin---madison","USA","Madison","","43.074761","-89.3837613","{'master i bioteknologi':1,}"
"universidad de buenos aires","universidad-de-buenos-aires","Argentina","Buenos Aires","","-34.6075682","-58.4370894","{'lektorutdanning i samfunnsfag':1,'arkitektur master 5-årig':1,'arkitektur':2,'sosialantropologi':1,'medisin':1,'datateknologi':1,'industriell økonomi og teknologiledelse':2,'mtbygg':1,}"
"khatmandu university","khatmandu-university","Nepal","Dhulikhel","","27.61765065","85.56351523229989","{'medisinstudiet':1,}"
"university of cambridge","university-of-cambridge","Storbritannia","Cambridge","","52.2055314","0.1186637","{'mbiot5':1,}"
"esdes","esdes","Frankrike","Lyon","","45.7578137","4.8320114","{'bachelor i markedsforing, innovasjon og ledelse':1,}"
"université de liège","université-de-liège","Belgia","Liège","","50.6450944","5.5736112","{'lektor fransk':1,}"
"united nations environment programme (unep) regional office in west asia (rowa)","united-nations-environment-programme-(unep)-regional-office-in-west-asia-(rowa)","Bahrain","Manama","","26.2235041","50.5822436","{'globalization and sustainable development':1,}"
"esdes - business school of ucly","esdes---business-school-of-ucly","Frankrike","Lyon","","45.7578137","4.8320114","{'eksport markedsføring og ledelse':1,}"
"the university of auckland","the-university-of-auckland","New Zealand","Auckland","","-36.852095","174.7631803","{'tekniske geofag':1,'lektor i samfunnsfag, med engelsk':1,'ledelse av teknologi (2-årig masterprogram)':1,'informatikk':1,}"
"ucb","ucb","USA","Berkeley","","37.8708393","-122.272863","{'kybernetikk og robotikk':1,}"
"ara institue of canterbury","ara-institue-of-canterbury","New Zealand","Christchurch","","-43.530955","172.6366455","{'bachelor sykepleie':1,}"
"university of iceland","university-of-iceland","Island","Reykjavik","","64.145981","-21.9422367","{'ingeniørvitenskap og ikt':1,'master i nordisk språk':1,'film- &amp; videoproduksjon':1,'msc environmental chemistry':1,}"
"tokyo institute of technology (tokyo tech)","tokyo-institute-of-technology-(tokyo-tech)","Japan","Tokyo","","35.6840574","139.7744912","{'mbiot5':1,}"
"aston university","aston-university","Storbritannia","Birmingham","","52.4796992","-1.9026911","{'master of philosophy in english linguistics and language acquisition':1,}"
"california state university los angeles","california-state-university-los-angeles","USA","Los Angeles","","34.0536909","-118.242766","{'økonomi, ledelse og bærekraft':1,'film- og videoproduksjon':1,}"
"aix-marseille (iae)","aix-marseille-(iae)","Frankrike","Aix en Provence","","43.5298424","5.4474738","{'ledelse av teknologi':1,}"
"calstatela","calstatela","USA","LA","","34.0536909","-118.242766","{'økonomi, ledelse og bærekraft':1,}"
"univerza v ljubljani","univerza-v-ljubljani","Slovenia","Ljubljana","","46.0500268","14.5069289","{'medisin':1,}"
"-","-","Kenya","Kisumu og Asembo","","0","0","{'sykepleie':1,}"
"kanyakoo self help initiative","kanyakoo-self-help-initiative","Kenya","Kisumu","","-0.1029109","34.7541761","{'bachelor i sykepleie':2,}"
"tecnico lisboa","tecnico-lisboa","Portugal","Lisboa","","38.7077507","-9.1365919","{'energi og miljø':1,}"
"kwansei gakuin (daigaku) university","kwansei-gakuin-(daigaku)-university","Japan","Osaka","","34.661629000000005","135.49992679245517","{'musikkteknologi':1,}"
"curtin university","curtin-university","Australia","Perth","","-31.9558933","115.8605855","{'mtpetr':1,'2-årig master i petroleumsfag':1,'mtpetr - petroleumsfag - boring':1,'elektroingeniør':1,}"
"universidad politécnica de madrid - upm","universidad-politécnica-de-madrid---upm","Spania","Madrid","","40.4167047","-3.7035825","{'datateknologi':1,'marin teknikk':1,}"
"delft university of technology","delft-university-of-technology","Nederland","Delft","","51.999457199999995","4.362724538543995","{'datateknologi':1,'arkitektur, 5-årig master':1,'teknisk kybernetikk 5-årig':1,'energi og miljø':1,'industriell design':1,}"
"universidad complutense de madrid","universidad-complutense-de-madrid","Spania","Madrid","","40.4167047","-3.7035825","{'psykologi bachelor':1,}"
"universidad de granada","universidad-de-granada","Spania","Granada","","37.1734995","-3.5995337","{'psykologi, bachelor':1,'arkeologi':1,'lektorutdanning i språkfag':1,'lektor i samfunnsfag og idrett':1,'psykologi':1,'msøk5':1,}"
"kwansei gakuin university","kwansei-gakuin-university","Japan","Nishinomiya","","34.7386033","135.3394138","{'film- og videoproduksjon':1,'sosial antropologi':1,}"
"universität leipzig","universität-leipzig","Tyskland","Leipzig","","51.3406321","12.3747329","{'lektor, master tysk':1,'lektorutdanning i idrett og kroppsøving':1,'lektor i samfunnsfag':1,'lektorutdanning i kroppsøving og idrettsfag':1,'psykologi, bachelor':1,'nordisk/ tysk':1,}"
"rwth aachen","rwth-aachen","Tyskland","Aachen","","50.776351","6.083862","{'energi og miljø':1,'mtmt, materialteknologi 5-årig mastergrad':2,'mtmt':1,'datateknologi':1,'fysikk og matematikk':2,'industriell kjemi og bioteknologi':1,}"
"universitat politècnica de catalunya","universitat-politècnica-de-catalunya","Spania","Barcelona","","41.3828939","2.1774322","{'mtdt':1,'industriell økonomi og teknologiledelse':1,'ingeniørvitenskap &amp; ikt':1,'mtfyma':1,}"
"upv - universidad politecnica de valencia","upv---universidad-politecnica-de-valencia","Spania","Valencia","","39.4697065","-0.3763353","{'mtdt':1,}"
"politecnico milano","politecnico-milano","Italia","Milano","","45.4641943","9.1896346","{'mtkj':1,}"
"federal university of santa catarina (ufsc)","federal-university-of-santa-catarina-(ufsc)","Brazil","Florianópolis","","-27.5973002","-48.5496098","{'kybernetikk':1,}"
"macquarie university","macquarie-university","Australia","Sydney","","-33.8698439","151.2082848","{'lektor samfunnsfag':1,}"
"universitat politecnica de valencia (upv)","universitat-politecnica-de-valencia-(upv)","Spania","Valencia","","39.4697065","-0.3763353","{'bygg og miljøteknikk, med retning bygg og anlegg.':1,'energi og miljø':1,'bygg- og miljøteknikk':1,}"
"osaka prefecture oniversity","osaka-prefecture-oniversity","Japan","Osaka","","34.661629000000005","135.49992679245517","{'mtdt':1,}"
"tu kaiserslautern","tu-kaiserslautern","Tyskland","Kaiserslautern","","49.4432174","7.7689951","{'kybernetikk og robotikk':1,}"
"universitat politécnica de catalunya (upc)","universitat-politécnica-de-catalunya-(upc)","Spania","Barcelona","","41.3828939","2.1774322","{'nanoteknologi':1,}"
"ual - universidade autonoma de lisboa","ual---universidade-autonoma-de-lisboa","Portugal","Lisboa","","38.7077507","-9.1365919","{'arkitektur - masterstudium (5 årig)':1,}"
"universidade autónoma de lisboa - ual","universidade-autónoma-de-lisboa---ual","Portugal","Lisboa","","38.7077507","-9.1365919","{'master - arkitektur':1,}"
"uv (universitat de valència)","uv-(universitat-de-valència)","Spania","Valencia","","39.4697065","-0.3763353","{'mtkj':1,}"
"technische universiteit eindhoven","technische-universiteit-eindhoven","Nederland","Eindhoven","","51.4392648","5.478633","{'industriell kjemi og bioteknologi':1,'energi og miljø':1,'datateknologi, 5':1,'mtdt':1,}"
"kaist - korea advanced institute of science and technology","kaist---korea-advanced-institute-of-science-and-technology","Korea","Daejeon","","36.3497007","127.3849016","{'datateknologi':1,}"
"university of grenoble alpes (uga)","university-of-grenoble-alpes-(uga)","Frankrike","Grenoble","","45.1875602","5.7357819","{'master i bioteknologi (mbiot5)':1,}"
"leiden university","leiden-university","Nederland","Leiden","","52.1594747","4.4908843","{'arkeologi':1,'profesjonsstudiet i psykologi':1,}"
"upv - universitat politecnica de valencia","upv---universitat-politecnica-de-valencia","Spania","Valencia","","39.4697065","-0.3763353","{'bygg- og miljøteknikk':1,}"
"technical university of munich - tum","technical-university-of-munich---tum","Tyskland","München","","48.1371079","11.5753822","{'kybernetikk og robotikk, 5 årig':1,}"
"upv - universitat politècnica de valència","upv---universitat-politècnica-de-valència","Spania","Valencia","","39.4697065","-0.3763353","{'energi og miljø':1,'fysikk og matematikk - industriell matematikk':1,}"
"tuhh","tuhh","Tyskland","Hamburg","","53.550341","10.000654","{'ingeniørvitenskap og ikt':1,'marin teknikk':2,}"
"impedit voluptates","impedit-voluptates","Belgia","Error accusantium of","","0","0","{'qui qui perferendis':1,}"
"vero obcaecati sed o","vero-obcaecati-sed-o","Malta","Provident ab tempor","","0","0","{'nesciunt aut in dol':1,}"
"ad labore consequatu","ad-labore-consequatu","Peru","Quis aperiam volupta","","0","0","{'aliqua alias quo ve':1,}"
"consequat corporis","consequat-corporis","Albania","Voluptate irure sed","","0","0","{'incidunt excepteur':1,}"
"prosjekt arbeid med city mission (ikke universitet)","prosjekt-arbeid-med-city-mission-(ikke-universitet)","Sør Afrika","Cape Town","","-33.928992","18.417396","{'bachelor i sosialt arbeid':1,}"
"univesitat rovira i virgili","univesitat-rovira-i-virgili","Spania","Tortosa","","40.8110158","0.5209333","{'sykepleie':1,}"
"universitat politécnica de valéncia upv","universitat-politécnica-de-valéncia-upv","Spania","Valencia","","39.4697065","-0.3763353","{'industriell design':1,}"
"universidad rovira i virgili - campus terres de l’ebre (urv-cte)","universidad-rovira-i-virgili---campus-terres-de-l’ebre-(urv-cte)","Spania","Tortosa","","40.8110158","0.5209333","{'sykepleie bachelor':1,}"
"karolinska institutet","karolinska-institutet","Sverige","Stockholm","","59.3251172","18.0710935","{'medisin':2,}"
"charles university","charles-university","Tsjekkia","Praha","","50.0874654","14.4212535","{'samfunnsøkonomi':1,}"
"universitat rovira i virgili","universitat-rovira-i-virgili","Spania","Tortosa","","40.8110158","0.5209333","{'bachelor i sykepleie':1,'sykepleie':1,'sykepleien':1,}"
"unibo- scuola di ingegneria e architettura","unibo--scuola-di-ingegneria-e-architettura","Italia","Bologna","","44.4938203","11.3426327","{'bygg- og miljøteknikk':1,}"
"universidad carlos iii de madird (uc3m)","universidad-carlos-iii-de-madird-(uc3m)","Spania","Madrid","","40.4167047","-3.7035825","{'datateknologi':1,}"
"oporto polytechnic institute","oporto-polytechnic-institute","Portugal","Porto","","41.1494512","-8.6107884","{'politisk økonomi':1,}"
"rovira i virgili university","rovira-i-virgili-university","Spania","Tortosa","","40.8110158","0.5209333","{'sykepleie':1,}"
"federico santa maria technical university","federico-santa-maria-technical-university","Chile","Valparaiso","","41.4730948","-87.0611412","{'bygg- og miljøteknikk masterprogram':1,}"
"technische universiteit delft","technische-universiteit-delft","Nederland","Delft","","51.999457199999995","4.362724538543995","{'mtfyma':1,'kybernetikk og robotikk':1,'petroleumsfag':1,}"
"kunstakademie münster, leonardo campus.","kunstakademie-münster,-leonardo-campus.","Tyskland","Münster","","51.9625101","7.6251879","{'bachelorutdanning i billedkunst':1,}"
"kunstakademie münster","kunstakademie-münster","Tyskland","Münster","","51.9625101","7.6251879","{'bachelorutdanning i billedkunst':1,}"
"the university of bologna","the-university-of-bologna","Italia","bologna","","44.4938203","11.3426327","{'bygg- og miljøteknikk':1,}"
"université nice sophia antipolis","université-nice-sophia-antipolis","Frankrike","Nice","","43.7009358","7.2683912","{'mtfyma':1,}"
"université de montpellier ii - faculté des sciences","université-de-montpellier-ii---faculté-des-sciences","Frankrike","Montpellier","","43.6112422","3.8767337","{'fysikk og matematikk - industriell matematikk':1,}"
"københavn professionshøjskolen","københavn-professionshøjskolen","Danmark","København","","55.6867243","12.5700724","{'sykepleierutdanningen - bachelor':1,}"
"universidad de cantabria","universidad-de-cantabria","Spania","Santander","","43.4620412","-3.8099719","{'marin teknikk':1,'mtnano':1,'tekniske geofag':1,}"
"university of sunshine coast","university-of-sunshine-coast","Australia","sunshine coast","","-26.6544338","153.0933668","{'biologi':1,'bioteknologi':1,}"
"technische universität wien","technische-universität-wien","Østerrike","Wien","","48.2083537","16.3725042","{'kybernetikk og robotikk':1,'arkitektur':1,}"
"hochschule für wirtschaft und recht","hochschule-für-wirtschaft-und-recht","Tyskland","Berlin","","52.5170365","13.3888599","{'økonomi og administrasjon':2,}"
"queensland university of technology (qut)","queensland-university-of-technology-(qut)","Australia","Brisbane","","-27.4689682","153.0234991","{'mtmt':1,'industriell økonomi og teknologiledelse':2,'logistikk':1,'indøk':1,}"
"universidad técnica federico santa maría (utfsm)","universidad-técnica-federico-santa-maría-(utfsm)","Chile","Valparaíso","","-33.0458456","-71.6196749","{'bygg- og miljøteknikk':1,}"
"university of british colombia, ubc","university-of-british-colombia,-ubc","Canada","Vancouver","","49.2608724","-123.113952","{'produktutvikling og produksjon':1,}"
"tu münchen","tu-münchen","Tyskland","München","","48.1371079","11.5753822","{'bachelor i fysikk':1,'indøk data':1,'industriell økonomi og teknologiledelse':1,}"
"universitat ramon llull","universitat-ramon-llull","Spania","Barcelona","","41.3828939","2.1774322","{'bachelor i økonomi og administrasjon':1,'økonomi og administrasjon':1,}"
"science po strasbourg","science-po-strasbourg","Frankrike","Strasbourg","","48.584614","7.7507127","{'europastuder med statsvitenskap':1,}"
"université de lille","université-de-lille","Frankrike","Lille","","50.6365654","3.0635282","{'matteknologi':1,}"
"sciences po lyon - institut détudes politiques de lyon","sciences-po-lyon---institut-détudes-politiques-de-lyon","Frankrike","Lyon","","45.7578137","4.8320114","{'statsvitenskap':1,}"
"norge","norge","Zambia","Trondheim","","63.4304475","10.3952118","{'internasjonalt samarbeid perspektiv på læreryrket (1-10) lgu14016 lgu54017 (2019 vår)':1,}"
"esdes business school","esdes-business-school","Frankrike","Lyon","","45.7578137","4.8320114","{'økonomi og administrasjon':1,}"
"université toulouse - jean jaurès","université-toulouse---jean-jaurès","Frankrike","Toulouse","","43.6044622","1.4442469","{'profesjonsstudiet psykologi':1,}"
"universitetet i groningen","universitetet-i-groningen","Nederland","Groningen","","53.2190652","6.5680077","{'profesjonsstudiet i psykologi':1,}"
"universidad de san francisco de quito","universidad-de-san-francisco-de-quito","Ecuador","Quito","","-0.2201641","-78.5123274","{'profesjonsstudiet medisin':1,}"
"university of queensland (uq)","university-of-queensland-(uq)","Australia","Brisbane","","-27.4689682","153.0234991","{'datateknologi':1,'mting':1,}"
"university of the sunshine coast (usc)","university-of-the-sunshine-coast-(usc)","Australia","Mooloolaba","","-26.6852565","153.1131848665925","{'bachelor i biologi':1,}"
"universita di trento","universita-di-trento","Italia","Trento","","46.1029536","11.12974249416882","{'europastudier':1,'europastudier med statsvitenskap':1,}"
"universidad politecnica de cartagena","universidad-politecnica-de-cartagena","Spania","Cartagena","","37.6019353","-0.9841152","{'industriell økonomi og teknologiledelse':1,}"
"rheinisch-westfälische technische hochschule aachen, rwth","rheinisch-westfälische-technische-hochschule-aachen,-rwth","Tyskland","Aachen","","50.776351","6.083862","{'mtenerg':1,}"
"university of the sunshine coast","university-of-the-sunshine-coast","Australia","Sunshine Coast","","-26.6544338","153.0933668","{'bachelor biologi':1,'biologi bachelor':1,'afrikastudier':1,}"
"university of gent","university-of-gent","Belgia","Gent","","51.0538286","3.7250121","{'materialteknologi':1,}"
"david livingstone college of education","david-livingstone-college-of-education","Zambia","Livingstone","","-17.853135","25.861429","{'grunnskolelærerutdanning 5-10 med norsk':1,}"
"université de strasbourg","université-de-strasbourg","Frankrike","Strasbourg","","48.584614","7.7507127","{'europastudier med statsvitenskap':1,'europastudier':1,}"
"universidade autónoma de lisboa","universidade-autónoma-de-lisboa","Portugal","Lisboa","","38.7077507","-9.1365919","{'arkitektur':2,}"
"universitat de valència","universitat-de-valència","Spania","Valencia","","39.4697065","-0.3763353","{'økonomi og administrasjon':1,}"
"universidad de buenos aires - filosofia y letras","universidad-de-buenos-aires---filosofia-y-letras","Argentina","Buenos Aires","","-34.6075682","-58.4370894","{'bachelor i spansk':1,}"
"universidad tecnica frederico santa maria","universidad-tecnica-frederico-santa-maria","Chile","Valparaíso","","-33.0458456","-71.6196749","{'energi og miljø':1,}"
"colorado school of mines","colorado-school-of-mines","USA","Golden","","39.7546349","-105.22058","{'petroleumsfag, boreteknologi':1,}"
"chalmers tekniske högskola","chalmers-tekniske-högskola","Sverige","Gøteborg","","57.7072326","11.9670171","{'industriell kybernetikk':1,}"
"universitetet i salerno","universitetet-i-salerno","Italia","Salerno","","40.419441649999996","15.310756230322482","{'teknisk fysikk':1,}"
"shanghai jiao tong","shanghai-jiao-tong","Kina","Shanghai","","31.2323437","121.4691024","{'':1,}"
"upct","upct","Spania","Cartagena","","37.6019353","-0.9841152","{'marin teknikk':1,}"
"upm - etsi navales","upm---etsi-navales","Spania","Madrid","","40.4167047","-3.7035825","{'marin teknikk':1,}"
"bauhaus-universität weimar","bauhaus-universität-weimar","Tyskland","Weimar","","50.9810486","11.3296637","{'arkitektur':1,}"
"university of groningen","university-of-groningen","Nederland","Groningen","","53.2190652","6.5680077","{'profesjonsstudiet i psykologi':3,'bachelor pedagogikk':1,}"
"ikke universitet","ikke-universitet","Peru","Monsefú","","-6.8777743","-79.8720043","{'barnevernspedagogikk':1,'bachelor i barnevern':1,}"
"university of ljubljana (univerza v ljubljani)","university-of-ljubljana-(univerza-v-ljubljani)","Slovenia","Ljubljana","","46.0500268","14.5069289","{'medisin':1,}"
"lund universitet","lund-universitet","Sverige","Lund","","55.7029296","13.1929449","{'bachelor i psykologi':1,'sosialantropologi':1,}"
"cardiff university","cardiff-university","Storbritannia","Cardiff","","51.4816546","-3.1791934","{'europastudier m/ statsvitenskap':1,'statsvitenskap':1,}"
"kusms, kathmandu university school of medical science","kusms,-kathmandu-university-school-of-medical-science","Nepal","Dhulikhel","","27.61765065","85.56351523229989","{'bachelor sykepleie':1,}"
"universidade de são paulo","universidade-de-são-paulo","Brazil","São Paulo","","-23.5506507","-46.6333824","{'materialteknologi 5år, mtmt':1,}"
"christian medical college vellore","christian-medical-college-vellore","India","Vellore","","12.7948109","79.0006410968549","{'medisin':1,}"
"livingstone college of nursing and midwifery","livingstone-college-of-nursing-and-midwifery","Zambia","Livingstone","","-17.853135","25.861429","{'ergoterapiutdanningen':1,}"
"university of cape coast","university-of-cape-coast","Ghana","Cape Coast","","5.107467","-1.2430793","{'lektorutdanning i historie (mlhist)':1,}"
"sciences po toulouse","sciences-po-toulouse","Frankrike","Toulouse","","43.6044622","1.4442469","{'bachelor i statsvitenskap':1,'lektorutdanning i samfunnsfag':1,}"
"helsingfors universitet","helsingfors-universitet","Finland","Helsingfors","","60.1674881","24.9427473","{'allmenn litteraturvitskap':1,}"
"jiao tong","jiao-tong","Kina","Shanghai","","31.2323437","121.4691024","{'marin teknikk':1,}"
"universidade de coimbra","universidade-de-coimbra","Portugal","Coimbra","","40.2111931","-8.4294632","{'arkitektur':1,}"
"upc (campus eebe)","upc-(campus-eebe)","Spania","Barcelona","","41.3828939","2.1774322","{'maskin':1,}"
"university of firenze","university-of-firenze","Italia","Firenze","","43.7698712","11.2555757","{'arkitektur':1,}"
"memorial university of newfoundland","memorial-university-of-newfoundland","Canada","St. John's","","47.5614705","-52.7126162","{'sosiologi':1,}"
"burapha","burapha","Thailand","Bang Saen","","13.2848334","100.9179506","{'sykepleie':1,}"
"university of ghana legon","university-of-ghana-legon","Ghana","Accra","","5.5571096","-0.2012376","{'sykepleie':1,}"
"upc - etseib","upc---etseib","Spania","Barcelona","","41.3828939","2.1774322","{'industriell økonomi og teknologiledelse - data':1,'kybernetikk og robotikk':1,}"
"the concerned for working children","the-concerned-for-working-children","India","Bangalore","","12.9767936","77.590082","{'barnevernspedagog, bachelor':1,}"
"universidad politecnica de cataluna","universidad-politecnica-de-cataluna","Spania","Barcelona","","41.3828939","2.1774322","{'indøk':1,}"
"kathmandu university vishwavidalaya","kathmandu-university-vishwavidalaya","Nepal","Dhulikhel","","27.61765575","85.56349552503448","{'medisin, profesjonsstudium':1,}"
"university of western australia","university-of-western-australia","Australia","Perth","","-31.9558933","115.8605855","{'marin teknikk':1,'bygg- og miljøteknikk':1,'fysikk og matematikk':1,'bachelor i psykologi':1,}"
"york university","york-university","Canada","Toronto","","43.6534817","-79.3839347","{'grunnskolelærerutdanning 5-10 med vekt på realfag':1,'grunnskolelærer 5-10 med matematikk':1,'':1,'lærerstudiet':1,}"
"university of mannheim","university-of-mannheim","Tyskland","Mannheim","","49.4892913","8.4673098","{'industriell økonomi og teknologiledelse':3,}"
"christian medical college (cmc)","christian-medical-college-(cmc)","India","Vellore","","12.7948109","79.0006410968549","{'profesjonsstudiet i medisin':1,}"
"berkeley","berkeley","USA","Berkeley","","37.8708393","-122.272863","{'statsvitenskap':1,'mtfyma':1,}"
"universidade do algarve","universidade-do-algarve","Portugal","Faro","","37.0162727","-7.9351771","{'bachelor i radiografi':1,'radiografi':1,}"
"tribhuvan university","tribhuvan-university","Nepal","Dhulikhel","","27.61765575","85.56349552503448","{'medisinstudiet':1,}"
"university of maryland","university-of-maryland","USA","Washington DC","","38.8950368","-77.0365427","{'mtdt':1,}"
"tu dresden","tu-dresden","Tyskland","Dresden","","51.0493286","13.7381437","{'fornybar energi':1,'vann og miljøteknikk':1,}"
"pontificia universidad católica de perú","pontificia-universidad-católica-de-perú","Peru","Lima","","-12.0621065","-77.0365256","{'nanoteknologi':1,}"
"rijksuniversiteit groningen","rijksuniversiteit-groningen","Nederland","Groningen","","53.2190652","6.5680077","{'profesjonsstudiet i psykologi':2,'bevegelsesvitenskap':1,'msbio':1,}"
"upc eebe","upc-eebe","Spania","Barcelona","","41.3828939","2.1774322","{'maskiningeniør':1,}"
"university of sydney","university-of-sydney","Australia","Sydney","","-33.8698439","151.2082848","{'master in interaction design':1,}"
"abrigo rainha silvia","abrigo-rainha-silvia","Brazil","Itaborai","","-22.7496231","-42.8557428","{'barnevernspedagog':1,'barnevernspedagogikk':1,}"
"sunshine educare","sunshine-educare","Sør Afrika","Cape Town","","-33.928992","18.417396","{'barnevernspedagogikk':1,}"
"the university of chichester","the-university-of-chichester","Storbritannia","Chichester","","50.84467705","-0.7831144316193243","{'bachelor i bevegelsesvitenskap':1,}"
"ufrj","ufrj","Brazil","Rio de Janeiro","","-22.9110137","-43.2093727","{'mtnano':1,'marin teknikk':1,}"
"universitat politècnica de catalunya (upc) - fme","universitat-politècnica-de-catalunya-(upc)---fme","Spania","Barcelona","","41.3828939","2.1774322","{'mtfyma - fysikk og matematikk':1,}"
"universitat politecnica de cataluna","universitat-politecnica-de-cataluna","Spania","Barcelona","","41.3828939","2.1774322","{'datateknologi':1,}"
"univeristetet i valencia","univeristetet-i-valencia","Spania","Valencia","","39.4697065","-0.3763353","{'psykologi - bachelor':1,}"
"uv","uv","Spania","Valencia","","39.4697065","-0.3763353","{'psykologi, bachelor':1,}"
"tecnico (ist)","tecnico-(ist)","Portugal","Lisboa","","38.7077507","-9.1365919","{'mtkj, bioteknologi':1,}"
"(usm) universidad técnica federico santa maría","(usm)-universidad-técnica-federico-santa-maría","Chile","Valparaiso","","41.4730948","-87.0611412","{'indøk (industriell økonomi og teknologiledelse)':1,}"
"university of california - berkeley","university-of-california---berkeley","USA","Berkeley","","37.8708393","-122.272863","{'nanoteknologi':1,'fysikk og matematikk':1,}"
"san diego state university (sdsu)","san-diego-state-university-(sdsu)","USA","San Diego","","32.7174202","-117.1627728","{'energi og miljø':1,'bygg og miljøteknikk':1,'master i ledelse av teknologi':1,'bygg- og miljøteknikk':1,}"
"universoty of new south wales","universoty-of-new-south-wales","Australia","Sydney","","-33.8698439","151.2082848","{'energi og miljø':1,}"
"institut détudes politiques de lyon","institut-détudes-politiques-de-lyon","Frankrike","Lyon","","45.7578137","4.8320114","{'statsvitenskap':1,}"
"université claude bernard lyon 1","université-claude-bernard-lyon-1","Frankrike","Lyon","","45.7578137","4.8320114","{'bygg- og miljøteknikk':1,}"
"kth - kungliga tekniska högskolan","kth---kungliga-tekniska-högskolan","Sverige","Stockholm","","59.3251172","18.0710935","{'bygg- og miljøteknikk':1,}"
"michigan technological university","michigan-technological-university","USA","Houghton","","46.8591287","-88.7774734","{'industriell økonomi og teknologiledelse':1,'produktutvikling og produksjon':1,}"
"ufrj - universidade federal do rio de janeiro","ufrj---universidade-federal-do-rio-de-janeiro","Brazil","Rio de Janeiro","","-22.9110137","-43.2093727","{'marin teknikk':1,}"
"prosjektperiode","prosjektperiode","Filippinene","Tacloban","","11.2436208","125.0079543","{'barnevernspedagog':1,}"
"indian institute of technology madras","indian-institute-of-technology-madras","India","Chennai","","13.0836939","80.270186","{'industriell kjemi og bioteknologi':1,}"
"norwegian study centre - university of york","norwegian-study-centre---university-of-york","Storbritannia","York","","53.9590555","-1.0815361","{'engelsk bachelor':1,}"
"chalmers","chalmers","Sverige","Gøteborg","","57.7072326","11.9670171","{'arkitektur':1,'konstruksjonsteknikk':1,}"
"university of colorado boulder","university-of-colorado-boulder","USA","Boulder","","40.0149856","-105.270545","{'mtfyma':1,'produktutvikling og produksjon':1,}"
"universitetet i lisboa","universitetet-i-lisboa","Portugal","Lisboa","","38.7077507","-9.1365919","{'medisin':1,}"
"ucsd - university of california san diego","ucsd---university-of-california-san-diego","USA","San Diego","","32.7174202","-117.1627728","{'indøk data':1,}"
"university of barcelona","university-of-barcelona","Spania","Barcelona","","41.3828939","2.1774322","{'samfunnsøkonomi':1,'bioingeniør':1,}"
"universitat politecnica de catelunya","universitat-politecnica-de-catelunya","Sveits","Barcelona","","41.3828939","2.1774322","{'lektor i realfag':1,}"
"university of helsinki","university-of-helsinki","Finland","Helsinki","","60.1674881","24.9427473","{'lektorutdanning i geografi':1,}"
"universidade federal de santa catarina","universidade-federal-de-santa-catarina","Brazil","Florianópolis","","-27.5973002","-48.5496098","{'kybernetikk og robotikk':1,'vann- og miljøteknikk':1,}"
"the hong kong polytechnic university","the-hong-kong-polytechnic-university","Kina","HongKong","","22.2793278","114.1628131","{'mting':1,'industriell økonomi og teknologiledelse':1,}"
"uq","uq","Australia","Brisbane","","-27.4689682","153.0234991","{'arkitektur':1,'indoek':1,}"
"technische üniversität in berlin (tub)","technische-üniversität-in-berlin-(tub)","Tyskland","Berlin","","52.5170365","13.3888599","{'bygg- og miljøteknikk':1,}"
"università degli studi di milano - bicocca","università-degli-studi-di-milano---bicocca","Italia","Milano","","45.4641943","9.1896346","{'mschem':1,}"
"otago university","otago-university","New Zealand","Dunedin","","-45.8740984","170.5035755","{'lektor i geografi':1,}"
"newcastle university","newcastle-university","Storbritannia","Newcastle upon Tyne","","54.9738474","-1.6131572","{'engelsk (bachelor)':1,'mlspråk':1,'lektor samfunnsfag (master i statsvitenskap)':1,'lektor i engelsk':1,'sosialantropologi, bachelor':1,}"
"the university of hong kong","the-university-of-hong-kong","Kina","Hong Kong","","22.2793278","114.1628131","{'indøk-emil':1,'industriell økonomi og teknologiledelse':2,}"
"university of split","university-of-split","Kroatia","Split","","43.5116383","16.4399659","{'sykepleie':3,'bachelor i sykepleie':2,'sykepleie bachelor':2,'praksis i medisinsk fagområde':1,}"
"pontificia universidad catolica de chile (puc)","pontificia-universidad-catolica-de-chile-(puc)","Chile","Santiago","","9.8694792","-83.7980749","{'industriell design':1,}"
"university of nottingham ningbo china","university-of-nottingham-ningbo-china","Kina","Ningbo","","29.8622194","121.6203873","{'master i statsvitskap':1,'statsvitenskap':1,}"
"sveučilište u splitu / university of split","sveučilište-u-splitu-/-university-of-split","Kroatia","Split","","43.5116383","16.4399659","{'sykepleie bachelor':1,}"
"university college dublin (ucd)","university-college-dublin-(ucd)","Irland","Dublin","","53.3493795","-6.2605593","{'bachelor i elektroingeniør (elkraft)':1,'nanoteknologi':1,}"
"ikke relevant","ikke-relevant","Laos","Savannakhet","","16.500195849999997","105.71559464914924","{'barnevernspedagog, bachelor':1,'barnevern':1,}"
"universidad san fransisco quito","universidad-san-fransisco-quito","Ecuador","Quito","","-0.2201641","-78.5123274","{'medisin':1,}"
"iae - aix marseille université","iae---aix-marseille-université","Frankrike","Aix-en-Provence","","43.5298424","5.4474738","{'master i økonomi og administrasjon (strategi, organisasjon og ledelse)':1,}"
"iae aix-marseille université","iae-aix-marseille-université","Frankrike","Aix-en-provence","","43.5298424","5.4474738","{'master i økonomi og administrasjon - hovedprofil økonomistyring':1,'siviløkonom handelshøyskolen i trondheim':1,}"
"politechinka warszawska","politechinka-warszawska","Polen","Warszawa","","52.2319581","21.0067249","{'kybernetikk og robotikk':1,}"
"aix-marseille graduate school of management - iae","aix-marseille-graduate-school-of-management---iae","Frankrike","Aix-en-Provence","","43.5298424","5.4474738","{'økonomistyring':1,}"
"aix-marseille graduate school of management","aix-marseille-graduate-school-of-management","Frankrike","Aix-en-Provence","","43.5298424","5.4474738","{'ledelse av teknologi':1,}"
"ewha womans university","ewha-womans-university","Korea","Seoul","","37.5666791","126.9782914","{'engelsk bachelor':1,}"
"kwansei gakuin daigaku","kwansei-gakuin-daigaku","Japan","Nishinomiya","","34.7386033","135.3394138","{'bachelor i geografi':1,}"
"university of cape town (uct)","university-of-cape-town-(uct)","Sør Afrika","George og Cape Town","","0","0","{'profesjonsstudiet i medisin':1,'energi og miljø':1,}"
"university of calgary","university-of-calgary","Canada","Calgary","","51.0456064","-114.0575418","{'markedsføring og ledelse,':1,'bevegelsesvitenskap bachelor':1,'femårig master i samfunnsøkonomi':1,'energi og miljø':1,}"
"ikke universitet, barnehjem gentle hands inc","ikke-universitet,-barnehjem-gentle-hands-inc","Filippinene","Manila","","14.5813098","120.9761612","{'barnevernspedagog bachelor':1,}"
"praksis","praksis","Asia","Manila","","14.5813098","120.9761612","{'barnevern':1,}"
"ucl","ucl","Storbritannia","London","","51.5073359","-0.12765","{'profesjonsstudiet i psykologi':1,'mastergrad i pedagogikk':1,}"
"nus","nus","Singapore","Singapore","","1.357107","103.8194992","{'marin teknikk':3,'bygg- og miljøteknikk':1,'indøk':1,}"
"det var ingen universitet. vi var i en prosjektperiodet.","det-var-ingen-universitet.-vi-var-i-en-prosjektperiodet.","Sør Afrika","Cape Town","","-33.928992","18.417396","{'sosionom utdanning':1,}"
"the university of edinburgh","the-university-of-edinburgh","Storbritannia","Edinburgh","","55.9533456","-3.1883749","{'fysikk og matematikk, teknisk fysikk':1,}"
"det var ikke universitet, vi hospiterte hos en frivillig organisasjon","det-var-ikke-universitet,-vi-hospiterte-hos-en-frivillig-organisasjon","Sør Afrika","Cape Town","","-33.928992","18.417396","{'bachelor i sosialt arbeid':1,}"
"politechnika warszawska","politechnika-warszawska","Polen","Warszawa","","52.2319581","21.0067249","{'elektroingeniør':1,}"
"queensland university of technology, qut","queensland-university-of-technology,-qut","Australia","Brisbane","","-27.4689682","153.0234991","{'kommunikasjonsteknologi':1,}"
"butterfly house community resource centre","butterfly-house-community-resource-centre","Sør Afrika","Paarl","","-33.741667","18.975","{'bachelor i barnevern':1,}"
"free university of bolzano","free-university-of-bolzano","Italia","Bolzano","","46.655945450000004","11.23021287087526","{'industriell økonomi og teknologiledelse':1,}"
"butterfly house i paarl","butterfly-house-i-paarl","Sør Afrika","Paarl","","-33.741667","18.975","{'barnevernspedagog':1,}"
"universitetet i lusaka","universitetet-i-lusaka","Zambia","Livingstone","","-17.853135","25.861429","{'sosialt arbeid':1,}"
"goldsmiths university of london","goldsmiths-university-of-london","Storbritannia","London","","51.5073359","-0.12765","{'mlhist':1,}"
"ikke knyttet til universitet","ikke-knyttet-til-universitet","Jamaica","Montego Bay","","18.4724603","-77.9217357","{'barnevern, bachelor':1,}"
"uct","uct","Sør Afrika","Cape Town","","-33.928992","18.417396","{'master i arkitektur':1,'produktutvikling og produksjon':1,'medisin':1,'geologi realfag':1,'master miljøgeologi':1,}"
"chancellor college: university of malawi","chancellor-college:-university-of-malawi","Malawi","Zomba and Blantyre","","0","0","{'mphil development studies - specializing in geography':1,}"
"goldsmith university","goldsmith-university","Storbritannia","London","","51.5073359","-0.12765","{'mlhist':1,}"
"butterfly house","butterfly-house","Sør Afrika","Paarl","","-33.741667","18.975","{'barnevernspedagog':1,'bachelor i barnevern (barnevernspedagog)':1,}"
"ikke ved universitet","ikke-ved-universitet","India","Palolem","","15.012796","74.0219498","{'master sosialantropologi':1,}"
"college of medicine","college-of-medicine","Malawi","Blantyre","","-15.7862543","35.0035694","{'medisin':1,}"
"kyoto university","kyoto-university","Japan","Kyoto","","35.021041","135.7556075","{'datateknikk, master':1,'international master programme':1,'master i informatikk - spill, design og teknologilære':1,'mtkj':1,}"
"the university of arusha","the-university-of-arusha","Tanzania","Arusha, Karatu, Ngorongoro Conservation Area, Serengeti National Park","","0","0","{'natural resources management, geography':1,}"
"ryerson university","ryerson-university","Canada","Toronto","","43.6534817","-79.3839347","{'datateknologi':1,}"
"vi var på prosjektreise ikke utveksling","vi-var-på-prosjektreise-ikke-utveksling","Jamaica","Montego bay","","18.4724603","-77.9217357","{'barnevernspedagog':1,}"
"ingen.","ingen.","Brazil","Itaborai","","-22.7496231","-42.8557428","{'bachelor i barnevern':1,}"
"universidad de buenos aires (uba)","universidad-de-buenos-aires-(uba)","Argentina","Buenos Aires","","-34.6075682","-58.4370894","{'medisin profesjonsstudium':1,'lektorutdanning i idrett og spansk':1,'medisin':1,}"
"ntu","ntu","Singapore","Singapore","","1.357107","103.8194992","{'industriell kjemi og bioteknologi':1,'økonomi og administrasjon':1,}"
"national univeristy of singapore","national-univeristy-of-singapore","Singapore","Singapore","","1.357107","103.8194992","{'marin teknikk':1,}"
"texas","texas","USA","LUBBOCK","","33.5855677","-101.8470215","{'geologi':1,}"
"pontificia universidad católica del perú","pontificia-universidad-católica-del-perú","Peru","Lima","","-12.0621065","-77.0365256","{'lektorutdanning i geografi':1,}"
"university of north dakota","university-of-north-dakota","USA","Grand Forks","","47.9078244","-97.0592028","{'medisin':2,}"
"college of medicine, university of malawi","college-of-medicine,-university-of-malawi","Malawi","Blantyre","","-15.7862543","35.0035694","{'medisin profesjon':1,}"
"university college lillebælt","university-college-lillebælt","Danmark","Odense","","55.3997225","10.3852104","{'ergoterapi':1,}"
"kwantlen polytechnic university","kwantlen-polytechnic-university","Canada","Vancouver","","49.2608724","-123.113952","{'industriell design, 5årig master':1,}"
"ajou","ajou","Korea","Suwon","","37.2633325","127.0287472","{'komtek':1,}"
"tekniske universitet münchen","tekniske-universitet-münchen","Tyskland","München","","48.1371079","11.5753822","{'kybernetikk og robotikk':1,}"
"chatham university","chatham-university","USA","Pittsburgh","","40.4416941","-79.9900861","{'urban ecological planning':1,'urban ecological planning (m. sc.)':1,}"
"technical university of munich (tum)","technical-university-of-munich-(tum)","Tyskland","Munchen","","48.1371079","11.5753822","{'bygg- og miljøteknikk':1,}"
"royal melbourne institute of technology (rmit)","royal-melbourne-institute-of-technology-(rmit)","Australia","Melbourne","","-37.8142454","144.9631732","{'bygg og miljøteknikk':1,}"
"univeristy of otago","univeristy-of-otago","New Zealand","Dunedin","","-45.8740984","170.5035755","{'bbi - bachelor biologi - studieretning økologi, adferd og evolusjon':1,}"
"université grenoble alpes","université-grenoble-alpes","Frankrike","Grenoble","","45.1875602","5.7357819","{'bygg- og miljøteknikk':1,}"
"den statlige danske scenekunstskole","den-statlige-danske-scenekunstskole","Danmark","København","","55.6867243","12.5700724","{'musikkteknologi, bachelor':1,}"
"institut polytechnique de grenoble","institut-polytechnique-de-grenoble","Frankrike","Grenoble","","45.1875602","5.7357819","{'energi og miljø':1,}"
"universidad autónoma de madrid","universidad-autónoma-de-madrid","Spania","Madrid","","40.4167047","-3.7035825","{'nanoteknologi':4,}"
"université de montpellier","université-de-montpellier","Frankrike","Montpellier","","43.6112422","3.8767337","{'mtkj':1,'medisin':1,}"
"technishe universität münchen","technishe-universität-münchen","Tyskland","München","","48.1371079","11.5753822","{'kybernetikk og robotikk':1,}"
"university of edinburgh","university-of-edinburgh","Storbritannia","Edinburgh","","55.9533456","-3.1883749","{'fysikk og matematikk':1,'industriell økonomi og teknologiledelse':1,'mtfyma':1,'bachelor i engelsk':1,}"
"uw-madison","uw-madison","USA","Madison","","43.074761","-89.3837613","{'energi og miljø':1,}"
"universitetet i heidelberg","universitetet-i-heidelberg","Tyskland","Heidelberg","","49.4093582","8.694724","{'fysikk':1,}"
"harvard university (summer school)","harvard-university-(summer-school)","USA","Boston","","42.3554334","-71.060511","{'industriell design':1,}"
"upm, etsii","upm,-etsii","Spania","Madrid","","40.4167047","-3.7035825","{'produktutvikling og produksjon':1,}"
"universidad nacional autónoma de méxico","universidad-nacional-autónoma-de-méxico","Mexico","Mexico by","","19.4326296","-99.1331785","{'lektorutdanning i samfunnsfag for trinn 8-13':1,}"
"tekniske universitet i berlin","tekniske-universitet-i-berlin","Tyskland","Berlin","","52.5170365","13.3888599","{'marin teknikk':1,}"
"elisava","elisava","Spania","Barcelona","","41.3828939","2.1774322","{'industriell design':1,}"
"albert-  ludwig university of freiburg","albert---ludwig-university-of-freiburg","Tyskland","freiburg im breisgau","","47.9960901","7.8494005","{'samfunnsøkonomi (5 årig, master)':1,}"
"vsb - technical university of ostrava","vsb---technical-university-of-ostrava","Tsjekkia","Ostrava","","49.8349139","18.2820084","{'tekniske geofag':1,}"
"albert- ludwigs- universität freiburg","albert--ludwigs--universität-freiburg","Tyskland","Freiburg im Breisgau","","47.9960901","7.8494005","{'integrert master i samfunnsøkonomi':1,}"
"university of trento","university-of-trento","Italia","Trento","","46.1029536","11.12974249416882","{'bygg og miljøteknikk':1,}"
"techinsche universität münchen","techinsche-universität-münchen","Tyskland","München","","48.1371079","11.5753822","{'produktutvikling &amp; produksjon':1,}"
"hcu + tum","hcu-+-tum","Tyskland","Hamburg + München","","0","0","{'arkitektur':1,}"
"leipzig","leipzig","Tyskland","Leipzig","","51.3406321","12.3747329","{'tysk - master':1,}"
"hochschule bonn-rhein-sieg","hochschule-bonn-rhein-sieg","Tyskland","Bonn","","50.735851","7.10066","{'bioingeniør':2,}"
"ucla","ucla","USA","Los Angeles","","34.0536909","-118.242766","{'statsvitenskap':1,}"
"albert-ludwigs universität","albert-ludwigs-universität","Tyskland","Freiburg im Breisgau","","47.9960901","7.8494005","{'bachelor tysk':1,'nanoteknologi':1,}"
"universidad politecnica de madrid","universidad-politecnica-de-madrid","Spania","Madrid","","40.4167047","-3.7035825","{'marin teknikk':1,}"
"czech technical university in prague","czech-technical-university-in-prague","Tsjekkia","Praha","","50.0874654","14.4212535","{'elektronisk systemdesign og inovasjon':1,'informatikk':1,}"
"ecole polytechnique fédérale lausanne (epfl)","ecole-polytechnique-fédérale-lausanne-(epfl)","Sveits","Lausanne","","46.5218269","6.6327025","{'cybernetics and robotics':1,}"
"upc fib","upc-fib","Spania","Barcelona","","41.3828939","2.1774322","{'mtkom':1,}"
"van hall larenstein","van-hall-larenstein","Nederland","leeuwarden","","53.2005936","5.7918548","{'tmat201p':1,'bachelor i matteknologi':1,}"
"julius-maximilians-universität (jmu)","julius-maximilians-universität-(jmu)","Tyskland","Würzburg","","49.79245","9.932966","{'profesjonsstudie psykologi':1,}"
"shanghai jiaotong university","shanghai-jiaotong-university","Kina","Shanghai","","31.2323437","121.4691024","{'energi og miljø':1,}"
"university of porto","university-of-porto","Portugal","Porto","","41.1494512","-8.6107884","{'mtkj':1,}"
"università di bologna (unibo)","università-di-bologna-(unibo)","Italia","Bologna","","44.4938203","11.3426327","{'industriell kjemi og bioteknologi':1,}"
"universitet i cádiz","universitet-i-cádiz","Spania","Cádiz","","36.5297438","-6.2928976","{'industriell kjemi og bioteknologi':1,}"
"ecole nationale supérieure darchitecture de paris-belleville","ecole-nationale-supérieure-darchitecture-de-paris-belleville","Frankrike","Paris","","48.8534951","2.3483915","{'arkitektur':1,}"
"uk","uk","Storbritannia","portsmouth","","50.800031","-1.0906023","{'europastudier':1,}"
"université de grenoble alpes","université-de-grenoble-alpes","Frankrike","Grenoble","","45.1875602","5.7357819","{'mbiot5':1,}"
"universidad polytechnica de catalunya","universidad-polytechnica-de-catalunya","Spania","Barcelona","","41.3828939","2.1774322","{'kybernetikk &amp; robotikk':1,}"
"ambassaden i haag","ambassaden-i-haag","Nederland","Haag","","52.0799838","4.3113461","{'europastudier, master':1,}"
"universidad de cádiz","universidad-de-cádiz","Spania","Cádiz","","36.5297438","-6.2928976","{'lektorutdanning i språkfag':1,'lektorutdanning i språk og litteratur':1,'lektor geografi':1,}"
"universidad de barcelona","universidad-de-barcelona","Spania","Barcelona","","41.3828939","2.1774322","{'bachelor i bioingeniørfag':1,}"
"esitc caen","esitc-caen","Frankrike","Caen","","49.1813403","-0.3635615","{'bygg- og miljøteknikk':2,}"
"universitat politécnica de valéncia","universitat-politécnica-de-valéncia","Spania","Valencia","","39.4697065","-0.3763353","{'bygg- og miljøteknikk':1,}"
"universitat politécnica de valencia","universitat-politécnica-de-valencia","Spania","Valencia","","39.4697065","-0.3763353","{'bygg og miljøteknikk':1,}"
"université de toulouse jean-jaurès","université-de-toulouse-jean-jaurès","Frankrike","Toulouse","","43.6044622","1.4442469","{'profesjonsstudiet i psykologi':1,}"
"nanyang technological university (ntu/nbs)","nanyang-technological-university-(ntu/nbs)","Singapore","Singapore","","1.357107","103.8194992","{'industriell økonomi og teknologiledelse (mtiøt pup)':1,}"
"università degli studi di genova","università-degli-studi-di-genova","Italia","Genoa","","44.40726","8.9338624","{'kybernetikk og robotikk':1,}"
"roma tor vergata","roma-tor-vergata","Italia","Roma","","41.8933203","12.4829321","{'økonomi og administrasjon':1,}"
"university of maryland - college park","university-of-maryland---college-park","USA","Washington DC","","38.8950368","-77.0365427","{'mttk':1,}"
"universitetet i valencia","universitetet-i-valencia","Spania","Valencia","","39.4697065","-0.3763353","{'økonomi og administrasjon':1,}"
"universitetet i innsbruck","universitetet-i-innsbruck","Østerrike","Innsbruck","","47.2654296","11.3927685","{'samfunnsøkonomi':1,'fysikk og matematikk':1,}"
"technical university of danmark","technical-university-of-danmark","Danmark","København","","55.6867243","12.5700724","{'bygg og miljøteknikk':1,}"
"université paris 1 panthéon-sorbonne","université-paris-1-panthéon-sorbonne","Frankrike","Paris","","48.8534951","2.3483915","{'5-årig integrert master i samfunnsøkonomi':1,}"
"grenoble - inp ense3","grenoble---inp-ense3","Frankrike","Grenoble","","45.1875602","5.7357819","{'produktutvikling og produksjon 5-åring sivilingeniør':1,}"
"université de lille 1","université-de-lille-1","Frankrike","Lille","","50.6365654","3.0635282","{'matteknologi':1,}"
"haskoli islands","haskoli-islands","Island","Reykjavik","","64.145981","-21.9422367","{'litteraturvitenskap, master':1,}"
"grenoble institute of technology","grenoble-institute-of-technology","Frankrike","Grenoble","","45.1875602","5.7357819","{'kybernetikk &amp; robotikk':1,}"
"univerista degli studi di padova","univerista-degli-studi-di-padova","Italia","Padova","","45.4077172","11.8734455","{'industriell økonomi og teknolgiledelse':1,}"
"dtu - technical university of denmark","dtu---technical-university-of-denmark","Danmark","København","","55.6867243","12.5700724","{'bygg- og miljøteknikk':1,}"
"inp grenoble","inp-grenoble","Frankrike","Grenoble","","45.1875602","5.7357819","{'ingeniørvitenskap og ikt':2,}"
"upv - fakultet etsii","upv---fakultet-etsii","Spania","Valéncia","","39.4697065","-0.3763353","{'energi og miljø - energiforsyning og klimatisering av bygninger':1,}"
"georg-august-universität göttingen","georg-august-universität-göttingen","Tyskland","Göttingen","","51.5328328","9.9351811","{'master i nordisk litteratur':1,}"
"le mans université (tidligere université du maine)","le-mans-université-(tidligere-université-du-maine)","Frankrike","Le Mans","","48.0073849","0.1967849","{'elektronisk systemdesign og innovasjon':1,}"
"pontificia universidad catolica de chile","pontificia-universidad-catolica-de-chile","Chile","Santiago","","9.8694792","-83.7980749","{'industriell design':1,}"
"universty of minnesota","universty-of-minnesota","USA","Minnesota","","45.9896587","-94.6113288","{'energi og miljø':1,}"
"université catholique de lyon","université-catholique-de-lyon","Frankrike","Lyon","","45.7578137","4.8320114","{'bioingeniør':1,}"
"universitá di padova","universitá-di-padova","Italia","Padova","","45.4077172","11.8734455","{'industriell økonomi og teknologiledelse':1,}"
"universidad politécnica de valencia (upv)","universidad-politécnica-de-valencia-(upv)","Spania","Valencia","","39.4697065","-0.3763353","{'industriell design':1,}"
"kunliga tekniska högskolan (kth)","kunliga-tekniska-högskolan-(kth)","Sverige","Stockholm","","59.3251172","18.0710935","{'arkitektur':1,}"
"karolinska institut","karolinska-institut","Sverige","Stockholm","","59.3251172","18.0710935","{'medisin':1,}"
"universitetet i lille, lille 1(uit-a, universitaire de lille institut technologie)","universitetet-i-lille,-lille-1(uit-a,-universitaire-de-lille-institut-technologie)","Frankrike","Lille","","50.6365654","3.0635282","{'matteknologi':1,}"
"university of minnesota","university-of-minnesota","USA","Minneapolis","","44.9772995","-93.2654692","{'energi og miljø - elkraft':2,'elkraft - energi og miljø':1,'bachelor engelsk':1,'mtenerg':1,'fysikk og matematikk, siving.':1,}"
"ist - instituto superior tecnico","ist---instituto-superior-tecnico","Portugal","Lisboa","","38.7077507","-9.1365919","{'bioteknologi':1,}"
"universiteit utrecht","universiteit-utrecht","Nederland","Amersfoort og Utrecht","","0","0","{'lektorutdanning i realfag':1,'ppu':1,}"
"etsam","etsam","Spania","Madrid","","40.4167047","-3.7035825","{'arkitektur':1,}"
"université de pau et des pays de ladour","université-de-pau-et-des-pays-de-ladour","Frankrike","Pau","","43.2957547","-0.3685668","{'petroleumsfag':1,}"
"university of melbourne","university-of-melbourne","Australia","Melbourne","","-37.8142454","144.9631732","{'kybernetikk og robotikk':1,}"
"université catholique de lyon (ucly)","université-catholique-de-lyon-(ucly)","Frankrike","Lyon","","45.7578137","4.8320114","{'bioingeniør':1,}"
"christ university","christ-university","India","Bangalore","","12.9767936","77.590082","{'sosialt arbeid':1,}"
"christ deemed to be university","christ-deemed-to-be-university","India","Bangalore","","12.9767936","77.590082","{'sosialt arbeid':1,}"
"univeristy of glasgow","univeristy-of-glasgow","Storbritannia","Glasgow","","55.861155","-4.2501687","{'bygg- og miljøteknikk':1,}"
"christian university","christian-university","India","Bangalore","","12.9767936","77.590082","{'sosialt arbeid':1,}"
"university og nottingham ningbo","university-og-nottingham-ningbo","Kina","Ningbo","","29.8622194","121.6203873","{'økonomi og administrasjon':1,}"
"danmarks tekniske universitet dtu","danmarks-tekniske-universitet-dtu","Danmark","København","","55.6867243","12.5700724","{'kommunikasjonsteknologi':1,}"
"england","england","Storbritannia","York","","53.9590555","-1.0815361","{'lektor språk':1,}"
"stockholms universitet","stockholms-universitet","Sverige","Stockholm","","59.3251172","18.0710935","{'sosialantropologi':1,'master i arbeids- og organisasjonspsykologi':1,}"
"aalborg universitet","aalborg-universitet","Danmark","Aalborg","","57.0462626","9.9215263","{'mlreal':1,'psykologi':1,'psykologi bachelor':1,}"
"university of nottingham","university-of-nottingham","Kina","Ningbo","","29.8622194","121.6203873","{'økonomi og administrasjon':1,}"
"ctu in prague","ctu-in-prague","Tsjekkia","Praha","","50.0874654","14.4212535","{'mt-bygg':1,}"
"österreich","österreich","Østerrike","Innsbruck","","47.2654296","11.3927685","{'medisin profesjonsstudium':1,}"
"sungkyunkwan university/skkku","sungkyunkwan-university/skkku","Korea","Seoul","","37.5666791","126.9782914","{'samfunnsøkonomi':1,}"
"edinburgh napier university","edinburgh-napier-university","Storbritannia","Edinburgh","","55.9533456","-3.1883749","{'mtkj':1,}"
"universitat politécnica de catalunya","universitat-politécnica-de-catalunya","Spania","Barcelona","","41.3828939","2.1774322","{'fysikk og matematikk':1,}"
"universitetet i york","universitetet-i-york","Storbritannia","York","","53.9590555","-1.0815361","{'master i engelsk':1,}"
"uc san diego","uc-san-diego","USA","San Diego","","32.7174202","-117.1627728","{'mtkom':1,'energi og miljø':1,'bygg- og miljøteknikk':1,}"
"tu darmstadt","tu-darmstadt","Tyskland","Darmstadt","","49.8851869","8.6736295","{'industriell kjemi og bioteknologi':1,}"
"université toulouse jean jaurès","université-toulouse-jean-jaurès","Frankrike","Toulouse","","43.6044622","1.4442469","{'lektorutdanning':1,'psykologi':1,}"
"massachusetts institute of technology (mit)","massachusetts-institute-of-technology-(mit)","USA","Cambridge","","52.2055314","0.1186637","{'industriell økonomi og teknologiledelse':1,'mtkj':1,'tekniske geofag':1,}"
"boise state university","boise-state-university","USA","Boise","","43.6008183","-116.24210864118032","{'elektroingjeniør':1,}"
"universitet utrecht","universitet-utrecht","Nederland","Utrecht","","52.080985600000005","5.12768396945229","{'lektorutdanning med språk':1,}"
"universitet jagiellonski","universitet-jagiellonski","Polen","Krakow","","50.0619474","19.9368564","{'master i medier, kommunikajon og informasjonsteknologi':1,}"
"university of algarve","university-of-algarve","Portugal","Faro","","37.0162727","-7.9351771","{'radiografi':1,}"
"université pierre et marie curie","université-pierre-et-marie-curie","Frankrike","PARIS","","48.8534951","2.3483915","{'siving. fysikk og matematikk':1,}"
"national university of singapore, nus","national-university-of-singapore,-nus","Singapore","Singapore","","1.357107","103.8194992","{'marin teknikk, 5-årig master':1,}"
"kyoto  university","kyoto--university","Japan","Kyoto","","35.021041","135.7556075","{'molecular medicine':1,}"
"politecnico di milan","politecnico-di-milan","Italia","Milano","","45.4641943","9.1896346","{'marin teknikk':1,}"
"tohoku university","tohoku-university","Japan","Sendai","","38.2677554","140.8691498","{'materialteknologi':1,}"
"pontificia universidad de chile","pontificia-universidad-de-chile","Chile","Santiago","","9.8694792","-83.7980749","{'årsstudium spansk':1,}"
"university of manchester","university-of-manchester","Storbritannia","Manchester","","53.4794892","-2.2451148","{'industriell matematikk':1,}"
"mit - massachusetts institute of technology","mit---massachusetts-institute-of-technology","USA","Cambridge","","52.2055314","0.1186637","{'datateknologi':1,}"
"unsa","unsa","Bosnia and Herzegovina","Sarajevo","","43.8519774","18.3866868","{'sustainable architecture':1,}"
"univerita degli studi di padova","univerita-degli-studi-di-padova","Italia","Padova","","45.4077172","11.8734455","{'markedsføring og ledelse':1,}"
"mcgill","mcgill","Canada","Montreal","","45.5031824","-73.5698065","{'samfunnsøkonomi':1,}"
"sorbonne université (université pierre et marie curie)","sorbonne-université-(université-pierre-et-marie-curie)","Frankrike","Paris","","48.8534951","2.3483915","{'mathematical sciences (masters programme)':1,}"
"tekniske universitetet i münchen (tum)","tekniske-universitetet-i-münchen-(tum)","Tyskland","München","","48.1371079","11.5753822","{'kunnskap, teknologi og samfunn':1,}"
"au- aarhus universitet","au--aarhus-universitet","Danmark","Aarhus","","56.1496278","10.2134046","{'bachelor psykologi':1,}"
"fudan university","fudan-university","Kina","shanghai","","31.2323437","121.4691024","{'master i ledelse av teknologi':1,}"
"universidade federal do rio de janeiro","universidade-federal-do-rio-de-janeiro","Brazil","Rio de Janeiro","","-22.9110137","-43.2093727","{'marin teknikk':2,}"
"university of british columbia - ubc","university-of-british-columbia---ubc","Canada","Vancouver","","49.2608724","-123.113952","{'produktutvikling og produksjon - pup':1,}"
"university of washington","university-of-washington","USA","Seattle","","47.6038321","-122.330062","{'filmvitenskap':1,'datateknologi':1,}"
"university of nottingham ningbo, china","university-of-nottingham-ningbo,-china","Kina","Ningbo","","29.8622194","121.6203873","{'statsvitenskap':1,}"
"metropol","metropol","Danmark","Kalundborg","","55.6833793","11.0993619","{'':1,}"
"uc santa barbara","uc-santa-barbara","USA","Santa Barbara","","34.4221319","-119.702667","{'nanoteknologi':1,}"
"rheinisch-westfalische technische hochschule aachen (rwth)","rheinisch-westfalische-technische-hochschule-aachen-(rwth)","Tyskland","Aachen","","50.776351","6.083862","{'energi og miljø':1,}"
"universidade federal do rio de janeiro (ufrj)","universidade-federal-do-rio-de-janeiro-(ufrj)","Brazil","Rio de Janeiro","","-22.9110137","-43.2093727","{'marin teknikk':1,'marin teknikk - marin kybernetikk':1,}"
"california","california","USA","Berkeley","","37.8708393","-122.272863","{'ingeniørvitenskap &amp; ikt':1,}"
"puc-rio - pontifícia universidade católica do rio de janeiro","puc-rio---pontifícia-universidade-católica-do-rio-de-janeiro","Brazil","Rio De Janeiro","","-22.9110137","-43.2093727","{'bygg og miljøteknikk':1,}"
"the university of modena and reggio emilia (unimore)","the-university-of-modena-and-reggio-emilia-(unimore)","Italia","Modena","","44.5384728","10.935960870530739","{'biology (masters programme)':1,}"
"california state university monterey bay","california-state-university-monterey-bay","USA","Seaside/Marina, California","","36.6922881","-121.7988184544661","{'master of interaction design':1,}"
"sveuciliste u splitu (university of split)","sveuciliste-u-splitu-(university-of-split)","Kroatia","Split","","43.5116383","16.4399659","{'sykepleie':1,}"
"sophiahemmet högskola","sophiahemmet-högskola","Sverige","Stockholm","","59.3251172","18.0710935","{'sykepleie':1,'bachelor i sykepleie':1,}"
"university of california santa barbara (ucsb)","university-of-california-santa-barbara-(ucsb)","USA","Santa Barbara","","34.4221319","-119.702667","{'industriell økonomi og teknologiledelse':1,}"
"hogent","hogent","Belgia","Gent","","51.0538286","3.7250121","{'markedsføring og ledelse':1,}"
"syddansk universitet","syddansk-universitet","Danmark","Odense","","55.3997225","10.3852104","{'samfunnsøkonomi (2-årig master)':1,'master i samfunnsøkonomi':1,}"
"emily carr university for art + design","emily-carr-university-for-art-+-design","Canada","Vancouver","","49.2608724","-123.113952","{'industriell design':1,}"
"háskóli íslands","háskóli-íslands","Island","Reykjavik","","64.145981","-21.9422367","{'':1,}"
"hochschule luzern / lucerne university of applied sciences and arts","hochschule-luzern-/-lucerne-university-of-applied-sciences-and-arts","Sveits","Luzern","","47.0505452","8.3054682","{'økonomi og administrasjon':1,}"
"berlin school of economics and law","berlin-school-of-economics-and-law","Tyskland","Berlin","","52.5170365","13.3888599","{'økonomi og administrasjon':2,}"
"uc berkeley extension","uc-berkeley-extension","USA","Berkeley","","37.8708393","-122.272863","{'master øk.adm':1,'master økonomi og administrasjon med hovedprofil økonomistyring':1,}"
"uc berkeley extention","uc-berkeley-extention","USA","Berkeley","","37.8708393","-122.272863","{'master økad':1,}"
"universitetet i bonn","universitetet-i-bonn","Tyskland","Bonn","","50.735851","7.10066","{'msmnfma':1,}"
"tokyo university","tokyo-university","Japan","Tokyo","","35.6840574","139.7744912","{'':1,}"
"california university of monterey bay (csumb)","california-university-of-monterey-bay-(csumb)","USA","Monterey","","36.2231079","-121.387742","{'profesjonsstudiet i psykologi':1,}"
"qut - queensland university of technology","qut---queensland-university-of-technology","Australia","Brisbane","","-27.4689682","153.0234991","{'bioteknologi':1,}"
"queensland","queensland","Australia","Brisbane","","-27.4689682","153.0234991","{'master i økonomi og administrasjon':1,}"
"csumb, california state university of monterey bay","csumb,-california-state-university-of-monterey-bay","USA","Monterey","","36.2231079","-121.387742","{'marine coastal development, master':1,}"
"kit","kit","Tyskland","Karlsuhe","","0","0","{'indøk':1,'fysmat':1,'mtkj':1,}"
"university og auckland","university-og-auckland","New Zealand","Auckland","","-36.852095","174.7631803","{'produktutvikling og produksjon':1,}"
"fh joanneum","fh-joanneum","Østerrike","Graz","","47.0708678","15.4382786","{'økonomi og administrasjon':1,}"
"spbu","spbu","Russland","St. Petersburg","","27.7700475","-82.6359078","{'historie bachelor':1,}"
"eth zurich","eth-zurich","Sveits","Zurich","","47.3744489","8.5410422","{'mtmt':1,}"
"tekniske undiversitet i münchen","tekniske-undiversitet-i-münchen","Tyskland","München","","48.1371079","11.5753822","{'teknisk fysikk':1,}"
"wästfelische wilhelms-unitversität münster","wästfelische-wilhelms-unitversität-münster","Tyskland","Münster","","51.9625101","7.6251879","{'mlspråk - tysk/engelsk':1,}"
"la universidad de granada","la-universidad-de-granada","Spania","Granada","","37.1734995","-3.5995337","{'europastudier m/ spansk':1,}"
"nantional university of singapore (nus)","nantional-university-of-singapore-(nus)","Singapore","Singapore","","1.357107","103.8194992","{'nanoteknologi':1,}"
"sophiahemmet høyskole","sophiahemmet-høyskole","Sverige","Stockholm","","59.3251172","18.0710935","{'sykepleie':1,}"
"the university of iceland","the-university-of-iceland","Island","Reykjavik","","64.145981","-21.9422367","{'geografi bachelor':1,}"
"pucv","pucv","Chile","Valparaíso","","-33.0458456","-71.6196749","{'arkitektur':1,}"
"tu-freiberg","tu-freiberg","Tyskland","Freiberg","","50.9169415","13.3428889","{'petroleumsfag':1,}"
"hafencity universität","hafencity-universität","Tyskland","Hamburg","","53.550341","10.000654","{'arkitekt':1,'arkitektur':1,}"
"hcu hamburg","hcu-hamburg","Tyskland","Hamburg","","53.550341","10.000654","{'arkitektur':1,}"
"university of canterbury","university-of-canterbury","New Zealand","Christchurch","","-43.530955","172.6366455","{'bygg- og miljøteknikk':2,}"
"epfl -  école polytechnique fédérale de lausanne","epfl----école-polytechnique-fédérale-de-lausanne","Sveits","Lausanne","","46.5218269","6.6327025","{'mtnano - nanoteknologi':1,}"
"julius-maximilians-universität würzburg","julius-maximilians-universität-würzburg","Tyskland","Würzburg","","49.79245","9.932966","{'profesjonsstudiet i psykologi':1,}"
"poznan university of economics","poznan-university-of-economics","Polen","Poznan","","52.4006632","16.91973259178088","{'økonomi og administrasjon':1,}"
"poznan university of economics and business","poznan-university-of-economics-and-business","Polen","Poznan","","52.4006632","16.91973259178088","{'økonomi og administrasjon':1,}"
"goldsmiths, university of london","goldsmiths,-university-of-london","Storbritannia","London","","51.5073359","-0.12765","{'bachelor i medievitenskap':1,}"
"novancia business school","novancia-business-school","Frankrike","Paris","","48.8534951","2.3483915","{'':1,'master in international business and marketing':1,}"
"isc paris","isc-paris","Frankrike","Paris","","48.8534951","2.3483915","{'bachelor økonomi og administrasjon':1,'bachelor i økonomi og administrasjon, hhit':1,}"
"novancia business school paris","novancia-business-school-paris","Frankrike","Paris","","48.8534951","2.3483915","{'master international business and marketing':1,}"
"novanica business school paris","novanica-business-school-paris","Frankrike","Paris","","48.8534951","2.3483915","{'international business and marketing':1,}"
"kanazawa university","kanazawa-university","Japan","Kanazawa","","36.5780499","136.6480247","{'bachelor i samfunnsøkonomi':1,}"
"école nationale supérieure de techniques avancées ensta","école-nationale-supérieure-de-techniques-avancées-ensta","Frankrike","Paliseau","","0","0","{'teknisk kybernetikk mttk':1,}"
"universidad autónoma lisboa","universidad-autónoma-lisboa","Portugal","Lisboa","","38.7077507","-9.1365919","{'arkitektur':1,}"
"urv","urv","Spania","Tortosa","","40.8110158","0.5209333","{'sykepleie':1,}"
"univeristy of bologna","univeristy-of-bologna","Italia","Bologna","","44.4938203","11.3426327","{'industriell økonomi og teknologiledelse':1,}"
"indian institute of technology bombay (iit)","indian-institute-of-technology-bombay-(iit)","India","Mumbai","","19.08157715","72.88662753964906","{'bygg- og miljøteknikk':1,}"
"ludvig maximilians universität","ludvig-maximilians-universität","Tyskland","München","","48.1371079","11.5753822","{'statsvitenskap':1,}"
"universität mannheim","universität-mannheim","Tyskland","Mannheim","","49.4892913","8.4673098","{'samfunnsøkonomi':1,'bachelor økonomi og administrasjon':1,'bachelor i samfunnsøkonomi':1,}"
"rheinisch-westfalische technische hochschule","rheinisch-westfalische-technische-hochschule","Tyskland","Aachen","","50.776351","6.083862","{'industriell økonomi og teknologiledelse, energi og miljø':1,}"
"tecnico lisboa (ist)","tecnico-lisboa-(ist)","Portugal","Lisboa","","38.7077507","-9.1365919","{'datateknologi':1,}"
"university of portsmouth","university-of-portsmouth","Storbritannia","Portsmouth","","50.800031","-1.0906023","{'europastudier':1,'arkitektur':1,}"
"insa","insa","Frankrike","Toulouse","","43.6044622","1.4442469","{'mbiot5':1,}"
"the university of british coumbia","the-university-of-british-coumbia","Canada","Vancouver","","49.2608724","-123.113952","{'energi og miljø - elkraft':1,}"
"university of west london","university-of-west-london","Storbritannia","London","","51.5073359","-0.12765","{'kommunikasjonsteknologi':1,}"
"université paris 1 panthéon sorbonne","université-paris-1-panthéon-sorbonne","Frankrike","Paris","","48.8534951","2.3483915","{'':1,'samfunnsøkonomi (msøk5)':1,}"
"technische universität dresden","technische-universität-dresden","Tyskland","Dresden","","51.0493286","13.7381437","{'produktutvikling og produksjon':1,'fysikk og matematikk':1,}"
"universitetet i wien","universitetet-i-wien","Østerrike","Wien","","48.2083537","16.3725042","{'biologi':1,}"
"texas tech","texas-tech","USA","Lubbock","","33.5855677","-101.8470215","{'elektronikk':1,'petroleumsfag':1,}"
"universität osnabrück","universität-osnabrück","Tyskland","Osnabrück","","52.2719595","8.047635","{'geomatikk':1,}"
"albert-ludwigs universität freiburg","albert-ludwigs-universität-freiburg","Tyskland","Freiburg","","47.9960901","7.8494005","{'bachelor tysk':1,}"
"upc, etsab","upc,-etsab","Spania","Barcelona","","41.3828939","2.1774322","{'master arkitektur':1,}"
"université francois rabelais tours","université-francois-rabelais-tours","Frankrike","Tours","","47.3900474","0.6889268","{'psykologi profesjon':1,}"
"universität freiburg","universität-freiburg","Tyskland","Freiburg","","47.9960901","7.8494005","{'europastudier':1,}"
"universidad técnica federico santa maría","universidad-técnica-federico-santa-maría","Chile","Valparaíso","","-33.0458456","-71.6196749","{'datateknologi':1,'mtdt / datateknikk':1,'ingeniørvitenskap og ikt':1,}"
"pontifical universidade catholica","pontifical-universidade-catholica","Brazil","Rio de Janeiro","","-22.9110137","-43.2093727","{'petroleumsteknologi':1,}"
"unlar","unlar","Argentina","La Rioja","","42.2814642","-2.482804975070473","{'medisin':1,}"
"université catholique de lyon, esdes","université-catholique-de-lyon,-esdes","Frankrike","Lyon","","45.7578137","4.8320114","{'økonomi og administrasjon':1,}"
"bauhausuniversität","bauhausuniversität","Tyskland","Weimar","","50.9810486","11.3296637","{'arkitektur':1,}"
"hochschule für wirtschaft und recht berlin","hochschule-für-wirtschaft-und-recht-berlin","Tyskland","Berlin","","52.5170365","13.3888599","{'':1,}"
"florida atlantic university","florida-atlantic-university","USA","Boca Raton","","26.3586885","-80.0830984","{'marin teknikk (hydrodynamikk)':1,}"
"university of calary","university-of-calary","Canada","Calgary","","51.0456064","-114.0575418","{'bgeol':1,}"
"medizinische universität innsbruck","medizinische-universität-innsbruck","Østerrike","Innsbruck","","47.2654296","11.3927685","{'medisin':2,}"
"ctu","ctu","Tsjekkia","Praha","","50.0874654","14.4212535","{'bygg og miljøteknikk siv.ing':1,}"
"université de montpellier - faculté des sciences","université-de-montpellier---faculté-des-sciences","Frankrike","Montpellier","","43.6112422","3.8767337","{'fysikk og matematikk - industriell matematikk':2,}"
"poznań university of economics and business","poznań-university-of-economics-and-business","Polen","Poznań","","52.4006632","16.91973259178088","{'bachelor i økonomi og administrasjon':1,}"
"university of new south wales (unsw)","university-of-new-south-wales-(unsw)","Australia","Sydney","","-33.8698439","151.2082848","{'petroleumsfag':2,'industriell design':1,}"
"instituto superior técnico (ist)","instituto-superior-técnico-(ist)","Portugal","Lisboa","","38.7077507","-9.1365919","{'marin teknikk, hydrodynamikk':1,'mtprod':1,}"
"humboldt universität zu berlin","humboldt-universität-zu-berlin","Tyskland","Berlin","","52.5170365","13.3888599","{'mtfyma':1,}"
"unsw - university of new south wales","unsw---university-of-new-south-wales","Australia","Sydney","","-33.8698439","151.2082848","{'datateknologi':1,}"
"chalmers tekniska högskola","chalmers-tekniska-högskola","Sverige","Gøteborg","","57.7072326","11.9670171","{'maar':1,}"
"university california san diego","university-california-san-diego","USA","San Diego","","32.7174202","-117.1627728","{'nanoteknologi':1,}"
"superior tecnico","superior-tecnico","Portugal","Lisboa","","38.7077507","-9.1365919","{'marin teknikk':1,}"
"montanuniversität","montanuniversität","Østerrike","Leoben","","47.3805128","15.0947756","{'petroleumsfag':1,}"
"ece paris","ece-paris","Frankrike","Paris","","48.8534951","2.3483915","{'teknisk kybernetikk - embedded systems':1,}"
"université grenoble alpes- inp","université-grenoble-alpes--inp","Frankrike","Grenoble","","45.1875602","5.7357819","{'datateknikk':1,}"
"universitetet i leipzig","universitetet-i-leipzig","Tyskland","Leipzig","","51.3406321","12.3747329","{'psykologi bachelor':1,}"
"technische universität münchen tum","technische-universität-münchen-tum","Tyskland","München","","48.1371079","11.5753822","{'datateknologi':1,}"
"soas (school of oriental and african studies)","soas-(school-of-oriental-and-african-studies)","Storbritannia","London","","51.5073359","-0.12765","{'bachelor i sosialantropologi':1,}"
"university of south wales","university-of-south-wales","Storbritannia","Pontypridd","","51.6001047","-3.3449362","{'psykologi':1,}"
"university of alberta","university-of-alberta","Canada","Edmonton","","53.5462055","-113.491241","{'petroleumsfag':1,}"
"université nice-sophia-antipolis","université-nice-sophia-antipolis","Frankrike","Nice","","43.7009358","7.2683912","{'bevegelsesvitenskap':1,}"
"universidad e buenos aires (uba), facultad de ingenieria","universidad-e-buenos-aires-(uba),-facultad-de-ingenieria","Argentina","Buenos Aires","","-34.6075682","-58.4370894","{'indøk':1,}"
"universiteit twente","universiteit-twente","Nederland","Enschede","","52.2209855","6.8940537","{'nanoteknologi':1,}"
"dtu / københavns universitet","dtu-/-københavns-universitet","Danmark","København","","55.6867243","12.5700724","{'indøk':1,}"
"universitatea &quot;alexandru ioan cuza&quot; din iasi","universitatea-&quot;alexandru-ioan-cuza&quot;-din-iasi","Romania","Iasi","","47.1615416","27.5837224","{'vernepleie':1,}"
"the university of hong kong (hku)","the-university-of-hong-kong-(hku)","Kina","Hongkong","","22.2793278","114.1628131","{'industriell økonomi og teknologiledelse (spes. datateknologi)':1,}"
"upm - etsii","upm---etsii","Spania","Madrid","","40.4167047","-3.7035825","{'mtiøt':1,}"
"universidad de extremadura","universidad-de-extremadura","Spania","Badajoz","","38.88964355","-6.980142450723942","{'ingeniør fornybar energi':1,}"
"grenoble inp, ense3","grenoble-inp,-ense3","Frankrike","Grenoble","","45.1875602","5.7357819","{'kybernetikk og robotikk':1,}"
"university of new south wales(unsw)","university-of-new-south-wales(unsw)","Australia","Sydney","","-33.8698439","151.2082848","{'industriell økonomi og teknologiledelse':1,}"
"paris 4 sorbonne","paris-4-sorbonne","Frankrike","Paris","","48.8534951","2.3483915","{'lektor':1,}"
"université lille 1 - sciences et technologies","université-lille-1---sciences-et-technologies","Frankrike","Lille","","50.6365654","3.0635282","{'industriell kjemi og bioteknologi - analytisk kjemi':1,}"
"technische universität","technische-universität","Tyskland","München","","48.1371079","11.5753822","{'industriell matematikk':1,}"
"university of ulsan","university-of-ulsan","Korea","Ulsan","","35.5391697","129.3119136","{'marin teknikk':1,}"
"tekniske universitet i danmark","tekniske-universitet-i-danmark","Danmark","København","","55.6867243","12.5700724","{'industriell matematikk':1,}"
"nanyang technologial university","nanyang-technologial-university","Singapore","Singapore","","1.357107","103.8194992","{'indøk':1,}"
"christian medical college","christian-medical-college","India","Vellore","","12.7948109","79.0006410968549","{'medisin profesjonsstudium':1,}"
"leiden universitet/tu delft","leiden-universitet/tu-delft","Nederland","Leiden/Delft","","52.0038361","4.3626364","{'energi og miljø':1,}"
"university of san diego, california","university-of-san-diego,-california","USA","San Diego","","32.7174202","-117.1627728","{'bygg- og miljøteknikk':1,}"
"dublin institue of technology","dublin-institue-of-technology","Irland","Dublin","","53.3493795","-6.2605593","{'utøvende musikk':1,}"
"malmö musikhögskola","malmö-musikhögskola","Sverige","Malmö","","55.6052931","13.0001566","{'jazzlinjen':1,}"
"universidad politécnica de cartagena","universidad-politécnica-de-cartagena","Spania","Cartagena","","37.6019353","-0.9841152","{'marin teknikk':1,}"
"universidad pontificia de comillas","universidad-pontificia-de-comillas","Spania","Madrid","","40.4167047","-3.7035825","{'energi og miljo':1,}"
"aalto-yliopisto","aalto-yliopisto","Finland","Helsinki","","60.1674881","24.9427473","{'industriell design':1,}"
"karlsruhe institute of technology (kit)","karlsruhe-institute-of-technology-(kit)","Tyskland","Karlsruhe","","49.0068705","8.4034195","{'bygg- og miljøteknikk':1,}"
"university of malawi, college of medicine","university-of-malawi,-college-of-medicine","Malawi","Blantyre","","-15.7862543","35.0035694","{'medisin':1,}"
"college of medicine,malawi","college-of-medicine,malawi","Malawi","Blantyre","","-15.7862543","35.0035694","{'medisinstudiet':1,}"
"university of oklahoma","university-of-oklahoma","USA","Norman","","35.2225717","-97.4394816","{'petroleumsfag - reservoarteknologi og petrofysikk':1,'petroleumsfag':1,'petroleumsfag - boreteknologi':1,}"
"aalto universitetet","aalto-universitetet","Finland","Helsinki","","60.1674881","24.9427473","{'industriell design':1,}"
"ludwig maximilian universität, lmu","ludwig-maximilian-universität,-lmu","Tyskland","München","","48.1371079","11.5753822","{'samfunnsøkonomi, bachelor':1,}"
"école nationale des sciences géographiques ensg","école-nationale-des-sciences-géographiques-ensg","Frankrike","Paris","","48.8534951","2.3483915","{'ingeniørvitenskap og ikt, geomatikk':1,}"
"universidad técnica del norte","universidad-técnica-del-norte","Ecuador","Ibarra","","43.1316471","-2.0622574","{'profesjonsstudiet, psykologi':1,}"
"ku leuven sint-lucas gent","ku-leuven-sint-lucas-gent","Belgia","Gent","","51.0538286","3.7250121","{'master i arkitektur':1,}"
"dtu, danmarks tekniske universitet","dtu,-danmarks-tekniske-universitet","Danmark","København","","55.6867243","12.5700724","{'sivilingeniør fysikk og matematikk':1,}"
"muhimbili university of health and allied sciences","muhimbili-university-of-health-and-allied-sciences","Tanzania","Dar es Salaam","","-6.8160837","39.2803583","{'medisin':1,}"
"paris sorbonne","paris-sorbonne","Frankrike","Paris","","48.8534951","2.3483915","{'lektorutdanning med fransk':1,}"
"james cook university","james-cook-university","Australia","Townsville","","-19.2569391","146.8239537","{'bachelor i marinbiologi':1,}"
"université laval","université-laval","Canada","Québec","","52.4760892","-71.8258668","{'lektor med fransk og sosiologi':1,}"
"muhimbili university of health and allied sciences (muhas)","muhimbili-university-of-health-and-allied-sciences-(muhas)","Tanzania","Dar Es Salaam","","-6.8160837","39.2803583","{'medisin':1,}"
"université rennes 2","université-rennes-2","Frankrike","Rennes","","48.1113387","-1.6800198","{'historie bachelor':1,}"
"university of kwazulu natal","university-of-kwazulu-natal","Sør Afrika","Durban","","-29.861825","31.009909","{'medisin':1,}"
"yonsei university","yonsei-university","Korea","Seoul","","37.5666791","126.9782914","{'økonomi og administrasjon':1,}"
"university of minnesota - twin cities","university-of-minnesota---twin-cities","USA","Minneapolis","","44.9772995","-93.2654692","{'energi og miljø':1,}"
"la salle, universitat ramon llull","la-salle,-universitat-ramon-llull","Spania","Barcelona","","41.3828939","2.1774322","{'økonomi og administrasjon':1,}"
"univeristy of cape town","univeristy-of-cape-town","Sør Afrika","Cape Town","","-33.928992","18.417396","{'indøk data':1,}"
"pusan national university","pusan-national-university","Korea","Busan","","35.1799528","129.0752365","{'marin teknikk':1,}"
"waseda","waseda","Japan","Tokyo","","35.6840574","139.7744912","{'informatikk':1,}"
"ingen universitet, praksis på dagsenteret agenepal","ingen-universitet,-praksis-på-dagsenteret-agenepal","Nepal","Kathmandu","","27.708317","85.3205817","{'fysioterapiutdanning':1,}"
"far eastern federal university","far-eastern-federal-university","Russland","Vladivostok","","43.1150678","131.8855768","{'bygg og miljøteknikk':1,}"
"göteborgs universitet, högskolan för scen och musik","göteborgs-universitet,-högskolan-för-scen-och-musik","Sverige","Göteborg","","57.7072326","11.9670171","{'utøvende musikk, bacehlor':1,}"
"paris-sorbonne (sorbonne iv)","paris-sorbonne-(sorbonne-iv)","Frankrike","Paris","","48.8534951","2.3483915","{'lektor i engelsk/fransk, bachelor i fransk':1,}"
"university of new orleans","university-of-new-orleans","USA","New Orleans","","29.9759983","-90.0782127","{'marin teknikk':2,}"
"technische universität berlin (tu berlin)","technische-universität-berlin-(tu-berlin)","Tyskland","Berlin","","52.5170365","13.3888599","{'mtbygg':1,}"
"memorial university","memorial-university","Canada","St. Johns","","29.9032284","-81.4145468","{'ingenørvitenskap og ikt':1,}"
"hong kong university of science and technology","hong-kong-university-of-science-and-technology","Kina","Hong Kong","","22.2793278","114.1628131","{'sivilingeniør i fysikk og matematikk':1,}"
"universitatea alexandru ioan cuza","universitatea-alexandru-ioan-cuza","Romania","Iasi","","47.1615416","27.5837224","{'vernepleie':1,}"
"loughborough university","loughborough-university","Storbritannia","Loughborough","","52.7723859","-1.2077985","{'industriell design':1,}"
"lincoln university, lincoln","lincoln-university,-lincoln","New Zealand","Christchurch","","-43.530955","172.6366455","{'pup':1,}"
"ense3 grenoble inp","ense3-grenoble-inp","Frankrike","Grenoble","","45.1875602","5.7357819","{'mttk':1,}"
"university of auckland (uoa)","university-of-auckland-(uoa)","New Zealand","Auckland","","-36.852095","174.7631803","{'produktutvikling og produksjon, 5-årig master':1,}"
"ecole centrale de nantes","ecole-centrale-de-nantes","Frankrike","Nantes","","47.2186371","-1.5541362","{'marin teknikk':1,}"
"michigan technological university (mtu)","michigan-technological-university-(mtu)","USA","Houghton","","46.8591287","-88.7774734","{'mtprod':1,}"
"university of aberdeen","university-of-aberdeen","Storbritannia","Aberdeen","","57.1482429","-2.0928095","{'arkeologi':1,}"
"insa de lyon","insa-de-lyon","Frankrike","Lyon","","45.7578137","4.8320114","{'mybygg':1,}"
"stanford university","stanford-university","USA","Palo Alto","","37.4443293","-122.1598465","{'petroleumsfag':1,}"
"tsinghua university (清华大学)","tsinghua-university-(清华大学)","Kina","Beijing","","39.9057136","116.3912972","{'mtiøt':1,}"
"universidad nacional de la rioja","universidad-nacional-de-la-rioja","Argentina","La Rioja","","42.2814642","-2.482804975070473","{'medisin profesjon':1,}"
"university of highlands and islands","university-of-highlands-and-islands","Storbritannia","Kirkwall","","58.9816049","-2.960369","{'bark':1,'arkeologi':1,}"
"sciences po/ institut détudes politiques de lyon","sciences-po/-institut-détudes-politiques-de-lyon","Frankrike","Lyon","","45.7578137","4.8320114","{'statsvitenskap':1,}"
"technische universitet münchen","technische-universitet-münchen","Tyskland","München","","48.1371079","11.5753822","{'mtnano':1,}"
"czech technical university in prague, ctu / české vysoké učení technické v praze, čvut","czech-technical-university-in-prague,-ctu-/-české-vysoké-učení-technické-v-praze,-čvut","Tsjekkia","Praha","","50.0874654","14.4212535","{'kybernetikk og robotikk 2-årig':1,}"
"upm estii","upm-estii","Spania","Madrid","","40.4167047","-3.7035825","{'indøk-emil':1,}"
"polytech montpellier","polytech-montpellier","Frankrike","Montpellier","","43.6112422","3.8767337","{'mttk':1,}"
"ensta bretagne","ensta-bretagne","Frankrike","Brest","","48.3905283","-4.4860088","{'marin teknikk':1,}"
"université pierre et marie curie (upmc)","université-pierre-et-marie-curie-(upmc)","Frankrike","Paris","","48.8534951","2.3483915","{'sivilingeniørstudiet i fysikk og matematikk (teknisk fysikk)':1,}"
"professionshøjskolen metropol","professionshøjskolen-metropol","Danmark","København","","55.6867243","12.5700724","{'sykepleie':1,}"
"paris sorbonne iv","paris-sorbonne-iv","Frankrike","Paris","","48.8534951","2.3483915","{'mlspråk':1,}"
"nus (national university of singapore)","nus-(national-university-of-singapore)","Singapore","Singapore","","1.357107","103.8194992","{'i&amp;ikt - marin kybernetikk':1,}"
"erasmus school of economics","erasmus-school-of-economics","Nederland","Rotterdam","","51.9244424","4.47775","{'samfunnsøkonomi':2,}"
"imperial college london","imperial-college-london","Storbritannia","London","","51.5073359","-0.12765","{'mschem':1,}"
"htw","htw","Tyskland","Berlin","","52.5170365","13.3888599","{'markedsføring og ledelse, spesialisering eksport markedsføring':1,}"
"hochschule für technik und wirtschaft","hochschule-für-technik-und-wirtschaft","Tyskland","Berlin","","52.5170365","13.3888599","{'økonomi og administrasjon':1,}"
"university of kwazulu-natal","university-of-kwazulu-natal","Sør Afrika","Durban","","-29.861825","31.009909","{'medisin':1,}"
"etsab","etsab","Spania","Barcelona","","41.3828939","2.1774322","{'arkitektur':1,}"
"university of western australia (uwa)","university-of-western-australia-(uwa)","Australia","Perth","","-31.9558933","115.8605855","{'energi og miljø':1,}"
"flinders university","flinders-university","Australia","Adelaide","","-34.9281805","138.5999312","{'bachelor i fremmedspråk':1,}"
"pucrio","pucrio","Brazil","rio","","-22.9110137","-43.2093727","{'bygg':1,}"
"universitet utland","universitet-utland","Argentina","By","","53.4250605","27.6971358","{'mtkom':1,}"
"university of katmandu","university-of-katmandu","Nepal","Dhulikhel","","27.61765575","85.56349552503448","{'medisin':1,}"
"kathamndu university","kathamndu-university","Nepal","Dhulikhel","","27.61765575","85.56349552503448","{'bachelor i sykepleie':2,}"
