name,slug,country,city,homepage,lat,lng,programs
"tu berlin","tu-berlin","Tyskland","Berlin","","0","0","{'materialteknologi':['2876'],'msc industriell økologi':['2430'],'industriell matematikk':['2401', '2252'],'kybernetikk og robotikk (sivilingeniør -5årig master)':['2169'],'mtmart':['1715'],'energi og miljø':['1170'],'industriell økonomi (marin)':['1103'],'bygg- og miljøteknikk':['1054'],'mt bygg':['392'],'marin teknikk':['371'],'mtbygg':['243'],}"
"danmark tekniske universitet","danmark-tekniske-universitet","Danmark","københavn","","0","0","{'bioteknologi msbiotech':['2875'],'master i industriell økonomi og teknologiledelse':['1799'],}"
"politecnico di milano","politecnico-di-milano","Italia","Milano","","0","0","{'produktutvikling og produksjon':['2874', '2271', '2202', '1432', '1107', '970', '393', '391', '390'],'bygg- og miljøteknikk':['2854', '2380', '1020', '335', '104'],'energi og miljø':['2848', '2764', '2735', '1948', '1793', '1186', '1163'],'indøk':['2838', '1950', '1115'],'industriell økonomi og teknologiledelse':['2837', '2792', '2706', '2597', '2586', '2577', '2409', '2400'],'mtdt':['2833'],'datateknologi':['2794', '2782'],'5-åring master i arkitektur':['2749'],'bygg og miljøteknikk, 5.årig':['2698'],'logistikkingeniør':['2621'],'industriell design':['2604', '2297', '2296'],'energi &amp; miljø':['2588'],'mtdesig (industriell design)':['2585'],'arkitektur (5-årig master)':['2582'],'industriell økonomi og teknologiledelse (data)':['2526'],'ingeniørvitenskap og ikt':['2510'],'mtbygg':['2493', '1195', '580'],'mting':['2488'],'konstruksjon':['2402'],'':['2374'],'industriell kjemi og bioteknologi':['2257', '2174', '2162', '1919', '1916', '201'],'kommunikasjonsteknologi':['1955', '1887', '1868', '578'],'master i arkitektur':['1929'],'mtkj':['1920'],'bygg og miljøteknikk - konstruksjon':['1876'],'mtenerg':['1792'],'kybernetikk og robotikk':['1442', '1137'],'bygg og miljøteknikk':['1177', '733'],'produktutvikling og produksjon, 5-årig':['1167'],'bygg -og miljøteknikk':['1159'],'tekniske geofag (mttekgeo)':['1143'],'produsjonsteknologi':['1120'],'mtprod':['967'],'produktutvikling og produksjon - industriell mekanikk':['965'],'produktutvikling og produksjon (produksjonsteknologi)':['943'],'marin teknikk':['931', '846'],'sustainable manufacturing':['722'],'teknisk kybernetikk':['684'],'sustainable architecture':['572'],}"
"ludwig-maximilian universität (lmu)","ludwig-maximilian-universitat-(lmu)","Tyskland","München","","0","0","{'profesjonsstudiet i psykologi':['2873'],'statsvitenskap':['591'],'samfunnsøkonomi, bachelor':['358'],}"
"la sapienza","la-sapienza","Italia","Roma","","0","0","{'i&amp;ikt - geomatikk':['2872'],'datateknologi':['2853'],'datateknologi, 5-årig':['2850'],'kommunikasjonsteknologi og digital sikkerhet':['2831'],'arkitektur':['2825', '2710'],'industriell økonomi og teknologiledelse':['2702'],'master, international business and marketing':['2554'],'kybernetikk og robotikk':['2471', '956'],'mtfyma':['2377'],'informatikk':['2176', '2155', '2133'],'master i teknologiledelse':['2146'],'kommunikasjonsteknologi':['1905', '1884'],'energi og miljø':['959'],}"
"boku, universität für bodenkultur","boku-universitat-fur-bodenkultur","Østerrike","Wien","","0","0","{'bygg og miljøteknikk, vann og miljøteknikk':['2871'],}"
"universitetet i bolgona","universitetet-i-bolgona","Italia","Bologna","","0","0","{'fysikk og matematikk':['2870'],'datateknologi, 5-årig':['2867'],'kybernetikk og robotikk':['2863'],'datateknologi':['2852', '2813', '2461'],'energi og miljø':['2817', '1899'],'industriell økonomi og teknologiledelse':['2790', '2622', '2563', '2560', '601'],'samfunnsøkonomi':['2783'],'kommunikasjonsteknologi og digital sikkerthet':['2760'],'':['2741'],'bygg og miljøteknikk':['2728'],'bygg- og miljøteknikk':['2696'],'mttk':['2486'],'sivilingeniør, datateknologi':['2460'],}"
"osaka metropolitan university","osaka-metropolitan-university","Japan","Osaka","","0","0","{'kybernetikk og robotikk':['2869'],}"
"upv","upv","Spania","Valencia","","0","0","{'produktutvikling og produksjon - robotikk og automasjon':['2868'],'indøk':['2797'],'pup puma':['2788'],'kybernetikk og robotikk':['2713'],'mtprod':['2685'],'produktutvikling og produksjon':['2412', '2088'],'marin teknikk':['2395'],'mtbygg':['2388'],'ingeniørvitenskap og ikt':['2362'],'bygg- og miljøteknikk':['1934', '1865', '1530', '1098', '1082', '1040', '1025', '989', '985', '958', '852', '231', '75'],'mtdt':['1921', '1037'],'bygg og miljøteknikk, med retning bygg og anlegg.':['1908'],'energi og miljø':['1880', '1859', '1104'],'bygg og miljøteknikk':['1849', '1003', '320'],'industriell design':['1843', '995'],'fysikk og matematikk - industriell matematikk':['1492'],'mtenerg':['1130', '1106', '1064', '608'],'industriell økonomi og teknologiledelse':['1112'],'energi og miljø - energiforsyning og klimatisering av bygninger':['1026'],}"
"universitetet i genoa","universitetet-i-genoa","Italia","Genoa","","0","0","{'marin teknikk':['2866'],}"
"technische universität münchen (tum)","technische-universitat-munchen-(tum)","Tyskland","München","","0","0","{'mttk':['2865', '2453', '641'],'kybernetikk og robotikk':['2851', '2821', '1939', '1836', '1241', '1216', '1165', '1059', '328', '270', '253'],'materialteknologi':['2845'],'nanoteknologi':['2828', '256'],'fysikk og matematikk - teknisk fysikk':['2802'],'arkitektur':['2513', '2512', '1769', '535', '258'],'elektronisk systemdesign og innovasjon':['2498'],'fysikk og matematikk - industriell matematikk':['2451', '397'],'mtfyma':['2443', '182'],'i og ikt, konstruksjonsteknikk':['2442'],'pup':['2441'],'mtnano':['2439', '557', '422', '142'],'':['2431'],'fysikk og matematikk, masterstudium':['2429'],'fysikk og matematikk':['2425', '1658', '1173'],'master, fysikk og matematikk, tekfys':['2382'],'produktutvikling og produksjon (maskin)':['2381'],'industriell økonomi og teknologiledelse':['2253', '469', '214'],'bygg og miljøteknikk':['2229', '1956', '443'],'ingeniørvitenskap og ikt':['2194', '1891', '542'],'produktutvikling og produksjon':['2029', '690', '680', '600', '170'],'mtprod':['1926'],'energi og miljø':['1903', '1641', '1190', '349', '329'],'bygg-og miljøteknikk':['1896'],'fysikk og matematikk - masterstudium (5-årig)':['1895'],'i &amp; ikt':['1888'],'kybernetikk og robotikk, 5 årig':['1862'],'bygg- og miljøteknikk':['1237', '1157', '216'],'energibruk og energiplanlegging':['1188'],'produktutvikling &amp; produksjon':['1175'],'mtkj':['1148'],'bygg -og miljøteknikk':['1110'],'kunnskap, teknologi og samfunn':['788'],'teknisk fysikk':['673'],'geomatikk':['553'],'datateknologi':['448'],'industriell matematikk':['401'],'teknisk kybernetikk':['356', '338'],'sivilingeniør bygg- og miljøteknikk':['341'],'datateknikk':['109'],'indøk data':['100'],'indøk':['69', '59'],}"
"ist","ist","Portugal","Lisboa","","0","0","{'energi og miljø':['2864'],'datateknologi':['2767', '2222', '581'],'ingeniørvitenskap og ikt':['2726', '2581', '2360', '1543'],'kybernitikk og robotikk':['2703'],'informatikk':['2611'],'bygg- og miljøteknikk':['2506', '2501'],'ingeniørvitenskap &amp; ikt':['2483'],'fysikk og matematikk':['2419'],'elektronisk systemdesign og innovasjon':['2251'],'ingeniørvitenskap og ikt - geomatikk':['2135'],'i&amp;ikt':['2024'],'industriell kjemi og bioteknologi':['1946'],'marin teknikk':['1707', '330', '79'],'mtkj, bioteknologi':['1547'],'komtek':['1145'],'mtmart':['1008'],'bioteknologi':['979'],'kybernetikk og robotikk':['659'],'':['548'],'marin teknikk, hydrodynamikk':['486'],'mtprod':['484', '323'],'produktutvikling og produksjon':['475'],'mttk':['325'],}"
"università degli studi di padova","universita-degli-studi-di-padova","Italia","Padova","","0","0","{'fysikk og matematikk':['2862', '2187'],'energi og miljø, energibruk i bygninger':['2809'],'energi og miljø':['2803', '2731', '2730'],'5-årig master bygg- og miljøteknikk':['2781'],'industriell kjemi og bioteknologi':['2778'],'energi og miljø - energiforsyning og klimatisering i bygninger':['2768'],'industriell kjemi og bioteknologi - mtkj':['2758'],'mttk':['2755'],'industriell økonomi og teknologiledelse':['2750', '2161'],'indøk data':['2663'],'datateknologi':['2623'],'mtkj':['2413', '2375'],'psykologi bachelor':['2267'],'indøk':['2226'],'digital forretningsutvikling':['2120'],'mtiøt':['1405'],'industriell økonomi og teknolgiledelse':['1038'],'markedsføring og ledelse':['830'],}"
"tu graz","tu-graz","Østerrike","Graz","","0","0","{'fysmat':['2861'],'fysikk og matematikk':['2068'],'bygg-og miljøteknikk':['1771'],'energi og miljø':['1210'],'mtbygg':['1116'],'mt bygg':['612'],'produktutvikling og produksjon':['470'],'bioteknologi':['387'],}"
"sorbonne universite","sorbonne-universite","Frankrike","Paris","","0","0","{'fysikk og matematikk  (5-årig)':['2860'],'mathematical sciences (masters programme)':['794'],}"
"university of california santa barbara","university-of-california-santa-barbara","USA","Santa Barbara","","0","0","{'produktutvikling og produksjon':['2859'],'økonomi og administrasjon':['2693'],'indøk produktutvikling':['2536'],'mttk':['2290'],'marin teknikk':['2233', '375'],'kybernetikk og robotikk':['2180', '1967'],'ingeniørvitenskap og ikt':['1738'],'master informatikk - interaksjonsdesign, spill og læringsteknologi':['1672'],'industriell økonomi og teknologiledelse':['728'],'mtdt':['64'],}"
"instituto superior tecnico","instituto-superior-tecnico","Portugal","Lisboa","","0","0","{'produktutvikling og produksjon(pup)':['2858'],'indøk':['2847', '2494'],'datateknologi 5 åring':['2834'],'kybernetikk og robotikk':['2816', '2718', '2708', '2602', '1845', '1197', '326', '56'],'bygg- og miljøteknikk':['2807', '2125'],'mtmt':['2805'],'produktutvikling og produksjon':['2799', '2748', '1923', '1902', '1466', '1172', '1142'],'energi og miljø, 5-årig':['2752'],'energi og miljø':['2746', '2564', '2142', '1961', '1111', '500', '499'],'ingeniørvitenskap og ikt':['2734', '2520', '1813'],'tekniske geofag':['2617', '2613', '2599', '2595', '2592', '2568', '1791'],'marin teknikk':['2514', '1121', '1077', '477'],'materialteknologi':['2496', '2495'],'fysikk og matematikk':['2424', '2420', '2366'],'datateknologi':['2364', '2193', '2192'],'':['2121'],'kybernetikk &amp; robotikk':['2067'],'ingeniørvitenskap &amp; ikt':['2055'],'industriell kjemi- og bioteknologi':['1913'],'mtelsys':['1886', '1867'],'marinteknikk':['1108'],'produktutvikling og produksjon  (mtprod)':['1100'],'mtprod':['1095'],'informatikk':['1005'],'master i bioteknologi':['978'],'pup':['627'],'sivilingeniør marin teknikk, 5-årig':['613'],'energi og miljø, elkraft':['402'],'ms electric power engineering':['305'],'elektronikk':['67'],}"
"puc","puc","Brazil","Rio de Janeiro","","0","0","{'bygg og miljøteknikk':['2857'],}"
"danmarks tekniske universitet","danmarks-tekniske-universitet","Danmark","Kongens Lyngby / København","","0","0","{'vann- og miljøteknikk':['2856'],'datateknologi':['2716', '2407'],'produktutvikling og produksjon':['2665', '780'],'industriell økonomi og teknologi ledelse/energi og miljø':['2491'],'bioteknologi':['1820'],'mtpetr':['1119'],'elsys':['1089'],'industriell kjemi og bioteknologi':['1053', '1052'],'mtbygg':['1035', '1012', '106'],'bygg- og miljøteknikk':['900', '203', '153'],'mit':['670'],'industriell design':['555', '479'],'energi og miljø, energiplanlegging og miljøanalyse':['537'],'master bygg- og miljøteknikk':['378'],}"
"tu delft","tu-delft","Nederland","Delft","","0","0","{'vann- og miljøteknikk':['2855'],'mtkj-bioteknologi':['2785'],'industriell design':['2700', '2082'],'fysikk og matematikk':['2688', '2383'],'industriell design - interaksjonsdesign':['2677'],'datateknologi med spesialisering i programvaresystemer':['2630'],'master i informatikk':['2281'],'mtfyma - teknisk fysikk':['1812'],'marin teknikk (marine konstruksjoner)':['1748'],'marin teknikk':['1720', '1456', '425', '102', '101'],'komtek':['1693'],'kybernetikk og robotikk':['1588', '519'],'elektronisk systemdesign og innovasjon':['1477', '1192'],'industriell økonomi og teknologiledelse':['1202'],'tekniske geofag':['1097'],'mtbygg - konstruksjon':['1072'],'5-årig master i bioteknologi':['1017'],'energi og miljø':['952', '853'],'bygg- og miljøteknikk':['938'],'produktutvikling og produksjon (puma)':['686'],'mtbygg':['635'],'mttk':['516'],'teknisk kybernetikk':['504'],'produktutvikling og produksjon (pup / maskin)':['370'],'mtenerg':['304'],'mtmart':['230'],'':['97'],}"
"budapest university of technology and economics","budapest-university-of-technology-and-economics","Ungarn","Budapest","","0","0","{'':['2849'],'kommunikasjonsteknologi og digital sikkerhet':['2632'],'fysikk og matematikk, teknisk fysikk':['1459'],'kommunikasjonsteknologi':['1056', '652'],}"
"aarhus universitet","aarhus-universitet","Danmark","Aarhus","","0","0","{'lektor i språkfag - nordisk':['2846'],'bachelor i programmering':['2432'],'bachelor tysk/historie':['2221'],'bachelor psykologi':['787'],'mtnano-ne':['357'],'siv.ing. nanoteknologi':['272'],'nanoteknologi':['257'],'bevegelsesvitenskap':['57'],}"
"upc - universitat politecnica de catalunya","upc---universitat-politecnica-de-catalunya","Spania","Barcelona","","0","0","{'kybernetikk og robotikk':['2844', '1139'],'industriell matematikk':['2691', '2363'],'fysikk og matematikk':['2484', '891'],'bygg- og miljøteknikk':['2456', '1034'],'mtdt, datateknologi':['2397'],'datateknologi':['2392', '1561'],'indmat':['2258'],'mtdt':['1924'],'energi og miljø':['1904'],'mtmt':['1900'],'nanoteknologi':['1893'],'industriell økonomi og teknologiledelse':['1605'],'indøk':['1604'],'mtfyma - fysikk og matematikk':['1562'],'lektor i realfag':['1471'],'https://www.ntnu.no/studier/mtkom':['1212'],'ingeniørvitenskap &amp; ikt':['1133'],'kybernetikk &amp; robotikk':['1092'],'mit':['987'],'kybernetikk og kybernetikk':['679'],'kommunikasjonsteknologi':['366'],'sivilingeniør, fysikk og matematikk':['255'],'mtfyma':['218'],}"
"ense3 ved inp grenoble","ense3-ved-inp-grenoble","Frankrike","Grenoble","","0","0","{'energi og miljø':['2843'],'ingeniørvitenskap og ikt':['1030', '741'],}"
"politecnico di torino","politecnico-di-torino","Italia","Torino","","0","0","{'kybernetikk og robotikk':['2842', '2804', '2679'],'bygg- og miljøteknikk':['2423'],'mtkj':['1917'],'petroleumsfag':['1612'],'industriell økonomi og teknologiledelse':['1465', '1226', '1225'],'indøk - pup':['1415'],'mtfyma':['1232'],'ingeniørvitenskap &amp; ikt':['880', '550'],'mt-iøt':['606'],'ingeniørvitenskap og ikt':['589', '587'],'i&amp;ikt':['497'],'indøk marin':['389'],'indøk':['281'],}"
"cole polytechnique fédérale de lausanne (epfl)","cole-polytechnique-federale-de-lausanne-(epfl)","Sveits","Lausanne","","0","0","{'industriell økonomi og teknologiledelse':['2841', '2738'],'kommunikasjonsteknologi og digital sikkerhet (mtkom)':['2832'],'fysikk og matematikk- teknisk fysikk - sivilingeniør/masterprogram 5-årig':['2824'],'mtelsys':['2793'],'bygg og miljøteknikk 5 årig':['2742'],'mtfyma':['2505'],'industriell økonomi og teknologi ledelse':['2436'],'produktutvikling og produksjon, industriell mekanikk':['2333'],'produktutvikling og produksjon, ept':['2154'],'nanoteknologi (nanoelektronikk)':['1864'],'bygg- og miljøteknikk, 5-årig':['1428'],'master i fysikk':['1187'],'cybernetics and robotics':['1150'],'mtnano - nanoteknologi':['642'],}"
"montana state university","montana-state-university","USA","Bozeman","","0","0","{'bygg og miljøteknikk':['2840'],'konstruksjon':['1425'],}"
"oth-regensburg","oth-regensburg","Tyskland","Regensburg","","0","0","{'samfunnsøkonomi 5-årig master':['2839'],'digital infrastruktur og cybersikkerhet':['2562'],}"
"university of british columbia (ubc)","university-of-british-columbia-(ubc)","Canada","Vancouver","","0","0","{'energi og miljø':['2836', '790'],'bachelor i statsvitenskap':['2823'],'mtfyma':['2769', '2159', '1330'],'mtkj':['2753', '1499'],'datateknologi':['2648', '2100'],'informatikk, 2-årig master':['2638'],'marin teknikk':['2355', '2329', '824'],'bygg- og miljøteknikk':['2215', '2099', '2073', '2018'],'kybernetikk og robotikk':['2177', '2160', '2110', '2101'],'bygg- og miljøteknikk, 5-årig masterstudium':['2106'],'industriell økonomi og teknologiledelse':['2091', '2062', '1987', '1775', '296'],'mtkom':['2085'],'myfyma':['1796'],'produktutvikling og produksjon':['1784'],'materialteknologi':['1640'],'tekniske geofag':['1538', '298'],'materialteknologi, mtmt':['1340'],'mtkom kommunikasjonsteknologi':['911'],'produktutvikling og produksjon - pup':['781'],'energi og miljø - elkraft':['570'],'teknisk kybernetikk':['419'],}"
"eurecom","eurecom","Frankrike","Antibes","","0","0","{'kommunikasjonsteknologi':['2835', '2365', '2294', '1723', '1624', '1623', '1620', '1613', '1156', '1006', '639', '467', '451', '423'],'kommunikasjonsteknologi og digital sikkerhet':['2814', '2724'],'datateknologi':['2806', '2707', '2273', '1149'],'datateknologi med ai':['2787'],'datateknologi siving':['2770'],'elsys':['2725', '2292'],'mtdt':['2692'],'ingeniørvitenskap &amp; ikt':['2523'],'ingeniørvitenskap og ikt':['2522'],'elektronisk systemdesign og innovasjon':['2350', '2324', '2275', '1632', '1217', '1198'],'master informatikk, interaksjonsdesign, spill- og læringsteknologi':['2330'],'mtkom':['2325', '2300', '1010', '543'],'4. år master i informatikk - interaksjonsdesign, spill- og læringsteknologi':['1760'],'elektronisk systemdesign &amp; innovasjon':['1621'],'datateknikk':['180'],}"
"universitetet i københavn","universitetet-i-kobenhavn","Danmark","København","","0","0","{'lektor, nordisk':['2830'],}"
"uc3m","uc3m","Spania","Madrid","","0","0","{'kommunikasjonsteknologi og digital sikkerhet':['2829'],'datateknologi':['2671', '1830'],'digital forretningsutvikling':['2565'],}"
"universidad carlos iii de madrid","universidad-carlos-iii-de-madrid","Spania","Madrid","","0","0","{'datateknologi':['2827', '2780', '2779', '2765', '1614'],'økonomi og administrasjon':['2557', '2352', '1657', '1656'],'europastudier med statsvitenskap':['2378'],'psykologi bachelor':['1944'],'statsvitenskap':['1558'],'sosialantropologi, bachelor':['1555'],'nanoteknologi':['1221', '1050', '236', '234'],'mlreal':['1044'],}"
"insa toulouse","insa-toulouse","Frankrike","Toulouse","","0","0","{'kybernetikk og robotikk':['2826'],'mtfyma':['2435'],'mbiot5':['573'],}"
"dtu","dtu","Danmark","Kongens Lyngby","","0","0","{'chemistry':['2822'],'kybernetikk og robotikk (5-årig)':['2789'],'mtkj - bioteknologi':['2744'],'datateknologi':['2681'],'mtprod':['2634', '1755', '251'],'kybernetikk og robotikk':['2553'],'industriell kjemi og bioteknologi':['2537', '822'],'energi og prosessteknikk (strømningsteknikk)':['2533'],'energi og miljø':['2516', '2515', '2487', '1029'],'industriell økonomi og teknologiledelse':['2459', '974', '855'],'industriel design':['2417'],'elsys':['2416', '1036'],'bygg -og miljøteknikk':['2210'],'fysikk og matematikk':['2058'],'bachelor elektroingeniør med rettning automasjon':['2034'],'ledelse av teknologi':['2015'],'mtfyma':['1957'],'mbiot5':['1928'],'mtkj':['1927', '1914', '1073', '1027', '665'],'mtiøt':['1840'],'mtkj bioteknologi':['1660'],'energibruk og energiplanlegging':['1132', '540'],'bygg- og miljøteknikk':['1114', '1101'],'kommunikasjonsteknologi':['1093'],'pup':['1091'],'industriell økonomi og teknologi ledelse':['1039'],'mtkj- materialteknologi':['1028'],'bygg og miljøteknikk (konstruksjonsteknikk)':['916', '521'],'industriell design':['452'],'produktutvikling og produksjon':['343'],'materialteknologi':['319'],'bbi':['239'],'energi og miljø- elkraft':['209'],'':['199'],}"
"danmarks tekniske universitet (dtu)","danmarks-tekniske-universitet-(dtu)","Danmark","København","","0","0","{'bygg- og miljøteknikk':['2820', '2642'],'energi og miljø':['2649', '1161', '933'],'kommunikasjonsteknologi':['2641', '914'],'industriell kjemi og bioteknologi':['2517'],'':['2480'],'mtprod':['2347'],'bimas':['1978'],'produktutvikling og produksjon (ipk)':['1773'],'kybernetikk og robotikk':['1117'],'mtbygg':['1002'],'industriell økologi':['594'],'industriell design':['453'],'sivilingeniør fysikk og matematikk':['344'],'marin teknikk':['139'],'produktutvikling':['111'],}"
"sciences po","sciences-po","Frankrike","Lyon","","0","0","{'bachelor i statsvitenskap':['2819'],'statsvitenskap':['2625', '2332', '1770', '151'],'lektorutdanning i samfunnsfag':['2591'],'europastudier med statsvitenskap':['2470'],}"
"yıldız teknik üniversitesi","yildiz-teknik-universitesi","Tyrkia","Istanbul","","0","0","{'kybernetikk og robotikk':['2818'],}"
"universiteit gent","universiteit-gent","Belgia","Gent","","0","0","{'environmental toxicology and chemistry':['2815'],'industriell kjemi og bioteknologi':['2440'],'materialteknologi':['1725'],'msøk':['863'],}"
"university of copenhagen","university-of-copenhagen","Danmark","København","","0","0","{'datateknologi':['2812'],'urban ecological planning':['1397'],}"
"universitat politecnica de valencia","universitat-politecnica-de-valencia","Spania","Valencia","","0","0","{'industriell kjemi og bioteknologi':['2811', '2776'],'industriell økonomi og teknologiledelse, emil':['2712'],'marin teknikk':['2705', '1081'],'kybernetikk og robotikk (5 årig)':['2519'],'kybernetikk og robotikk':['2511'],'mttk':['2472'],'master i informatikk':['2455'],'master i industriell design':['2406'],'informatikk, programvaresystemer':['2403'],'mtbygg':['2396'],'sivilingeniør - fysikk og matematikk - 5-årig masterprogram':['2385'],'bygg- og miljøeknikk':['2235'],'bygg- og miljøteknikk':['1925', '1912', '1084', '265'],'fysikk og matematikk - industriell matematikk':['1807'],'bygg og miljøteknikk':['1083', '595'],'master i arkitektur':['980'],'kommunikasjonsteknologi':['133'],}"
"ucsb","ucsb","USA","Santa Barbara","","0","0","{'produktutvikling og produksjon':['2810'],'kybernetikk og robotikk':['2189', '2182', '2179', '796'],'mttk - kybernetikk og robotikk':['1963'],'':['1943'],'mtiøt':['1346'],'allmenn litteraturvitenskap':['901'],'industriell kjemi og bioteknologi':['894', '455'],'master i matematikk':['889'],'indøk':['726'],'datateknikk':['487'],'datateknologi':['267'],'mtkom':['245'],'ingeniørvitenskap &amp; ikt':['186'],'energi og miljø':['175'],}"
"tu/e - technische universiteit eindhoven","tu/e---technische-universiteit-eindhoven","Nederland","Eindhoven","","0","0","{'mtfyma - teknisk fysikk':['2808'],'industriell kjemi og bioteknologi':['1874'],'energi og miljø':['1224'],'datateknologi, 5':['1042'],'mtdt':['756'],}"
"","","","","","0","0","{'':['2801', '2732', '2166', '2158', '2083', '1534', '1235', '1219', '1004', '953', '412'],}"
"københavns universitet","kobenhavns-universitet","Danmark","København","","0","0","{'samfunn- og idrettsvitenskap':['2800'],'lektorprogrammet i språkfag - nordisk':['2686'],'bachelor i biologi':['2676', '723'],'bevegelsesvitenskap, bachelor':['2550'],'lektorutdanning i samfunnsfag, masterprogram i sosiologi':['2032'],'lektorutdanning i språk, nordisk':['1306'],'master i nordisk språk':['1230'],'samfunnsøkonomi':['890'],'siviløkonom/ masterprogram 2-årig':['720'],'profesjonsstudiet i psykologi':['718'],'indøk':['682', '662', '426'],'mtfyma':['651'],'psykologi bachelor':['630'],}"
"eth","eth","Sveits","Zürich","","0","0","{'kybernetikk og robotikk':['2798'],'ingeniørvitenskap og ikt':['2601', '2600'],'mtfyma':['2518'],'mttk - kybernetikk og robotikk':['2466'],'mtelsys':['2148'],'produktutvikling og produksjon':['1894'],'mtenerg':['1704'],'mtdt':['1441'],'mtmt':['674'],}"
"tu eindhoven","tu-eindhoven","Nederland","Eindhoven","","0","0","{'energi og miljø':['2796'],'kybernetikk og robotikk masterprogram (sivilingeniør) 5-årig':['2717'],'mttk':['669'],}"
"tsinghua","tsinghua","Kina","Beijing","","0","0","{'datateknologi':['2795', '1827'],'industriell økonomi og teknologiledelse':['2115', '2041', '1870'],'mtdt':['1991'],'mtkj':['1877', '1777'],'bygg- og miljøteknikk':['1697'],'indøk':['1528'],'mtiøt':['160'],}"
"texas tech university","texas-tech-university","USA","Lubbock","","0","0","{'petroleumsfag':['2791', '2644', '505'],'mgeol':['1695'],'petroleumsteknologi':['605', '157'],'elektronikk':['554'],}"
"università di pisa","universita-di-pisa","Italia","Pisa","","0","0","{'datateknologi':['2786'],}"
"university college dublin","university-college-dublin","Irland","Dublin","","0","0","{'fysikk og matematikk':['2784'],'europastudier med statsvitenskap':['2473'],'master fysikk':['2053'],'bygg- og miljøteknikk':['1881'],'bachelor i elektroingeniør (elkraft)':['1412'],'nanoteknologi':['1398'],'energi og miljø - elektrisk energiteknikk og smarte nett':['1302'],}"
"university of innsbruck","university-of-innsbruck","Østerrike","Innsbruck","","0","0","{'mtfyma':['2777'],'mtnano':['2759'],'nanoteknologi':['2719'],'ledelse av teknologi':['2589'],'kommunikasjonsteknologi':['1890'],'bygg- og miljøteknikk':['1765'],'samfunnsøkonomi':['1065'],'fysikk og matematikk':['118'],}"
"san diego state university","san-diego-state-university","USA","San Diego","","0","0","{'master of science in informatics':['2775'],'profesjonsstudiet i psykologi':['2658', '2627', '2628'],'energi og miljø':['2137', '1554', '1540'],'bygg- og miljøteknikk':['2122', '851', '173'],'master i samfunnsøkonomi':['2093'],'shipping management':['2025'],'mtfyma':['1551'],'energi &amp; miljø':['1548'],'mtbygg':['1494', '1275'],'bygg og miljøteknikk':['1480'],'master i ledelse av teknologi':['1395', '1247', '705'],'logistikk':['1394'],'logistikkingeniør':['1389'],'byggingeniør, bachelor':['1380'],'logistikk ingeniør':['1365'],'bachelor bygg':['1343'],'lektorutdanning med hovedfag i engelsk':['1318'],'markedsføring og ledelse':['762'],'ledelse av teknologi':['704'],'energi og miljø - elkraft':['524'],'psykologi':['313'],'spesialpedagogikk':['210'],}"
"university of california san diego","university-of-california-san-diego","USA","san diego","","0","0","{'energi og miljø, 5-årig':['2774'],'datateknologi':['2242', '1674', '917'],'fysikk og matematikk':['2183'],'marin teknikk':['2076', '1681'],'':['2064'],'industriell økonomi og teknologiledelse':['2026', '1552', '1502', '496', '278', '185'],'produktutvikling og produksjon':['1486', '227'],'indøk':['1328'],'mtenerg':['523'],}"
"uga","uga","Frankrike","Grenoble","","0","0","{'bygg- og miljøteknikk':['2773'],'master i bioteknologi (mbiot5)':['1871'],}"
"ucsd","ucsd","USA","San Diego","","0","0","{'industriell økonomi og teknologiledelse':['2772', '2762', '2181', '2081', '1821', '1521', '1349', '507', '262', '190'],'energi og miljø':['2763'],'ingeniørvitenskap &amp; ikt - konstruksjon':['2715'],'kybernetikk og robotikk':['2678', '1517', '1485'],'mtiøt':['2387', '1507', '792'],'bygg og miljøteknikk':['2295', '2096', '373'],'bygg- og miljøteknikk':['2113', '2097', '1631', '1630', '1608', '471', '327'],'informatikk':['2094'],'indøk':['2087'],'datateknologi':['2075', '828', '761', '312'],'produktutvikling og produksjon, maskin':['2069'],'mtelsys':['1628'],'nanoteknologi':['1541'],'indøk data':['1489'],'mtdt':['1373'],'mbiot5':['1255', '1254'],'mtbygg':['867', '797', '760', '433'],'mtprod (in.mek.)':['799'],'bioteknologi':['784', '179'],'mtprod':['779'],'produktutvikling og produktsjon':['645'],'marin teknikk':['567'],'mtmart':['566'],'indøk-data':['498'],'bygg- og miljøteknikk - konstruksjon':['432'],'mlspråk':['428'],'bygg- og miljøteknikk (konstruksjon)':['416'],'datateknikk':['247'],'industriell mekanikk':['168'],'økonomi og administrasjon':['89'],}"
"columbia university of new york","columbia-university-of-new-york","USA","New York","","0","0","{'industriell økonomi og teknologiledelse':['2771'],}"
"albert-ludwig-universität freiburg","albert-ludwig-universitat-freiburg","Tyskland","Freiburg im Breisgau","","0","0","{'europastudier med tysk':['2766'],'lektor i samfunnsfag':['2615'],'bachelor tysk - språk og litteratur':['2418'],'fysikk og matematikk':['1901'],'integrert master i samfunnsøkonomi':['1182'],'bachelor tysk':['1155'],}"
"universiteit van amsterdam","universiteit-van-amsterdam","Nederland","Amsterdam","","0","0","{'fysikk og matematikk- fysmat':['2761'],'mtdt':['1207'],'fysikk og matematikk':['1193'],}"
"university of the highlands and islands","university-of-the-highlands-and-islands","Storbritannia","Kirkwall","","0","0","{'bachelor i arkeologi':['2757'],'arkeologi':['977', '156', '134'],'bark':['154'],}"
"eindhoven university of technology (technische universiteit eindhoven)","eindhoven-university-of-technology-(technische-universiteit-eindhoven)","Nederland","Eindhoven","","0","0","{'kybernetikk og robotikk (fordypning: robotsystemer)':['2756'],}"
"bogazici universitetet","bogazici-universitetet","Tyrkia","Istanbul","","0","0","{'allmenn litteraturvitenskap - bachelor':['2754'],}"
"university of padova","university-of-padova","Italia","Padova","","0","0","{'bioteknologi (mbiot5)':['2751'],'mtkj':['2624', '2393', '1909'],'indøk':['2574'],'industriell økonomi og teknologiledelse':['2570', '997'],'bachelor i samfunnsøkonomi':['2411'],'industriell kjemi og bioteknologi':['2373'],'ingeniørvitenskap og ikt':['2291'],'fysikk og matematikk':['2066'],'bachelor psykologi':['1283'],'psykologi bachelor':['857'],}"
"universita degli studi di genova","universita-degli-studi-di-genova","Italia","Genova","","0","0","{'kybernetikk og robotikk':['2747'],'ingeniørvitenskap &amp;amp; ikt':['2723'],}"
"usi","usi","Sveits","Mendrisio","","0","0","{'arkitektur':['2745'],}"
"aalto university","aalto-university","Finland","Espoo/Helsinki","","0","0","{'ingeniørvitenskap og ikt':['2743'],'arkitektur':['2008', '954'],}"
"institut détudes politiques de toulouse","institut-detudes-politiques-de-toulouse","Frankrike","Toulouse","","0","0","{'europastudier - bachelorstudium':['2740'],'statsvitenskap':['1651'],}"
"universidade de lisboa","universidade-de-lisboa","Portugal","Lisboa","","0","0","{'industriell design':['2739'],'energi og miljø':['2421'],'arkitektur':['2415', '1717', '1650', '607'],'arkitektur - masterstudium (5-årig) (maar)':['2410'],'arkitektur - masterstudium (5 årig)':['1879'],'master - arkitektur':['1878'],'medisin':['1495'],}"
"technische universität graz","technische-universitat-graz","Østerrike","Graz","","0","0","{'fysikk og matematikk (tekfys)':['2737'],'bygg- og miljøteknikk':['1833', '450'],}"
"upc-fme","upc-fme","Spania","Barcelona","","0","0","{'fysikk og matematikk':['2736'],}"
"accademia di belle arti di brera","accademia-di-belle-arti-di-brera","Italia","Milano","","0","0","{'industriell design':['2733'],}"
"czech technical university","czech-technical-university","Tsjekkia","Praha","","0","0","{'kybernetikk og robotikk':['2729', '2682'],'datateknologi':['2656'],'mibygg':['2477'],'samfunnsøkonomi':['1835'],'elektronisk systemdesign og inovasjon':['1151'],'informatikk':['654'],'kybernetikk og robotikk 2-årig':['141'],}"
"kungliga tekniska högskolan","kungliga-tekniska-hogskolan","Sverige","Stockholm","","0","0","{'ingeniørvitenskap og ikt - konstruksjonsteknikk':['2727'],'bbk':['2652'],'fysikk og matematikk - teknisk fysikk':['2283'],'energi og miljø':['1727', '1484'],'bygg- og miljøteknikk':['1527'],}"
"kaist","kaist","Korea","Daejeon","","0","0","{'datateknologi':['2722', '1872', '1758'],'kybernetikk og robotikk (mttk)':['2200'],'mtdt':['1581'],'mttk':['1515'],'produktutvikling og produksjon':['1248'],'fysikk og matematikk':['865', '418'],'produksjon og produktutvikling':['207'],}"
"hochschule lucerne","hochschule-lucerne","Sveits","Luzern","","0","0","{'master i arkitektur':['2721'],}"
"ku leuven","ku-leuven","Belgia","Leuven","","0","0","{'fysikk og matematikk - industriell matematikk':['2720'],'datateknologi':['2687', '1178'],'':['2452'],'industriell kjemi og bioteknologi':['2437'],'mtkj':['2145'],'kommunikasjonsteknologi':['1783'],'bygg og miljøteknikk':['1153'],'sivilingeniør i nanoteknologi':['84'],}"
"university of hawaii at manoa","university-of-hawaii-at-manoa","USA","Honolulu","","0","0","{'bachelor i biologi':['2714'],'kybernetikk og robotikk':['2704', '2662'],'europastudier med statsvitenskap':['2673'],'økonomi og administrasjon bachelor':['2546', '2545'],'bachelor i økonomi og administrasjon':['2544'],}"
"universitet mannheim","universitet-mannheim","Tyskland","Mannheim","","0","0","{'industriell økonomi og teknologiledelse':['2711', '1805', '1599', '466', '458'],'samfunnsøkonomi':['590'],'bachelor økonomi og administrasjon':['464'],'bachelor i samfunnsøkonomi':['66'],}"
"università degli studi di firenze","universita-degli-studi-di-firenze","Italia","Firenze","","0","0","{'arkitektur':['2709'],'industriell økonomi og teknologiledelse - data':['2701'],'statsvitenskap':['2555', '2104'],'bachelor i økonomi og administrasjon':['2338'],'økonomi og administrasjon':['2336'],}"
"chalmers university","chalmers-university","Sverige","Gothenburg","","0","0","{'industrial ecology':['2699'],}"
"ugent","ugent","Belgia","Gent","","0","0","{'ingeniørvitenskap og ikt, konstruksjon':['2697'],'bygg - og miljøteknikk':['2348'],'markedsføring og ledelse':['725'],}"
"københavns professionshøjskole","kobenhavns-professionshojskole","Danmark","København","","0","0","{'bachelor i sosialt arbeid (sosionom)':['2695'],'barnevernspedagogikk bachelor':['2499'],'sykepleierutdanning, bachelor heltid':['1809'],'sykepleie, bachelor heltid':['1804'],'sykepleierutdanningen - bachelor':['1802'],}"
"sapienza universita di roma","sapienza-universita-di-roma","Italia","Roma","","0","0","{'mtnano':['2694'],'industriell økonomi og teknologiledelse':['2668'],'digital infrastruktur og cybersikkerhet':['2576'],}"
"ucd","ucd","Irland","Dublin","","0","0","{'arkitektur':['2690'],'elektrisk energiteknikk og smarte nett':['1411'],'mtbygg':['1278'],}"
"university of roehampton","university-of-roehampton","Storbritannia","London","","0","0","{'drama og teater':['2689'],}"
"unibo","unibo","Italia","Bologna","","0","0","{'datateknologi':['2684'],'bygg- og miljøteknikk':['2372', '1831'],'energi og miljø':['2213', '1184'],'fysmat':['2131'],'mlt':['1568'],'industriell kjemi og bioteknologi':['1122'],'religionsvitenskap / årsstudium engelsk':['610'],}"
"bme","bme","Ungarn","Budapest","","0","0","{'kybernetikk og robotikk':['2683'],'kommunikasjonsteknologi':['1071', '1058'],}"
"uc berkeley","uc-berkeley","USA","Berkeley","","0","0","{'mtnano':['2680'],'industriell økonomi og teknologiledelse':['2666', '2302', '88'],'kybernetikk og robotikk':['2639'],'psykologi bachelor':['2594'],'industriell kjemi og bioteknologi':['2561', '644'],'bachelor økonomi og administrasjon':['2535'],'mtiøt - data':['2310'],'mtdt - datateknologi':['2241'],'bachelor psykologi':['2157'],'ingeniørvitenskap og ikt':['2072'],'fysikk og matematikk':['2045', '1795', '1473'],'dataingeniør':['2010', '1972'],'mtkj':['1825'],'mtfyma':['1762', '293', '284'],'mttk':['1691'],'statsvitenskap':['1595'],'bygg- og miljøteknikk':['1559'],'emil':['906'],'energi og miljø':['902'],'nanoteknologi':['835'],'produktutvikling og produksjon':['785'],'industriell økonomi og teknologiledelse med valgt teknologiretning emil og elkraft':['783'],'marine teknikk':['768'],'mtprod':['748', '250'],'master øk.adm':['709'],'master økad':['708'],'master økonomi og administrasjon med hovedprofil økonomistyring':['700'],'sosiologi':['456'],'konstruksjonsteknikk':['220'],'master i matematikk':['196'],'lektor i samfunnsfag':['74'],}"
"alma mater studiorum università di bologna","alma-mater-studiorum-universita-di-bologna","Italia","Bologna","","0","0","{'industriell kjemi og bioteknologi':['2675', '1863'],'energi og miljø, 5-åring master':['2572'],'energi og miljø':['2571', '1213', '1185', '1181', '292'],'industriell matematikk':['2447'],'medisin':['2438', '47'],'medisin profesjon':['2428'],'bygg- og miljøteknikk':['2244', '2208', '1744', '1125'],'kommunikasjonsteknologi':['1750', '1166'],'bygg og miljøteknikk':['1745'],'mtbygg':['1742'],'industriell økonomi og teknologiledelse (maskin)':['1596'],'datateknologi':['1136'],'bygg - og miljøteknikk':['1126'],'mtfyma':['1124'],'mtprod':['968'],'ingeniørvitenskap og ikt':['609'],'teknisk kybernetikk':['144'],}"
"technical university of denmark - dtu","technical-university-of-denmark---dtu","Danmark","Kongens Lyngby/København","","0","0","{'marin teknikk':['2674'],}"
"seoul national university","seoul-national-university","Korea","Seoul","","0","0","{'master i matematikk':['2672'],'kybernetikk og robotikk':['1434', '494'],'datateknologi':['957', '773'],'bygg- og miljøteknikk':['745'],'samfunnsøkonomi':['495'],'samfunnsøkonomi 5-årig master':['491'],}"
"lunds universitet","lunds-universitet","Sverige","Lund","","0","0","{'arkitektur':['2670'],'informatikk, drift av datasystemer':['2368'],'bachelor i psykologi':['1673', '915'],'sosialantropologi':['646'],}"
"sungkyunkwan university","sungkyunkwan-university","Korea","Suwon","","0","0","{'bygg- og miljøteknikk':['2669'],'dataingeniør':['2552', '2549'],'dataingeniør bachelor':['2539'],'master sts':['2525'],'master i informatikk':['2321'],'mbiot5':['2112', '962'],'fysikk og matematikk, siving.':['2054'],'elektroingeniør':['1993'],'arkitektur':['288'],'mtfyma':['235'],}"
"ohio state university","ohio-state-university","USA","Columbus, Ohio","","0","0","{'bioingeniør':['2667'],'bioingeniørfag, bachelor':['1731'],}"
"universidad de valencia (uv)","universidad-de-valencia-(uv)","Spania","Valencia","","0","0","{'samfunnsøkonomi':['2664'],'profesjonsstudiet i psykologi':['2612'],'fysikk og matematikk, fordypning i teknisk fysikk':['2376'],'psykologi - bachelor':['2367'],'master i ledelse av teknologi':['2339'],'sosiologi bachelor':['2272'],'lektor i kroppsøving og idrett':['2234'],'bioteknologi':['2123'],'industriell kjemi og bioteknologi':['2109'],'ledelse av teknologi':['2046'],'mtkj':['1875'],'økonomi og administrasjon':['1716'],'mbiot5':['1694'],'psykologi, bachelor':['1577', '1549', '394'],'psykologi':['1576', '273'],}"
"universidad de granada (ugr)","universidad-de-granada-(ugr)","Spania","Granada","","0","0","{'elektronisk systemdesign og innovasjon (nanoelektronikk og fotonikk)':['2661'],'psykologi, bachelor':['1942'],'arkeologi':['1897'],'lektorutdanning i språkfag':['946'],'europastudier m/ spansk':['667'],'lektor i samfunnsfag og idrett':['656'],'psykologi':['289'],'msøk5':['125'],}"
"science po","science-po","Frankrike","LYON","","0","0","{'europastudier':['2660'],}"
"reykjavik university","reykjavik-university","Island","Reykjavik","","0","0","{'energi og miljø':['2659'],}"
"harvard university","harvard-university","USA","Boston","","0","0","{'mtiøt':['2657'],'industriell økonomi og teknologiledelse':['2327', '1539', '1356', '1342', '1274', '750', '261'],'indøk':['2128', '2021'],'nanoteknologi':['1582'],'nanoteknologi, sivilingeniør/masterprogram 5-årig':['1542'],'mtiøt-dt':['1344'],'industriell design':['1205'],'elektronisk systemdesign og innovasjon':['839'],'marin teknikk prosjektering':['752'],}"
"ucly","ucly","Frankrike","Lyon","","0","0","{'bachelor i bioingeniørfag':['2655'],'eksport markedsføring og ledelse':['1999'],'bioingeniør':['960'],}"
"university of cape town - uct","university-of-cape-town---uct","Sør Afrika","Cape Town","","0","0","{'indøk data':['2654', '282'],'marin teknikk':['2359'],'kjemisk prosessteknologi':['2108'],'bevegelsesvitenskap':['2071'],'bachelor bevegelsesvitenskap':['1979'],'mtmart':['1966'],'industriell økonomi og teknologiledelse':['1772', '1724', '634'],'sosiologi':['1461'],'sosialt arbeid bachelor':['1353'],'master i arkitektur':['1317'],'mtbygg':['1301'],'produktutvikling og produksjon':['1282'],'2-årig master i samfunnsøkonomi':['1243'],'lektor i geografi':['1236'],'mtiøt':['1019'],'bygg- og miljøteknikk':['664'],'geologi realfag':['441'],'statsvitenskap':['421', '229'],'master miljøgeologi':['347'],}"
"free university of bozen-bolzano (unibz)","free-university-of-bozen-bolzano-(unibz)","Italia","Bolzano","","0","0","{'indøk data':['2653'],'industriell økonomi og teknologiledelse':['1336'],}"
"california state university, los angeles","california-state-university-los-angeles","USA","los angeles","","0","0","{'psykologi batchelor':['2651'],}"
"technical university of denmark (dtu)","technical-university-of-denmark-(dtu)","Danmark","København","","0","0","{'kommunikasjonsteknologi og digital sikkerhet':['2650'],'industriell økonomi og teknologiledelse':['2474'],'bygg og miljøteknikk':['1063'],'bygg- og miljøteknikk':['1031'],}"
"university of california, berkeley","university-of-california-berkeley","USA","Berkeley","","0","0","{'industriell økonomi og teknologiledelse, data':['2647'],'økonomi og administrasjon':['2540'],'byggingeniør - ålesund':['2538'],'lektorprogrammet i språkfag':['2198'],'datateknologi':['2190'],'master i datateknologi':['2132'],'mtfyma':['2098'],'profesjonsstudiet i psykologi':['1688'],'nanoteknologi':['1553', '1544', '1516'],'fysikk og matematikk (teknisk fysikk)':['1537'],'indøk':['1293'],'industriell økonomi og teknologiledelse':['1288'],'mtprod':['1260'],'bygg- og miljøteknikk. studieretning: bygg og anlegg':['910'],'bachelor ingeniør bygg':['907'],'bygg- og miljøteknikk (bygg og anlegg)':['804'],'fysikk og matematikk':['789'],'produktutvikling og produksjon':['777'],'ingeniørvitenskap &amp; ikt':['758'],'':['707'],'mtbygg':['454'],'mtnano':['396'],'bygg- og miljøteknikk':['351'],'marin teknikk':['308'],'sivilingeniør bygg og miljøteknikk 5-årig':['307'],'lektorutdanning i språkfag':['72'],}"
"chalmers tekniska hogskola","chalmers-tekniska-hogskola","Sverige","Göteborg","","0","0","{'elektronisk systemdesign og innovasjon':['2646'],'industriell kybernetikk':['1706'],'arkitektur':['1498'],'konstruksjonsteknikk':['842'],'maar':['481'],}"
"texas a&amp;m university","texas-a&amp;m-university","USA","College Station","","0","0","{'petroleumsfag':['2645', '2631', '802', '801'],'petroleumsteknologi':['1629'],}"
"texas a&amp;m","texas-a&amp;m","USA","College station","","0","0","{'mtpetr':['2643'],'petroleumsfag':['2201', '778'],}"
"university of strathclyde","university-of-strathclyde","Storbritannia","Glasgow","","0","0","{'marin teknikk, prosjektering og logistikk':['2640'],'elektronisk systemdesign &amp; innovasjon':['2379'],'bachelor i økonomi og administrasjon':['2111'],'marin teknikk':['1801', '514', '86'],'bachelor i samfunnsøkonomi':['1487'],'indøk':['259'],'industriell økonomi og teknologiledelse':['161'],}"
"universitetet i bern","universitetet-i-bern","Sveits","Bern","","0","0","{'fysikk og matematikk':['2637'],}"
"university of wisconsin madison","university-of-wisconsin-madison","USA","Madison","","0","0","{'bygg- og miljøteknikk':['2636'],'master i bioteknologi':['2007'],}"
"vysoká škola báňská – technická univerzita ostrava","vysoka-skola-banska---technicka-univerzita-ostrava","Tsjekkia","Ostrava","","0","0","{'global manufacturing management, 2-årig master':['2635'],'tekniske geofag':['1183'],}"
"london metropolitan university","london-metropolitan-university","Storbritannia","London","","0","0","{'psykologi profesjon':['2633'],'økonomi og administrasjon':['2293'],'engelsk bachelor':['2130'],'engelsk':['1511'],'bachelor i markedsføring og ledelse':['742'],'film og videoproduksjon':['571'],}"
"sciences po strasbourg","sciences-po-strasbourg","Frankrike","Strasbourg","","0","0","{'europastudier med statsvitenskap':['2629'],}"
"sdsu","sdsu","USA","San Diego","","0","0","{'lektorutdanning - engelsk':['2626'],'statsvitenskap':['692'],}"
"grenoble inp","grenoble-inp","Frankrike","Grenoble","","0","0","{'indøk':['2620'],'produktutvikling og produksjon 5-åring sivilingeniør':['1060'],'materialteknologi':['546'],'kybernetikk og robotikk':['411'],'mttk':['211'],}"
"university of glasgow","university-of-glasgow","Storbritannia","Glasgow","","0","0","{'lektor i engelsk':['2619'],'lektor i språkfag':['2307'],'mtbygg - konstruksjon':['2127'],'bygg- og miljøteknikk':['1977', '941'],'arkeologi':['1790'],'englesk bachelor':['1496'],'produktutvikling og produksjon':['1483'],'energi og miljø':['1472', '588'],'statsvitenskap':['1291'],'fysikk og matematikk':['886'],'master i historie':['884'],'sivilingeniør, 5-årig, fysikk og matematikk':['751'],'fysikk bachelor':['744'],'informatikk - master':['148'],'produktutvikling og produksjon, puma':['146'],}"
"universitá degli studi di siena","universita-degli-studi-di-siena","Italia","Siena","","0","0","{'industriell økonomi og teknologiledelse':['2618', '2616'],}"
"management center innsbruck (mci)","management-center-innsbruck-(mci)","Østerrike","Innsbruck","","0","0","{'master i økonomi og administrasjon':['2614'],'økonomi og administrasjon bachelor':['2584'],}"
"national university of singapore","national-university-of-singapore","Singapore","Singapore","","0","0","{'statsvitenskap':['2610'],'datateknologi':['2326', '2228', '1593'],'økonomi og administrasjon':['2298'],'dataingeniør':['2052'],'indøk':['1523'],'marin teknikk':['1366', '1363', '1271', '1261', '579', '539', '533', '187'],'produktutvikling og produksjon':['1313', '136'],'mtmart':['1250'],'nanoteknologi':['1043', '937', '898'],'mtnano':['1018'],'industriell økonomi og teknologiledelse':['885', '202'],'proman':['872'],'marin teknikk, 5-årig master':['849'],'mtiøt':['340', '339'],'industriell økonomi':['334'],'i&amp;ikt - marin kybernetikk':['103'],}"
"amsterdam university of applied sciences","amsterdam-university-of-applied-sciences","Nederland","Amsterdam","","0","0","{'dataingeniør':['2609', '2596'],'dataingeniør (bachelor)':['2134'],}"
"ajou university","ajou-university","Korea","Suwon","","0","0","{'digital infrastruktur og cybersikkerhet':['2608', '2607'],'energi og miljø':['1556'],'datateknologi':['1289'],'komtek':['1245'],'kommunikasjonsteknologi':['1049'],'informatikk master':['844'],}"
"hawaii pacific university","hawaii-pacific-university","USA","Honolulu","","0","0","{'biomarin innovasjon':['2606', '2605'],'markedsføring og ledelse':['1375'],'mtdt':['1128'],'geografi':['996'],'bachelor i psykologi':['225'],}"
"albert-ludwigs-universität","albert-ludwigs-universitat","Tyskland","Freiburg","","0","0","{'lektor i samfunnsfag/tysk':['2603'],'bachelor tysk':['551'],'europastudier med fremmedspråk':['502'],}"
"cafoscari","cafoscari","Italia","Venezia","","0","0","{'ledelse av teknologi':['2598'],}"
"kth","kth","Sverige","Stockholm","","0","0","{'ingeniørvitenskap og ikt':['2593'],'energi og miljø':['2578'],'mttk':['1741'],'energibruk og energiplanlegging':['993'],'arkitektur':['990', '568', '403'],'mtprod':['379', '249'],'industriell design':['131'],}"
"università degli studi di torino","universita-degli-studi-di-torino","Italia","Torino","","0","0","{'master i ledelse av teknologi':['2590'],'ledelse av teknologi':['2569'],'økonomi og administrasjon':['2446'],'økonomi og administrasjon, bachelor':['1935'],}"
"universidad de alicante","universidad-de-alicante","Spania","Alicante","","0","0","{'mglu 1-7':['2587'],'grunnskolelærer 1-7':['2534'],'informatikk':['2532'],'software engineering':['2391'],'økonomi og administrasjon':['2353', '1808'],'indøk':['2335'],'industriell økonomi og teknologiledelse':['653', '336'],}"
"iqs ramon lull","iqs-ramon-lull","Spania","Barcelona","","0","0","{'økad':['2583'],'økonomi og administrasjon':['2547'],}"
"iqs - universitat ramon llull","iqs---universitat-ramon-llull","Spania","Barcelona","","0","0","{'bachelor i økonomi og administrasjon':['2580', '1781'],'økonomi og administrasjon':['1776', '291'],}"
"universitat de barcelona","universitat-de-barcelona","Spania","Barcelona","","0","0","{'markedsføring, innovasjon og ledelse':['2579'],'fysikk og matematikk':['2370'],'msc in biology- ecology, behaviour, evolution and biosystematics':['1659'],'samfunnsøkonomi':['1479'],'bioingeniør':['1123', '1078', '1076'],'bachelor i bioingeniørfag':['1087'],'master of science in molecular medicine':['172'],'petroleumsfag':['165'],'molecular medicine':['135'],'markedsføring og ledelse, spesialisering eksportmarkedsføring':['83'],}"
"university of york","university-of-york","Storbritannia","York","","0","0","{'bachelor i engelsk':['2575'],'lektor språkfag - engelsk':['2524'],'lektorutdanning i språkfag (engelsk)':['2277'],'arkeologi':['1938', '1722'],'bachelor i arkeologi':['1753'],'engelsk':['1513'],'engelsk bachelor':['1506', '1503'],'ba engelsk':['1504'],'mlspråk':['922'],'master i engelsk':['883'],'lektorutdanning i språkfag - engelsk':['295'],'lektorutdanning i språkfag':['110'],}"
"university of zürich (uzh)","university-of-zurich-(uzh)","Sveits","Zürich","","0","0","{'master i statsvitenskap':['2573'],'bfy':['2389'],}"
"chung-ang university","chung-ang-university","Korea","Seoul","","0","0","{'bachelor i kjemi':['2567'],'datateknologi':['2399'],'mdtd':['2203'],'bachelor psykologi':['1406'],'kommunikasjonsteknologi':['1102'],'økonomi og adminisrajon':['1045'],'teknisk kybernetikk':['663'],}"
"ie university","ie-university","Spania","Madrid","","0","0","{'industriell økonomi og teknologiledelse':['2566'],}"
"hong kong polytechnic university","hong-kong-polytechnic-university","Kina","Hong Kong","","0","0","{'indøk - emil':['2559'],'industriell økonomi og teknologiledelse':['2558'],'samfunnsøkonomi':['547'],}"
"ca foscari","ca-foscari","Italia","venezia","","0","0","{'økonomi og administrasjon':['2556'],'master i ledelse av teknologi':['2543', '2542'],'industriell økonomi og teknologiledelse':['2114'],}"
"st. pölten university of applied sciences","st.-polten-university-of-applied-sciences","Østerrike","St. Pölten","","0","0","{'digital infrastruktur og cybersikkerhet':['2551'],}"
"rennes school of business","rennes-school-of-business","Frankrike","Rennes","","0","0","{'økonomi og administrasjon':['2548'],}"
"tor vergata","tor-vergata","Italia","Roma","","0","0","{'indøk':['2541'],'økonomi og administrasjon':['1069'],}"
"aalto","aalto","Finland","Helsinki","","0","0","{'ingeniørvitenskap og ikt':['2531'],'industriell design':['372', '361'],}"
"universitetet i padova - unipd","universitetet-i-padova---unipd","Italia","Padova","","0","0","{'kybernetikk og robotikk':['2530'],}"
"upc - fib","upc---fib","Spania","Barcelona","","0","0","{'indøk':['2529'],'industriell økonomi og teknologiledelse - data':['1615'],'kybernetikk og robotikk':['1215'],'mtkom':['1147'],'datateknologi':['359'],}"
"technische universität berlin","technische-universitat-berlin","Tyskland","Berlin","","0","0","{'grunnskolelærerutdanning 5.-10. trinn':['2528'],'grunnskolelærerutdanning 5.-10 trinn masterstudium (5-årig)':['2527'],'bygg- og miljøteknikk':['2386', '1458', '1457', '474', '368'],'kybernetikk og robotikk':['1930', '1164'],'marin teknikk':['1201', '1180', '520'],'fysikk og matematikk':['1196', '1127'],'master i informatikk - programvaresystemer':['1129'],}"
"universite grenoble alpes","universite-grenoble-alpes","Frankrike","Grenoble","","0","0","{'kybernetikk og robotikk':['2521'],'bygg- og miljøteknikk':['1227'],'mbiot5':['1096'],'datateknikk':['462'],}"
"university of konstanz","university-of-konstanz","Tyskland","Konstanz","","0","0","{'msc in chemistry':['2509'],}"
"técnico lisboa","tecnico-lisboa","Portugal","Lisboa","","0","0","{'mttk':['2508'],'marin teknikk':['2507'],'energi og miljø':['1962'],'produktutvikling og produksjon (sivilingeniør/master, 5 år) - ntnu':['565'],}"
"montanuniversität leoben","montanuniversitat-leoben","Østerrike","Leoben","","0","0","{'petroleumsteknologi':['2504'],'petroleumsfag':['476'],}"
"iade","iade","Portugal","Lisboa","","0","0","{'industriell design':['2503'],}"
"mit","mit","USA","Boston","","0","0","{'mtfyma':['2502'],'kybernetikk og robotikk':['2136'],'mttk':['2119'],'industriell økonomi og teknologiledelse':['1817'],'produktutvikling og produksjon':['820'],}"
"universidad de la laguna","universidad-de-la-laguna","Spania","La Laguna","","0","0","{'datateknologi':['2500'],'mtkom':['2497'],'kommunikasjonsteknologi og digital sikkerhet':['2489'],}"
"arkitektskolen aarhus","arkitektskolen-aarhus","Danmark","Aarhus","","0","0","{'arkitektur':['2492'],}"
"universidad de la laguna (ull)","universidad-de-la-laguna-(ull)","Spania","San Cristóbal de La Laguna","","0","0","{'kommunikasjonsteknologi og digital sikkerhet':['2490'],}"
"chalmers university of technology","chalmers-university-of-technology","Sverige","Gøteborg","","0","0","{'fysikk og matematikk - industriell matematikk':['2485'],'elektronisk systemdesign og innovasjon. akustikk':['973'],'mtbygg':['132'],}"
"university of southampton","university-of-southampton","Storbritannia","Southampton","","0","0","{'marine subsea operation':['2481'],'undervannsteknologi':['2482'],'marin teknikk':['562', '436'],'comem':['493'],}"
"uniwersytet jagiellonski","uniwersytet-jagiellonski","Polen","Krakow","","0","0","{'european studies- masters programme':['2479'],'master i medier, kommunikajon og informasjonsteknologi':['864'],}"
"université de nantes","universite-de-nantes","Frankrike","Nantes","","0","0","{'europastudier med statsvitenskap':['2478'],}"
"university of twente","university-of-twente","Nederland","Enschede","","0","0","{'elektronisk systemdesign og innovasjon':['2476'],'mtnano':['1873', '143'],'kybernetikk og robotikk: fiskeri- og havbruks-kybernetikk (mttk)':['1016'],'sivilingeniør nanoteknologi':['582'],'dataingeniør bachelor':['442'],'bpsy':['440'],'nanoteknologi':['434'],}"
"ostravska univerzita","ostravska-univerzita","Tsjekkia","Ostrava","","0","0","{'lektor i geografi':['2475'],}"
"elte - eötvös loránd university","elte---eotvos-lorand-university","Ungarn","Budapest","","0","0","{'master i psykologi':['2469'],}"
"ntnus brusselkontor","ntnus-brusselkontor","Belgia","Brussel","","0","0","{'european studies master':['2468'],'europastudier master':['2467'],}"
"sintef","sintef","Belgia","Brussel","","0","0","{'europastudier':['2465'],'masters in european studies':['2464'],}"
"uva","uva","Nederland","Amsterdam","","0","0","{'master i informatikk':['2463'],}"
"göteborg universitet","goteborg-universitet","Sverige","Göteborg","","0","0","{'klassiske fag':['2462'],}"
"the university of tokyo","the-university-of-tokyo","Japan","Tokyo","","0","0","{'datateknologi':['2458'],'teknisk fysikk':['2079'],'kybernetikk og robotikk':['2078'],'arkitektur 5-årig master':['1768'],'arkitektur':['1633'],'teknisk kybernetikk':['624'],}"
"tu wien","tu-wien","Østerrike","Wien","","0","0","{'ph.d. i industriell økonomi og teknologiledelse':['2457'],'maar':['1911'],'mtdt':['1847'],'energi og miljø':['1234'],}"
"alma university","alma-university","Italia","Bologna","","0","0","{'mtenerg':['2454'],}"
"università degli studi di perugia","universita-degli-studi-di-perugia","Italia","Perugia","","0","0","{'petroleumsfag/petroleumsgeofysikk':['2450'],'petroleumsgeofysikk':['1160'],}"
"university of stuttgart","university-of-stuttgart","Tyskland","Stuttgart","","0","0","{'arkitektur':['2449'],'mtfyma':['1189'],}"
"ghent university","ghent-university","Belgia","Gent","","0","0","{'industriell kjemi og bioteknologi':['2448'],'materialteknologi':['1754'],'europastudier master':['1079'],}"
"university of bologna","university-of-bologna","Italia","Bolgona","","0","0","{'energi og miljø':['2445', '2218', '2212', '1883', '617', '271'],'mtfyma, retning industriell matematikk':['2246'],'bygg- og miljøteknikk':['2245', '2243', '1822', '1094'],'kybernetikk og robotikk':['2147', '1869', '140'],'medisin - profesjon':['2035'],'kommunikasjonsteknologi':['1751'],'bygg og miljøteknikk':['1470'],'kybernetikk of robotikk':['1239'],'medisin':['944'],'master i samfunnsøkonomi':['114'],'':['112'],'kybernetikk':['105'],}"
"shanghai jiao tong university","shanghai-jiao-tong-university","Kina","Shanghai","","0","0","{'dataingeniør':['2444'],'industriell økonomi og teknologiledelse':['2141'],'produktutvikling og produksjon':['2124'],'produksjon og produktutvikling':['2057'],'':['1700'],'kybernetikk og robotikk':['1647'],'marin teknikk':['1646'],'industriell kybernetikk':['1491'],'energi og miljø':['1141'],'datateknologi (mtdt)':['574'],'energibruk og energiplanlegging':['280'],}"
"università ca’ foscari venezia","universita-ca'-foscari-venezia","Italia","Venezia","","0","0","{'industriell økonomi og teknologiledelse':['2434'],'økonomi og administrasjon':['2156'],}"
"national taiwan university of science and technology","national-taiwan-university-of-science-and-technology","Taiwan","Taipei","","0","0","{'industriell økonomi og teknologiledelse':['2433', '2223'],'datateknologi':['2331', '480'],'ledelse av teknologi':['1789'],'master i ledelse av teknologi':['1788'],'elektronisk systemdesign og innovasjon':['1617'],'bioteknologi':['856'],}"
"university of otago","university-of-otago","New Zealand","Dunedin","","0","0","{'':['2426'],'bygg- og miljøteknikk (bygg og anlegg)':['2311'],'ingeniørvitenskap og ikt':['2308'],'industriell økonomi og teknologiledelse':['2199'],'bachelor i biologi':['1780'],'masterprogram (2-årig) lærar i samfunnsfag':['1701'],'industriell økonomi og teknologiledelse (data/ai)':['1299'],'master i geologi':['1252'],'biologi, bachelor':['1238'],'bbi - bachelor biologi - studieretning økologi, adferd og evolusjon':['1228'],'bachelor i geomatikk':['734'],'grunnskolelærer 1-7 m. realfag':['696'],'lektorutdanning i realfag':['678'],}"
"rwth","rwth","Tyskland","Aachen","","0","0","{'bygg-og miljøteknikk':['2422'],'mtprod':['2206'],'energi og miljø':['1933', '1013', '763', '585', '208'],'mtenerg':['1730'],'mtmt, materialteknologi 5-årig mastergrad':['1665', '1664'],'mtmt':['1179', '939'],'kybernetikk og robotikk, 5årig master':['1174'],'datateknologi':['1109'],'master fysikk':['986'],'materialteknologi':['862'],'fysikk og matematikk':['596', '155'],'industriell kjemi og bioteknologi':['406'],}"
"karlsruher institut für technologie","karlsruher-institut-fur-technologie","Tyskland","Karlrsuhe","","0","0","{'bygg- og miljøteknikk (veg)':['2414'],}"
"ual","ual","Portugal","Lisabon","","0","0","{'arkitektur':['2408'],'arkitektur (master 5-årig)':['2014'],}"
"university of queensland","university-of-queensland","Australia","Brisbane","","0","0","{'industriell kjemi og bioteknologi':['2405'],'grunnskolelærer 5-10':['2354'],'lektorutdanning i samfunnsfag':['2319', '1323'],'lektor i engelsk':['2316'],'bygg- og miljøteknikk':['2314', '1438'],'profesjonsstudiet i psykologi':['2286', '1430', '926', '564', '513'],'datateknologi':['2276', '2270', '2269', '2016', '1740'],'master i samfunnsøkonomi':['2256'],'global manufacturing management, purchasing':['2255'],'bachelor i psykologi':['2254'],'mbiot5':['2207'],'kybernetikk og robotikk':['2172', '2167', '314'],'bachelor i økonomi og administrasjon':['2005'],'master i økonomi og administrasjon':['1974', '1475', '693'],'geografi (bachelor)':['1973'],'master i voksnes læring':['1960'],'fornybar energi':['1936'],'lektor i samfunnsfag':['1906', '1798', '1378'],'masterutdanning i voksnes læring':['1838'],'mtdt':['1832'],'psykologi':['1824'],'psykologi - bacelorstudium':['1823'],'samfunnsøkonomi':['1774', '1746', '1446', '879', '877'],'produktutvikling og produksjon':['1767'],'digital forretningsutvikling':['1756', '1747'],'master i fag- og yrkesdidaktikk og lærerprofesjon. studieretning: samfunnsfag':['1737'],'energi og miljø':['1675', '1276'],'bachelor i informatikk':['1611'],'industriell økonomi og teknologiledelse':['1601', '1560', '1413', '1367', '1334', '1333', '1331', '1332'],'indøk':['1546', '1454'],'dataingeniør':['1512', '1437'],'elektroingeniør - elkraft':['1488'],'bevegelsesvitenskap':['1447', '719'],'bygg- og miljøteknikk, konstruksjonsteknikk':['1439'],'mtbygg':['1390'],'kybernetikk og robotikk (5 - årig master)':['1377'],'mtenerg':['1339'],'bachelor i samfunnsøkonomi':['1337', '254'],'sosialantropologi':['1325'],'mting':['1320'],'bygg og miljøteknikk':['930'],'psykologi, profesjon':['923'],'økonomi og administrasjon':['892', '694', '264', '205', '137', '124'],'integrert master i samfunnsøkonomi':['878'],'sivilingeniør fysikk og matematikk':['833'],'markedsføring og ledelse':['695'],'arkitektur':['536'],'mtprod':['315'],'datateknikk':['287'],'arkeologi bachelor':['63'],}"
"radboud university","radboud-university","Nederland","Nijmegen","","0","0","{'sosialantropologi':['2404'],}"
"pontificia universidad católica de chile","pontificia-universidad-catolica-de-chile","Chile","Santiago","","0","0","{'bygg- og miljøteknikk (5-årig)':['2398'],'statsvitenskap - bachelor':['2394'],'industriell design':['2140', '1423', '1009'],'produktutvikling og produksjon (pup/maskin)':['2105'],'nanoteknologi':['1565'],'lektorutdanning i historie':['1001'],'årsstudium spansk':['837'],'indøk - maskin':['730'],'bygg- og miljøteknikk':['672'],}"
"karlsruhe institute of technology, kit","karlsruhe-institute-of-technology-kit","Tyskland","Karlsruhe","","0","0","{'bygg- og miljøteknikk':['2390', '369'],}"
"isc paris business school","isc-paris-business-school","Frankrike","Paris","","0","0","{'økonomi og administrasjon':['2384'],'':['631'],'bachelor økonomi og administrasjon':['623'],'bachelor i økonomi og administrasjon, hhit':['534'],}"
"maastricht university","maastricht-university","Nederland","Maastricht","","0","0","{'medievitenskap (bachelor)':['2371'],'europastudier med engelsk':['1067', '994'],'europastudier m/ engelsk':['932'],'europastudier':['331'],}"
"bond university","bond-university","Australia","Gold Coast","","0","0","{'økonomi, ledelse og bærekraft':['2369', '2103'],'økonomi og administrasjon':['2357', '2351', '2317', '2289', '2191', '2171', '2170', '1932', '1915', '1861', '1851', '1814', '1766', '1757', '1729', '1703', '1666', '1645', '1583', '1326', '947', '887', '818', '817', '816', '808', '807', '806', '805', '615'],'økonomi og administrasjon (bachelor)':['2356'],'økonomi og administrasjon, bachelor':['2349'],'øknonomi og administrasjon':['2288'],'økad':['2285'],'bachelor i økonomi og administrasjon':['1976'],'økonomi, ledelse og bærekraft. nettbasert.':['1490'],'shipping management':['1418'],'økonomi og ledelse':['942'],'økonomi og administasjon':['618'],'medieledelse':['237'],}"
"leeds beckett university","leeds-beckett-university","Storbritannia","Leeds","","0","0","{'økonomi og administrasjon':['2361'],}"
"insa lyon","insa-lyon","Frankrike","Lyon","","0","0","{'energi og miljø':['2358'],'marin teknikk':['586'],'mybygg':['174'],}"
"wageningen university and research","wageningen-university-and-research","Nederland","Wageningen","","0","0","{'bachelor i biologi':['2346'],}"
"duale hochschule baden-württemberg","duale-hochschule-baden-wurttemberg","Tyskland","Ravensburg","","0","0","{'grafisk design':['2345'],'':['2344'],}"
"uba - universidad de buenos aires","uba---universidad-de-buenos-aires","Argentina","Buenos Aires","","0","0","{'spansk bachelor':['2343'],'medisin, 6-årig profesjonsstudium':['2309'],'lektorutdanning i samfunnsfag':['2006'],'arkitektur master 5-årig':['1578'],'arkitektur':['1531', '1525'],'sosialantropologi':['1435'],'medisin':['1262'],'datateknologi':['1249'],'industriell økonomi og teknologiledelse':['447', '429'],'mtbygg':['150'],}"
"kathmandu university","kathmandu-university","Nepal","Dhulikhel","","0","0","{'videreutdanning i helsesykepleie':['2342'],'bachelor i sykepleie':['2322', '62', '51', '50'],'medisinstudiet':['2004', '1591'],'medisin':['1986', '55', '54'],'bachelor sykepleie':['1677', '1663', '77'],'medisin, profesjonsstudium':['1603'],'medisin profesjon':['1407'],'sykepleie bachelor':['80'],}"
"queensland university of technology","queensland-university-of-technology","Australia","Brisbane","","0","0","{'industriell økonomi og teknologiledelse':['2341', '2334', '2037', '1958', '1714', '1638'],'medievitenskap (mki)':['2323'],'sosiologi':['2027'],'indøk pup':['1964', '306'],'mttk':['1837'],'mtmt':['1786'],'master ledelse av teknologi':['1501'],'kommunikasjonsteknologi':['1345'],'logistikk':['1296'],'byggingeniør bachelor':['1266'],'produktutvikling og produksjon':['1140'],'materialteknologi 5 årig':['793'],'bioteknologi':['697'],'indøk':['687', '290'],'it-støttet bedriftsutvikling':['685'],'bygg- og miljøteknikk':['611'],}"
"science po strasbourg - institut détudes politiques de strasbourg","science-po-strasbourg---institut-detudes-politiques-de-strasbourg","Frankrike","Strasbourg","","0","0","{'europastudier':['2340'],'europastuder med statsvitenskap':['1779'],}"
"school of engineering,university of florence","school-of-engineeringuniversity-of-florence","Italia","Frienze /Florens","","0","0","{'økonomi og administrasjon':['2337'],}"
"ntust","ntust","Taiwan","Taipei","","0","0","{'bygg- og miljøteknikk':['2328'],'elsys':['1616'],}"
"praksis på et dagsenter for barn med psykisk utviklingshemming","praksis-pa-et-dagsenter-for-barn-med-psykisk-utviklingshemming","Nepal","Kathmandhu","","0","0","{'vernepleie':['2320'],}"
"unsw","unsw","Australia","Sydney","","0","0","{'industriell kjemi og bioteknologi':['2318', '1391'],'bygg- og miljøteknikk':['2284', '2259', '984', '754'],'i&amp;ikt':['2236'],'mtbygg':['2219'],'bygg og miljøteknikk':['2165', '2164'],'mtnano':['2144', '1510', '795'],'kybernetikk og robotikk':['2102', '2089'],'industriell design':['2060', '1080', '198'],'mbiot5':['2038'],'ingeniørvitenskap og ikt':['2036'],'bygg- og miljøteknikk, konstruksjonsteknikk':['2033'],'bifener':['2013'],'økonomi og administrasjon':['2009'],'teknisk fysikk (fysikk og matematikk)':['1889'],'marin teknikk':['1803', '1051', '969', '948', '316', '184', '128', '60'],'datateknologi':['1590', '482'],'energi og miljø':['1535', '575'],'informatikk':['1508'],'nanoteknologi':['1481'],'indøk - maskin':['1474'],'indøk':['1402', '945', '858'],'produktutvikling og produksjon':['1393', '1386', '991', '465'],'mtenerg':['1381'],'fornybar energi ingeniør':['1360'],'mtiøt':['1348', '376'],'lektor i kroppsøving og idrettsfag':['1032'],'lektor i kroppsøving og idrett':['921'],'industriell økonomi og teknologiledelse':['859', '736', '459', '409', '346', '206'],'fysikk og matematikk':['823'],'it støttet bedriftsutvikling':['821'],'mtdt':['772'],'2-årig master i bygg og miljøteknikk':['688'],'tekniske geofag':['599'],'petroleumsfag':['488', '92'],'indøk - data':['405'],'indøk data':['204'],'nt':['145'],'petroleumsteknologi':['95'],'mtpetro':['85'],'mtkj':['71', '70'],}"
"qut","qut","Australia","Brisbane","","0","0","{'indøk':['2315'],'industriell økonomi og teknologiledelse':['2227', '1853'],'kybernetikk og robotikk':['1626', '1625'],'logistikkingeniør':['1277'],}"
"rmit university","rmit-university","Australia","Melbourne","","0","0","{'bygg og miljøteknikk':['2313'],'industriell økonomi og teknologiledelse':['2263', '2224'],'bprog':['1848'],'mtfyma':['1305'],'bachelor i pedagogikk':['710'],}"
"dhulikhel hospital","dhulikhel-hospital","Nepal","Dhulikhel","","0","0","{'medisin':['2312'],}"
"dette var et praksisopphold som lærer på hillcrest secondary school.","dette-var-et-praksisopphold-som-laerer-pa-hillcrest-secondary-school.","Zambia","Livingstone","","0","0","{'lektorutdanning i kroppsøving og idrettsfag - masterstudium':['2306'],}"
"hillcrest secondary school (ungd.sk og vgs)","hillcrest-secondary-school-(ungd.sk-og-vgs)","Zambia","Livingstone","","0","0","{'lektorutdanning i kroppsøving og idrettsfag':['2305'],'lektorutdanningen i kroppsøving og idrettsfag':['2282'],}"
"university of ghana","university-of-ghana","Ghana","Accra","","0","0","{'sykepleie bachelor':['2304'],'bioteknologi':['1975'],'bachelor i engelsk':['1726'],'bachelor, sykepleie':['1635'],'sykepleie':['1619', '1618', '1609'],'sykepleie bachelor heltid':['1610'],'afrikastudier':['360'],}"
"uraccan","uraccan","Nicaragua","Bluefields","","0","0","{'bachelor sykepleie':['2303'],'sykepleie':['2238', '2237'],'sykepleien':['2230'],}"
"praksis ved hillcrest national technical secondary school","praksis-ved-hillcrest-national-technical-secondary-school","Zambia","Livingstone","","0","0","{'lektor i realfag':['2301'],}"
"university of new south wales","university-of-new-south-wales","Australia","Sydney","","0","0","{'bygg- og miljøteknikk. konstruksjon':['2299'],'fysikk og matematikk':['1885'],'lektorutdanning i språkfag (engelsk)':['1749'],'mtbygg':['1699', '1698'],'bygg- og miljøteknikk':['1696'],'energi og miljø':['1536'],'nanoteknologi':['1476', '1269', '1246'],'mtdt':['1450'],'bachelor i programmering':['1427'],'byggingeniør':['1419'],'informatikk':['1396'],'fornybar energi':['1364'],'marin teknikk':['1046'],'lektor i engelsk':['972'],'lektor':['963'],'økonomi og administrasjon':['935', '928', '927'],'industriell økonomi og teknologiledelse':['929', '888', '841', '771', '770', '769', '404', '195'],'mtfyma':['791'],'petroleumsfag':['461', '460'],'mtmt':['222'],'bygg og miljøteknikk':['98'],}"
"nova sbe","nova-sbe","Portugal","Lisboa","","0","0","{'økønomi og administrasjon':['2287'],'økonomi og administrasjon':['2266'],}"
"var ikke på et universitet, men bodde på mødrehjemmet abrigo rainha silvia i itaboraí","var-ikke-pa-et-universitet-men-bodde-pa-modrehjemmet-abrigo-rainha-silvia-i-itaborai","Brazil","Rio de Janeiro","","0","0","{'barnevernspedagog':['2280'],}"
"ingen","ingen","Sør Afrika","Cape Town","","0","0","{'barnevernspedagog':['2279', '1370'],'sosionom':['2248'],'medisin profesjonsstudium':['1965'],'sosionom utdanning':['1358'],'':['1350'],}"
"rheinische friedrich-wilhelms-universität bonn","rheinische-friedrich-wilhelms-universitat-bonn","Tyskland","Bonn","","0","0","{'mathematical sciences':['2278'],}"
"massachusetts institute of technology","massachusetts-institute-of-technology","USA","Cambridge","","0","0","{'fysikk og matematikk':['2274'],'industriell økonomi og teknologiledelse':['2070', '1421', '1316', '871'],'marin teknikk':['1644', '798'],'5-årig sivilingeniør datateknologi':['1500'],'mtkj':['850'],'datateknologi':['834', '178'],}"
"nanyang technological university (ntu)","nanyang-technological-university-(ntu)","Singapore","Singapore","","0","0","{'industriell økonomi og teknologiledelse - emil':['2268'],'industriell økonomi og teknologiledelse':['2232', '874', '576', '545', '309', '226', '107'],'energi og miljø, elkraft':['2211'],'kybernetikk og robotikk':['2204'],'indøk, datateknologi':['2065'],'bioteknologi':['2019'],'nanoteknologi':['1763'],'marin teknikk, 5-årig master':['1713'],'indøk':['1637', '1341', '1300', '395'],'industriell økonomi og teknologiledelse, produktutvikling og produksjon':['1597'],'industriell økonomi og teknologiledelse - datateknologi':['1579'],'fysikk og matematikk':['1468'],'energi og miljø':['1284'],'industriell kjemi og bioteknologi':['1272'],'økonomi og administrasjon':['1258'],'industriell økonomi og teknologiledelse (mtiøt pup)':['1074'],'industriell økonomi og teknologiledelse, data':['936'],'industriell økonomi og teknologiledelse, produksjon og produktutvikling':['873'],'industriell økonomi -og teknologiledelse (indøk)':['252'],'kommunikasjonsteknologi':['224'],}"
"universidad san francisco de quito","universidad-san-francisco-de-quito","Ecuador","Quito","","0","0","{'medisin':['2265', '2264', '1409'],'profesjonsstudiet medisin':['1743'],'politisk økonomi':['1436'],'medisin profesjon':['1408'],'medisinstudiet':['317'],}"
"ntnu","ntnu","Sør Afrika","Cape Town","","0","0","{'sosialt arbeid':['2262', '1347'],'soaialantropologi master':['1310'],}"
"unam","unam","Namibia","Windhoek","","0","0","{'sykepleie bachelor':['2261', '1689', '1682'],'491097':['2188'],'bachelor heltid sykepleie':['1951'],'sykepleie':['1687', '1671', '1669', '1668', '924'],'sykepleier':['1670'],'sykepleien':['1639'],'bachelor i sykepleie':['1429'],'':['895'],'industriell design':['473'],}"
"prosjektstudie med organisasjon","prosjektstudie-med-organisasjon","Zambia","Livingstone","","0","0","{'sosialt arbeid':['2260'],}"
"samarbeid med respons network, en ikke-statlig organisasjon.","samarbeid-med-respons-network-en-ikke-statlig-organisasjon.","Zambia","Livingstone","","0","0","{'sosialt arbeid':['2250'],}"
"mcgill university","mcgill-university","Canada","Montreal","","0","0","{'industriell økonomi og teknologiledelse':['2249'],'samfunnsøkonomi':['829'],}"
"queen mary university of london","queen-mary-university-of-london","Storbritannia","London","","0","0","{'kybernetikk og robotikk':['2247'],'mlhist':['1322'],}"
"uruccan","uruccan","Nicaragua","Bluefields, Nicaragua","","0","0","{'sykepleie, ntnu':['2240'],}"
"prosjektstudie i samarbeid med response network, ikke tilknyttet noe universitet","prosjektstudie-i-samarbeid-med-response-network-ikke-tilknyttet-noe-universitet","Zambia","Livingstone","","0","0","{'sosialt arbeid':['2239'],}"
"university of namibia","university-of-namibia","Namibia","Windhoek","","0","0","{'bachelor sykepleie':['2231'],'sykepleie':['2214', '2195'],'sykepleien':['1686'],}"
"streetlight inc.","streetlight-inc.","Filippinene","Tacloban","","0","0","{'barnevernspedagog':['2225'],}"
"tokyo institute of technology","tokyo-institute-of-technology","Japan","Tokyo","","0","0","{'kybernetikk og robotikk':['2220', '2178', '1587', '964', '286'],'mbiot5':['1990'],'bygg- og miljøteknikk (mtbygg), konstruksjonsteknikk':['1846'],'kommunikasjonsteknologi':['1524'],'bygg- og miljøteknikk, konstruksjonsteknikk':['882'],'mtnano':['870'],}"
"muhas","muhas","Tanzania","Dar es Salaam","","0","0","{'medisin':['2217', '1455', '913'],}"
"hamburg university of technology","hamburg-university-of-technology","Tyskland","Hamburg - Harburg","","0","0","{'marin teknikk':['2216'],}"
"university of birmingham","university-of-birmingham","Storbritannia","Birmingham","","0","0","{'kybernetikk og robotikk':['2209'],'bachelor i pedagogikk':['629'],}"
"university college london","university-college-london","Storbritannia","London","","0","0","{'industriell økonomi og teknologiledelse':['2205', '2175'],'filosofi master':['1253'],'kommunikasjonsteknologi':['561'],'master i engelsk litteratur':['363'],'klassiske fag':['108'],'master i klassiske fag og antikkens kultur':['96'],'mschem':['94'],}"
"soas","soas","Storbritannia","London","","0","0","{'medievitenskap':['2197'],'bachelor i sosialantropologi':['446'],}"
"utfsm","utfsm","Chile","Valparaíso","","0","0","{'kybernetikk og robotikk':['2196'],'bygg- og miljøteknikk':['1785'],}"
"university of ljubljana","university-of-ljubljana","Slovenia","Ljubljana","","0","0","{'medisin':['2186', '2185', '1970', '1678', '1653', '388'],'profesjonsstudiet i medisin':['1971'],'medisin profesjon':['318'],}"
"n/a","n/a","Belgia","Brussel","","0","0","{'sosiologi':['2184'],'natural resource management international masters':['1376'],}"
"university of waterloo","university-of-waterloo","Canada","Waterloo","","0","0","{'kommunikasjonsteknologi':['2173', '831'],'datateknologi':['2107', '1256'],'bevegelsesvitenskap':['1287'],'sosialantropologi':['169'],'fysikk og matematikk':['147'],}"
"universität wien","universitat-wien","Østerrike","Wien","","0","0","{'bachelor i generell filosofi':['2168'],'kybernetikk og robotikk':['1794'],'statsvitenskap- master':['1676'],'master i matematikk (topologi)':['1047'],'arkitektur':['661'],'nanoteknologi':['558'],'biologi':['556'],}"
"university of tasmania","university-of-tasmania","Australia","Launceston","","0","0","{'marin teknikk':['2163', '219'],}"
"kathmandu medical college","kathmandu-medical-college","Nepal","Kathmandu","","0","0","{'bachelor sykepleie heltid':['2153'],'bachelor sykepleie':['2152'],'sykepleie':['2151', '78'],'bachelor sykepleie ntnu':['1736'],'fysioterapi':['1711'],'sykepleieutdanning':['1685'],}"
"kmc","kmc","Nepal","Kathmandu","","0","0","{'sykepleie':['2150'],'fysioterapi':['279'],'sykepleien':['73'],}"
"stellenbosch university","stellenbosch-university","Sør Afrika","Stellenbosch","","0","0","{'statsvitenskap':['2149'],'afrika studier':['1422'],'mtnano':['721'],}"
"burapha university","burapha-university","Thailand","Bang Saen","","0","0","{'sykepleie':['2143', '1622'],}"
"århus universitet","arhus-universitet","Danmark","Århus","","0","0","{'sosialantropologi':['2139'],}"
"columbia university","columbia-university","USA","New York City","","0","0","{'industriell økonomi og teknologiledelse':['2138'],'indøk data':['2092'],'mtiøt':['1311'],'industriell økonomi':['845'],'iøt':['765'],}"
"la sapienza university","la-sapienza-university","Italia","roma","","0","0","{'master i ledelse av teknologi':['2129'],}"
"harvard","harvard","USA","Cambridge","","0","0","{'indøk data':['2126'],'industriell økonomi og teknologiledelse':['819'],}"
"waseda daigaku","waseda-daigaku","Japan","Tokyo","","0","0","{'nanoteknologi':['2118'],'informatikk':['276'],}"
"waseda university","waseda-university","Japan","Tokyo","","0","0","{'mtnano':['2117'],'bachelor i økonomi og administrasjon':['1267'],}"
"universidad de buenos aires (uba), faculdad de ciencias sociales","universidad-de-buenos-aires-(uba)-faculdad-de-ciencias-sociales","Argentina","Buenos Aires","","0","0","{'statsvitenskap - bachelor':['2116'],'logistikkingeniør':['2090'],'medisin profesjonsstudium':['1281'],'lektorutdanning i idrett og spansk':['934'],'medisin':['727'],'indøk':['435'],}"
"griffith university","griffith-university","Australia","Gold Coast","","0","0","{'fornybar energi ingeniør':['2095'],}"
"konkuk university","konkuk-university","Korea","Seoul","","0","0","{'ingeniørvitenskap og ikt':['2086'],'informatikk':['1387'],'økonomi og administrasjon':['299'],}"
"university of california, san diego","university-of-california-san-diego","USA","San Diego","","0","0","{'indøk data':['2084'],'industriell økonomi og teknologiledelse':['2040'],'produktutvikling og produksjon':['1721', '181', '149'],'mtprod - industriell mekanikk':['1550'],'bioteknologi':['1297'],'mtfyma':['925'],'nanoteknologi':['478'],'bygg- og miljøteknikk':['457', '382'],'lektor i språkfag (engelsk)':['431'],'datateknologi':['430'],'mtbygg':['383'],}"
"university of auckland","university-of-auckland","New Zealand","Auckland","","0","0","{'industriell økonomi og teknologiledelse':['2080', '749'],'datateknologi 5 årig':['2043'],'bachelor i sykepleie':['1998', '1982'],'tekniske geofag':['1996'],'datateknologi':['1985', '188', '183'],'indøk':['1984'],'lektor i samfunnsfag, med engelsk':['1947'],'kybernetikk og robotikk':['1734'],'mtfyma':['1584'],'ledelse av teknologi (2-årig masterprogram)':['1464'],'dataingeniør':['1440'],'arkitektur og design':['1382'],'energi og miljø':['1335', '951', '510'],'produktutvikling og produksjon masterstudium (2-årig)':['1152'],'sykepleie':['1033', '1022', '1015', '1014', '384'],'sykepleien':['1023'],'bygg og miljøteknikk':['1021', '529'],'sosialt arbeid':['706'],'fysikk og matematikk (industriell matematikk)':['701'],'produktutvikling og produksjon':['681', '217'],'informatikk':['676'],'bygg- og miljøteknikk':['530'],'mtdt':['263'],'bbi':['238'],'produktutvikling og produksjon, 5-årig master':['200'],}"
"university of newcastle","university-of-newcastle","Australia","Newcastle","","0","0","{'materialteknologi, 5-årig':['2077'],'produktutvikling og produksjon':['1453'],'materialteknologi, bachelor':['1314'],}"
"institut za bolesti djece (barneavd sykehuset)","institut-za-bolesti-djece-(barneavd-sykehuset)","Montenegro","Podgorica","","0","0","{'':['2074'],}"
"the hong kong polytechnic university (polyu)","the-hong-kong-polytechnic-university-(polyu)","Kina","Hongkong","","0","0","{'ingeniørvitenskap og ikt, geomatikk':['2063'],}"
"university of leeds","university-of-leeds","Storbritannia","Leeds","","0","0","{'industriell økonomi og teknologiledelse':['2061'],}"
"vysoké učení technické v brně","vysoke-uceni-technicke-v-brne","Tsjekkia","Brno","","0","0","{'informatikk':['2059'],}"
"hebrew university rehovot","hebrew-university-rehovot","Israel","Rehovot","","0","0","{'biomarin innovasjon':['2056'],}"
"the university of manchester","the-university-of-manchester","Storbritannia","Manchester","","0","0","{'industriell økonomi og teknologiledelse':['2051'],'industriell matematikk':['836'],}"
"university of stellenbosch","university-of-stellenbosch","Sør Afrika","Stellenbosch","","0","0","{'industriell kjemi og bioteknologi':['2050'],}"
"university of chichester","university-of-chichester","Storbritannia","Chichester","","0","0","{'lektorutdanning i kroppsøving og idrettsfag':['2049'],'bevegelsesvitenskap':['1997', '1989', '1592', '732'],'bachelor i bevegelsesvitenskap':['1566'],}"
"osaka prefecture university","osaka-prefecture-university","Japan","Osaka","","0","0","{'indstriell kjemi og bioteknologi - kjemisk prosessteknologi':['2048'],'industriell kjemi og bioteknologi - masterstudie':['2047'],'mtdt':['1907', '1852'],'master i databaser og søk':['116'],}"
"universita degli studi di salerno","universita-degli-studi-di-salerno","Italia","Salerno","","0","0","{'nanoteknologi':['2044'],'teknisk fysikk':['1705'],}"
"aberdeen university","aberdeen-university","Storbritannia","Aberdeen","","0","0","{'master- statsvitenskap':['2042'],}"
"université libre de bruxelles (ulb) og vrije universiteit brussel","universite-libre-de-bruxelles-(ulb)-og-vrije-universiteit-brussel","Belgia","Brussel","","0","0","{'bygg- og miljøteknikk':['2039'],}"
"katholieke hogeschool vives kortrijk","katholieke-hogeschool-vives-kortrijk","Belgia","Kortrijk","","0","0","{'bachelor sykepleie, heltid':['2031'],}"
"university of wollongong","university-of-wollongong","Australia","Wollongong","","0","0","{'dataingeniør':['2030', '1520'],'byggingeniør':['2022'],'programmering [spill | app]':['1922'],'bioteknologi':['1532'],'industriell økonomi og teknologiledelse':['868'],'bachelor i biologi':['691'],}"
"iae aix-marseille","iae-aix-marseille","Frankrike","Aix-en-Provence","","0","0","{'master i økonomi og administrasjon':['2028'],'master i økonomi og administrasjon (strategi, organisasjon og ledelse)':['1404'],}"
"university of madison-wisconsin","university-of-madison-wisconsin","USA","Madison, Wisconsin","","0","0","{'mttk':['2023'],}"
"royal melbourne institute of technology university","royal-melbourne-institute-of-technology-university","Australia","Melbourne","","0","0","{'dataingeniør':['2020'],'bygg og miljøteknikk':['1233'],}"
"postech","postech","Korea","Pohang","","0","0","{'nanoteknologi':['2017'],'elektro ingeniør':['1493'],'kybernetikk og robotikk':['93'],}"
"utrecht university","utrecht-university","Nederland","Utrecht","","0","0","{'lektor geografi':['2012'],}"
"universitas gadjah mada","universitas-gadjah-mada","Indonesia","Yogyakarta","","0","0","{'master i entreprenørskap, innovasjon og samfunn':['2011'],}"
"university of cambridge","university-of-cambridge","Storbritannia","Cambridge","","0","0","{'mbiot5':['2003'],}"
"esdes","esdes","Frankrike","Lyon","","0","0","{'bachelor i markedsforing, innovasjon og ledelse':['2002'],'økonomi og administrasjon':['1761', '517'],}"
"université de liège","universite-de-liege","Belgia","Liège","","0","0","{'lektor fransk':['2001'],}"
"united nations environment programme (unep) regional office in west asia (rowa)","united-nations-environment-programme-(unep)-regional-office-in-west-asia-(rowa)","Bahrain","Manama","","0","0","{'globalization and sustainable development':['2000'],}"
"ucb","ucb","USA","Berkeley","","0","0","{'kybernetikk og robotikk':['1995'],}"
"ara institue of canterbury","ara-institue-of-canterbury","New Zealand","Christchurch","","0","0","{'bachelor sykepleie':['1994'],'bygg- og miljøteknikk':['643', '117'],}"
"university of iceland","university-of-iceland","Island","Reykjavik","","0","0","{'ingeniørvitenskap og ikt':['1992'],'master i nordisk språk':['1229'],'film- &amp; videoproduksjon':['1055'],'msc environmental chemistry':['803'],'geografi bachelor':['657'],}"
"aston university","aston-university","Storbritannia","Birmingham","","0","0","{'master of philosophy in english linguistics and language acquisition':['1988'],}"
"california state university los angeles","california-state-university-los-angeles","USA","Los Angeles","","0","0","{'økonomi, ledelse og bærekraft':['1983'],'film- og videoproduksjon':['1818'],}"
"aix-marseille (iae)","aix-marseille-(iae)","Frankrike","Aix en Provence","","0","0","{'ledelse av teknologi':['1981'],}"
"calstatela","calstatela","USA","LA","","0","0","{'økonomi, ledelse og bærekraft':['1980'],}"
"-","-","Kenya","Kisumu og Asembo","","0","0","{'sykepleie':['1969'],}"
"kanyakoo self help initiative","kanyakoo-self-help-initiative","Kenya","Kisumu","","0","0","{'bachelor i sykepleie':['1968', '1352'],}"
"kwansei gakuin (daigaku) university","kwansei-gakuin-(daigaku)-university","Japan","Osaka","","0","0","{'musikkteknologi':['1959'],}"
"curtin university","curtin-university","Australia","Perth","","0","0","{'mtpetr':['1954'],'2-årig master i petroleumsfag':['1949'],'mtpetr - petroleumsfag - boring':['1931'],'elektroingeniør':['1433'],}"
"university of california, santa barbara","university-of-california-santa-barbara","USA","Santa Barbara CA","","0","0","{'informatikk':['1953'],'kommunikasjonsteknologi':['1839'],'ingeniørvitenskap og ikt':['1735'],'energi og miljø sivilingeniør':['1606'],'masterprogram i bioteknologi':['584'],'mtprod':['563'],'datateknologi':['528', '526'],'teknisk kybernetikk':['221'],}"
"universidad politécnica de madrid - upm","universidad-politecnica-de-madrid---upm","Spania","Madrid","","0","0","{'datateknologi':['1952', '861'],'elektronisk systemdesign og innovasjon':['1518'],'marin teknikk':['1154', '896'],}"
"delft university of technology","delft-university-of-technology","Nederland","Delft","","0","0","{'datateknologi':['1945'],'arkitektur, 5-årig master':['1882'],'teknisk kybernetikk 5-årig':['992'],'energi og miljø':['509'],'industriell design':['228'],}"
"kwansei gakuin university","kwansei-gakuin-university","Japan","Nishinomiya","","0","0","{'film- og videoproduksjon':['1941'],'bachelor i geografi':['1383'],'sosial antropologi':['400'],}"
"universität leipzig","universitat-leipzig","Tyskland","Leipzig","","0","0","{'lektor, master tysk':['1940'],'lektorutdanning i idrett og kroppsøving':['1937'],'lektor i samfunnsfag':['1892'],'lektorutdanning i kroppsøving og idrettsfag':['1231'],'tysk - master':['1169'],'psykologi bachelor':['449'],'psykologi, bachelor':['427'],'nordisk/ tysk':['48'],}"
"federal university of santa catarina (ufsc)","federal-university-of-santa-catarina-(ufsc)","Brazil","Florianópolis","","0","0","{'kybernetikk':['1918'],}"
"macquarie university","macquarie-university","Australia","Sydney","","0","0","{'lektor samfunnsfag':['1910'],}"
"tu kaiserslautern","tu-kaiserslautern","Tyskland","Kaiserslautern","","0","0","{'kybernetikk og robotikk':['1898'],}"
"leiden university","leiden-university","Nederland","Leiden","","0","0","{'arkeologi':['1866'],'profesjonsstudiet i psykologi':['1679'],}"
"tuhh","tuhh","Tyskland","Hamburg","","0","0","{'ingeniørvitenskap og ikt':['1858'],'marin teknikk':['1194', '420'],}"
"impedit voluptates","impedit-voluptates","Belgia","Error accusantium of","","0","0","{'qui qui perferendis':['1857'],}"
"vero obcaecati sed o","vero-obcaecati-sed-o","Malta","Provident ab tempor","","0","0","{'nesciunt aut in dol':['1856'],}"
"ad labore consequatu","ad-labore-consequatu","Peru","Quis aperiam volupta","","0","0","{'aliqua alias quo ve':['1855'],}"
"consequat corporis","consequat-corporis","Albania","Voluptate irure sed","","0","0","{'incidunt excepteur':['1854'],}"
"prosjekt arbeid med city mission (ikke universitet)","prosjekt-arbeid-med-city-mission-(ikke-universitet)","Sør Afrika","Cape Town","","0","0","{'bachelor i sosialt arbeid':['1850'],}"
"univesitat rovira i virgili","univesitat-rovira-i-virgili","Spania","Tortosa","","0","0","{'sykepleie':['1844', '602'],'bachelor i sykepleie':['1834'],}"
"universidad rovira i virgili - campus terres de l’ebre (urv-cte)","universidad-rovira-i-virgili---campus-terres-de-l'ebre-(urv-cte)","Spania","Tortosa","","0","0","{'sykepleie bachelor':['1842'],'sykepleie':['603'],}"
"karolinska institutet","karolinska-institutet","Sverige","Stockholm","","0","0","{'medisin':['1841', '1431', '988'],}"
"oporto polytechnic institute","oporto-polytechnic-institute","Portugal","Porto","","0","0","{'politisk økonomi':['1829'],}"
"rovira i virgili university","rovira-i-virgili-university","Spania","Tortosa","","0","0","{'sykepleie':['1828'],}"
"federico santa maria technical university","federico-santa-maria-technical-university","Chile","Valparaiso","","0","0","{'bygg- og miljøteknikk masterprogram':['1826'],}"
"technische universiteit delft","technische-universiteit-delft","Nederland","Delft","","0","0","{'mtfyma':['1819'],'kybernetikk og robotikk':['1214'],'petroleumsfag':['527'],}"
"kunstakademie münster, leonardo campus.","kunstakademie-munster-leonardo-campus.","Tyskland","Münster","","0","0","{'bachelorutdanning i billedkunst':['1816', '1815'],}"
"the university of bologna","the-university-of-bologna","Italia","bologna","","0","0","{'bygg- og miljøteknikk':['1811'],}"
"université nice sophia antipolis","universite-nice-sophia-antipolis","Frankrike","Nice","","0","0","{'mtfyma':['1810'],'bevegelsesvitenskap':['438'],}"
"université de montpellier ii - faculté des sciences","universite-de-montpellier-ii---faculte-des-sciences","Frankrike","Montpellier","","0","0","{'fysikk og matematikk - industriell matematikk':['1806', '490', '213'],'mtkj':['1218'],'medisin':['1007'],}"
"universidad de cantabria","universidad-de-cantabria","Spania","Santander","","0","0","{'marin teknikk':['1800'],'mtnano':['212'],'tekniske geofag':['167'],}"
"university of sunshine coast","university-of-sunshine-coast","Australia","sunshine coast","","0","0","{'biologi':['1797'],'bioteknologi':['999'],}"
"hochschule für wirtschaft und recht","hochschule-fur-wirtschaft-und-recht","Tyskland","Berlin","","0","0","{'økonomi og administrasjon':['1787', '1135', '81'],'':['512'],}"
"tu münchen","tu-munchen","Tyskland","München","","0","0","{'bachelor i fysikk':['1782'],'indøk data':['593'],'industriell økonomi og teknologiledelse':['113'],}"
"université de lille","universite-de-lille","Frankrike","Lille","","0","0","{'matteknologi':['1778', '1057'],}"
"norge","norge","Zambia","Trondheim","","0","0","{'internasjonalt samarbeid perspektiv på læreryrket (1-10) lgu14016 lgu54017 (2019 vår)':['1764'],}"
"université toulouse - jean jaurès","universite-toulouse---jean-jaures","Frankrike","Toulouse","","0","0","{'profesjonsstudiet psykologi':['1759'],'profesjonsstudiet i psykologi':['1075'],'lektorutdanning':['875'],'psykologi':['638'],}"
"universitetet i groningen","universitetet-i-groningen","Nederland","Groningen","","0","0","{'profesjonsstudiet i psykologi':['1752', '1683', '1574', '1573', '1134', '1118'],'bevegelsesvitenskap':['1563'],'msbio':['940'],'bachelor pedagogikk':['49'],}"
"university of the sunshine coast (usc)","university-of-the-sunshine-coast-(usc)","Australia","Mooloolaba","","0","0","{'bachelor i biologi':['1739'],}"
"universita di trento","universita-di-trento","Italia","Trento","","0","0","{'europastudier':['1733'],'europastudier med statsvitenskap':['1712'],'bygg og miljøteknikk':['1176'],}"
"universidad politecnica de cartagena","universidad-politecnica-de-cartagena","Spania","Cartagena","","0","0","{'industriell økonomi og teknologiledelse':['1732'],'marin teknikk':['377'],}"
"university of the sunshine coast","university-of-the-sunshine-coast","Australia","Sunshine Coast","","0","0","{'bachelor biologi':['1728'],'biologi bachelor':['1702'],'afrikastudier':['531'],}"
"david livingstone college of education","david-livingstone-college-of-education","Zambia","Livingstone","","0","0","{'grunnskolelærerutdanning 5-10 med norsk':['1719'],}"
"université de strasbourg","universite-de-strasbourg","Frankrike","Strasbourg","","0","0","{'europastudier med statsvitenskap':['1718'],'europastudier':['538'],}"
"universidad de buenos aires - filosofia y letras","universidad-de-buenos-aires---filosofia-y-letras","Argentina","Buenos Aires","","0","0","{'bachelor i spansk':['1710'],}"
"universidad tecnica frederico santa maria","universidad-tecnica-frederico-santa-maria","Chile","Valparaíso","","0","0","{'energi og miljø':['1709'],'indøk (industriell økonomi og teknologiledelse)':['1545'],'datateknologi':['525'],'mtdt / datateknikk':['472'],'ingeniørvitenskap og ikt':['437'],}"
"colorado school of mines","colorado-school-of-mines","USA","Golden","","0","0","{'petroleumsfag, boreteknologi':['1708'],}"
"upct","upct","Spania","Cartagena","","0","0","{'marin teknikk':['1692'],}"
"upm - etsi navales","upm---etsi-navales","Spania","Madrid","","0","0","{'marin teknikk':['1690'],}"
"bauhaus-universität weimar","bauhaus-universitat-weimar","Tyskland","Weimar","","0","0","{'arkitektur':['1684', '515'],}"
"ikke universitet","ikke-universitet","Peru","Monsefú","","0","0","{'barnevernspedagogikk':['1680'],'bachelor i barnevern':['1327'],}"
"cardiff university","cardiff-university","Storbritannia","Cardiff","","0","0","{'europastudier m/ statsvitenskap':['1667'],'statsvitenskap':['275'],}"
"universidade de são paulo","universidade-de-sao-paulo","Brazil","São Paulo","","0","0","{'materialteknologi 5år, mtmt':['1662'],}"
"christian medical college vellore","christian-medical-college-vellore","India","Vellore","","0","0","{'medisin':['1661'],'profesjonsstudiet i medisin':['1598'],'medisin profesjonsstudium':['386'],}"
"livingstone college of nursing and midwifery","livingstone-college-of-nursing-and-midwifery","Zambia","Livingstone","","0","0","{'ergoterapiutdanningen':['1655'],}"
"university of cape coast","university-of-cape-coast","Ghana","Cape Coast","","0","0","{'lektorutdanning i historie (mlhist)':['1654'],}"
"sciences po toulouse","sciences-po-toulouse","Frankrike","Toulouse","","0","0","{'bachelor i statsvitenskap':['1652'],'lektorutdanning i samfunnsfag':['1392'],}"
"helsingfors universitet","helsingfors-universitet","Finland","Helsingfors","","0","0","{'allmenn litteraturvitskap':['1649'],}"
"universidad de valencia","universidad-de-valencia","Spania","VALENCIA","","0","0","{'mbiot5':['1648'],'psykologi, profesjon':['1371'],'psykologi bachelor':['303'],}"
"rmit","rmit","Australia","MELBOURNE","","0","0","{'fysikk og matematikk':['1643', '1460'],'bioteknologi':['1482'],'tekniske geofag':['1478'],'industriell design':['1444', '775'],'matematikk og fysikk':['1443'],'bygg- og miljøteknikk':['982'],'kybernetikk og robotikk':['668'],'energi og miljø':['598', '597'],'datateknikk':['121'],'datateknologi':['119'],}"
"universidade de coimbra","universidade-de-coimbra","Portugal","Coimbra","","0","0","{'arkitektur':['1642'],}"
"upc (campus eebe)","upc-(campus-eebe)","Spania","Barcelona","","0","0","{'maskin':['1636'],}"
"university of firenze","university-of-firenze","Italia","Firenze","","0","0","{'arkitektur':['1634'],}"
"memorial university of newfoundland","memorial-university-of-newfoundland","Canada","St. John's","","0","0","{'sosiologi':['1627'],}"
"the concerned for working children","the-concerned-for-working-children","India","Bangalore","","0","0","{'barnevernspedagog, bachelor':['1607'],}"
"university of western australia","university-of-western-australia","Australia","Perth","","0","0","{'marin teknikk':['1602'],'bygg- og miljøteknikk':['1279'],'fysikk og matematikk':['743'],'bachelor i psykologi':['301'],'energi og miljø':['65'],}"
"york university","york-university","Canada","Toronto","","0","0","{'grunnskolelærerutdanning 5-10 med vekt på realfag':['1600'],'grunnskolelærer 5-10 med matematikk':['1586'],'':['1580'],'lærerstudiet':['1292'],'datateknologi':['1290'],}"
"universidade do algarve","universidade-do-algarve","Portugal","Faro","","0","0","{'bachelor i radiografi':['1594'],'radiografi':['860', '847'],}"
"university of maryland","university-of-maryland","USA","Washington DC","","0","0","{'mtdt':['1589'],'mttk':['1068'],}"
"tu dresden","tu-dresden","Tyskland","Dresden","","0","0","{'fornybar energi':['1585'],'vann og miljøteknikk':['1372'],}"
"pontificia universidad católica de perú","pontificia-universidad-catolica-de-peru","Peru","Lima","","0","0","{'nanoteknologi':['1575'],'lektorutdanning i geografi':['1268'],}"
"upc eebe","upc-eebe","Spania","Barcelona","","0","0","{'maskiningeniør':['1572'],}"
"university of sydney","university-of-sydney","Australia","Sydney","","0","0","{'master in interaction design':['1571'],}"
"abrigo rainha silvia","abrigo-rainha-silvia","Brazil","Itaborai","","0","0","{'barnevernspedagog':['1570'],'barnevernspedagogikk':['1567'],}"
"sunshine educare","sunshine-educare","Sør Afrika","Cape Town","","0","0","{'barnevernspedagogikk':['1569'],}"
"ufrj","ufrj","Brazil","Rio de Janeiro","","0","0","{'mtnano':['1564'],'marin teknikk':['1519', '759', '164'],'marin teknikk - marin kybernetikk':['716'],}"
"univeristetet i valencia","univeristetet-i-valencia","Spania","Valencia","","0","0","{'psykologi - bachelor':['1557'],'økonomi og administrasjon':['1066'],}"
"institut détudes politiques de lyon","institut-detudes-politiques-de-lyon","Frankrike","Lyon","","0","0","{'statsvitenskap':['1533'],}"
"université claude bernard lyon 1","universite-claude-bernard-lyon-1","Frankrike","Lyon","","0","0","{'bygg- og miljøteknikk':['1529'],'bioingeniør':['998'],}"
"michigan technological university","michigan-technological-university","USA","Houghton","","0","0","{'industriell økonomi og teknologiledelse':['1526'],'produktutvikling og produksjon':['1522'],'mtprod':['189'],}"
"prosjektperiode","prosjektperiode","Filippinene","Tacloban","","0","0","{'barnevernspedagog':['1514'],}"
"indian institute of technology madras","indian-institute-of-technology-madras","India","Chennai","","0","0","{'industriell kjemi og bioteknologi':['1509'],}"
"universitetet i bologna","universitetet-i-bologna","Italia","Forli","","0","0","{'økonomi og administrasjon':['1505'],'energi og miljø':['1362'],'bygg- og miljøteknikk':['1158'],'industriell økonomi og teknologiledelse':['604'],}"
"university of colorado boulder","university-of-colorado-boulder","USA","Boulder","","0","0","{'mtfyma':['1497'],'produktutvikling og produksjon':['297'],}"
"university of helsinki","university-of-helsinki","Finland","Helsinki","","0","0","{'lektorutdanning i geografi':['1469'],}"
"universidade federal de santa catarina","universidade-federal-de-santa-catarina","Brazil","Florianópolis","","0","0","{'kybernetikk og robotikk':['1467'],'vann- og miljøteknikk':['90'],}"
"the hong kong polytechnic university","the-hong-kong-polytechnic-university","Kina","HongKong","","0","0","{'mting':['1463'],'industriell økonomi og teknologiledelse':['1385'],}"
"uq","uq","Australia","Brisbane","","0","0","{'arkitektur':['1462'],'indoek':['1448'],}"
"università degli studi di milano - bicocca","universita-degli-studi-di-milano---bicocca","Italia","Milano","","0","0","{'mschem':['1451'],}"
"otago university","otago-university","New Zealand","Dunedin","","0","0","{'lektor i geografi':['1449'],}"
"newcastle university","newcastle-university","Storbritannia","Newcastle upon Tyne","","0","0","{'engelsk (bachelor)':['1445'],'mlspråk':['1388'],'lektor samfunnsfag (master i statsvitenskap)':['1298'],'lektor i engelsk':['1251'],'sosialantropologi, bachelor':['625'],}"
"the university of hong kong","the-university-of-hong-kong","Kina","Hong Kong","","0","0","{'indøk-emil':['1426'],'industriell økonomi og teknologiledelse':['355', '266'],}"
"university of split","university-of-split","Kroatia","Split","","0","0","{'sykepleie':['1424', '740', '739', '129'],'bachelor i sykepleie':['1417', '1414'],'sykepleie bachelor':['1416', '738', '729'],'praksis i medisinsk fagområde':['123'],}"
"university of nottingham ningbo china","university-of-nottingham-ningbo-china","Kina","Ningbo","","0","0","{'master i statsvitskap':['1420'],'økonomi og administrasjon':['918', '904'],'statsvitenskap':['800', '774'],}"
"ikke relevant","ikke-relevant","Laos","Savannakhet","","0","0","{'barnevernspedagog, bachelor':['1410'],'barnevern':['1357'],}"
"iae aix-marseille université","iae-aix-marseille-universite","Frankrike","Aix-en-provence","","0","0","{'master i økonomi og administrasjon - hovedprofil økonomistyring':['1403'],'siviløkonom handelshøyskolen i trondheim':['492'],}"
"politechinka warszawska","politechinka-warszawska","Polen","Warszawa","","0","0","{'kybernetikk og robotikk':['1401'],'elektroingeniør':['1351'],}"
"aix-marseille graduate school of management - iae","aix-marseille-graduate-school-of-management---iae","Frankrike","Aix-en-Provence","","0","0","{'økonomistyring':['1400'],'ledelse av teknologi':['1399'],}"
"ewha womans university","ewha-womans-university","Korea","Seoul","","0","0","{'engelsk bachelor':['1384'],}"
"university of cape town (uct)","university-of-cape-town-(uct)","Sør Afrika","George og Cape Town","","0","0","{'profesjonsstudiet i medisin':['1379'],'energi og miljø':['1321'],'medisin':['1242'],}"
"university of calgary","university-of-calgary","Canada","Calgary","","0","0","{'markedsføring og ledelse,':['1374'],'bevegelsesvitenskap bachelor':['1280'],'femårig master i samfunnsøkonomi':['1273'],'energi og miljø':['1263'],'bgeol':['508'],}"
"ikke universitet, barnehjem gentle hands inc","ikke-universitet-barnehjem-gentle-hands-inc","Filippinene","Manila","","0","0","{'barnevernspedagog bachelor':['1369'],}"
"praksis","praksis","Asia","Manila","","0","0","{'barnevern':['1368'],}"
"ucl","ucl","Storbritannia","London","","0","0","{'profesjonsstudiet i psykologi':['1361'],'mastergrad i pedagogikk':['322'],}"
"nus","nus","Singapore","Singapore","","0","0","{'marin teknikk':['1359', '1244', '825'],'bygg- og miljøteknikk':['764'],'nanoteknologi':['666'],'indøk':['324'],}"
"the university of edinburgh","the-university-of-edinburgh","Storbritannia","Edinburgh","","0","0","{'fysikk og matematikk, teknisk fysikk':['1355'],'fysikk og matematikk':['1211'],'industriell økonomi og teknologiledelse':['345'],'mtfyma':['260'],'bachelor i engelsk':['162'],}"
"det var ikke universitet, vi hospiterte hos en frivillig organisasjon","det-var-ikke-universitet-vi-hospiterte-hos-en-frivillig-organisasjon","Sør Afrika","Cape Town","","0","0","{'bachelor i sosialt arbeid':['1354'],}"
"butterfly house community resource centre","butterfly-house-community-resource-centre","Sør Afrika","Paarl","","0","0","{'bachelor i barnevern':['1338'],'barnevernspedagog':['1308'],'bachelor i barnevern (barnevernspedagog)':['1304'],}"
"butterfly house i paarl","butterfly-house-i-paarl","Sør Afrika","Paarl","","0","0","{'barnevernspedagog':['1329'],}"
"universitetet i lusaka","universitetet-i-lusaka","Zambia","Livingstone","","0","0","{'sosialt arbeid':['1324'],}"
"ikke knyttet til universitet","ikke-knyttet-til-universitet","Jamaica","Montego Bay","","0","0","{'barnevern, bachelor':['1319'],}"
"chancellor college: university of malawi","chancellor-college:-university-of-malawi","Malawi","Zomba and Blantyre","","0","0","{'mphil development studies - specializing in geography':['1315'],}"
"goldsmith university","goldsmith-university","Storbritannia","London","","0","0","{'mlhist':['1312'],'bachelor i medievitenskap':['632'],}"
"tsinghua university","tsinghua-university","Kina","Bejing","","0","0","{'kybernetikk':['1309'],'produktutvikling og produksjon siv-ing':['735'],}"
"ikke ved universitet","ikke-ved-universitet","India","Palolem","","0","0","{'master sosialantropologi':['1307'],}"
"college of medicine","college-of-medicine","Malawi","Blantyre","","0","0","{'medisin':['1303', '367'],'medisin profesjon':['1264'],'medisinstudiet':['365'],}"
"kyoto university","kyoto-university","Japan","Kyoto","","0","0","{'datateknikk, master':['1295'],'molecular medicine':['848'],'international master programme':['724'],'master i informatikk - spill, design og teknologilære':['302'],'mtkj':['191'],}"
"the university of arusha","the-university-of-arusha","Tanzania","Arusha, Karatu, Ngorongoro Conservation Area, Serengeti National Park","","0","0","{'natural resources management, geography':['1294'],}"
"vi var på prosjektreise ikke utveksling","vi-var-pa-prosjektreise-ikke-utveksling","Jamaica","Montego bay","","0","0","{'barnevernspedagog':['1286'],}"
"ingen.","ingen.","Brazil","Itaborai","","0","0","{'bachelor i barnevern':['1285'],}"
"texas","texas","USA","LUBBOCK","","0","0","{'geologi':['1270'],}"
"university of north dakota","university-of-north-dakota","USA","Grand Forks","","0","0","{'medisin':['1265', '747'],}"
"university college lillebælt","university-college-lillebaelt","Danmark","Odense","","0","0","{'ergoterapi':['1259'],}"
"kwantlen polytechnic university","kwantlen-polytechnic-university","Canada","Vancouver","","0","0","{'industriell design, 5årig master':['1257'],}"
"chatham university","chatham-university","USA","Pittsburgh","","0","0","{'urban ecological planning':['1240'],'urban ecological planning (m. sc.)':['1220'],}"
"den statlige danske scenekunstskole","den-statlige-danske-scenekunstskole","Danmark","København","","0","0","{'musikkteknologi, bachelor':['1223'],}"
"institut polytechnique de grenoble","institut-polytechnique-de-grenoble","Frankrike","Grenoble","","0","0","{'energi og miljø':['1222'],}"
"uw-madison","uw-madison","USA","Madison","","0","0","{'energi og miljø':['1209'],}"
"technical university of munich","technical-university-of-munich","Tyskland","Munich","","0","0","{'industriell økonomi og teknologiledelse':['1208'],'industriell kjemi og bioteknologi':['415'],}"
"universitetet i heidelberg","universitetet-i-heidelberg","Tyskland","Heidelberg","","0","0","{'fysikk':['1206'],}"
"upm, etsii","upm-etsii","Spania","Madrid","","0","0","{'produktutvikling og produksjon':['1204'],'mtiøt':['414'],'indøk-emil':['130'],}"
"universidad nacional autónoma de méxico","universidad-nacional-autonoma-de-mexico","Mexico","Mexico by","","0","0","{'lektorutdanning i samfunnsfag for trinn 8-13':['1203'],}"
"elisava","elisava","Spania","Barcelona","","0","0","{'industriell design':['1200'],}"
"universidade autonoma de lisboa","universidade-autonoma-de-lisboa","Portugal","Lisbon","","0","0","{'arkitektur':['1199', '626'],}"
"albert-  ludwig university of freiburg","albert---ludwig-university-of-freiburg","Tyskland","freiburg im breisgau","","0","0","{'samfunnsøkonomi (5 årig, master)':['1191'],}"
"hcu + tum","hcu-+-tum","Tyskland","Hamburg + München","","0","0","{'arkitektur':['1171'],}"
"hochschule bonn-rhein-sieg","hochschule-bonn-rhein-sieg","Tyskland","Bonn","","0","0","{'bioingeniør':['1168', '1062'],}"
"ucla","ucla","USA","Los Angeles","","0","0","{'statsvitenskap':['1162'],}"
"van hall larenstein","van-hall-larenstein","Nederland","leeuwarden","","0","0","{'tmat201p':['1146'],'bachelor i matteknologi':['1138'],}"
"julius-maximilians-universität (jmu)","julius-maximilians-universitat-(jmu)","Tyskland","Würzburg","","0","0","{'profesjonsstudie psykologi':['1144'],'profesjonsstudiet i psykologi':['640'],}"
"university of porto","university-of-porto","Portugal","Porto","","0","0","{'mtkj':['1131'],}"
"universitet i cádiz","universitet-i-cadiz","Spania","Cádiz","","0","0","{'industriell kjemi og bioteknologi':['1113'],'lektorutdanning i språkfag':['1088'],'lektorutdanning i språk og litteratur':['955'],'lektor geografi':['362'],}"
"ecole nationale supérieure darchitecture de paris-belleville","ecole-nationale-superieure-darchitecture-de-paris-belleville","Frankrike","Paris","","0","0","{'arkitektur':['1105'],}"
"uk","uk","Storbritannia","portsmouth","","0","0","{'europastudier':['1099'],}"
"ambassaden i haag","ambassaden-i-haag","Nederland","Haag","","0","0","{'europastudier, master':['1090'],}"
"esitc caen","esitc-caen","Frankrike","Caen","","0","0","{'bygg- og miljøteknikk':['1086', '1085'],}"
"università degli studi di genova","universita-degli-studi-di-genova","Italia","Genoa","","0","0","{'kybernetikk og robotikk':['1070'],}"
"université paris 1 panthéon-sorbonne","universite-paris-1-pantheon-sorbonne","Frankrike","Paris","","0","0","{'5-årig integrert master i samfunnsøkonomi':['1061'],'':['560'],'samfunnsøkonomi (msøk5)':['348'],}"
"haskoli islands","haskoli-islands","Island","Reykjavik","","0","0","{'litteraturvitenskap, master':['1048'],'':['714'],}"
"grenoble institute of technology","grenoble-institute-of-technology","Frankrike","Grenoble","","0","0","{'kybernetikk &amp; robotikk':['1041'],}"
"georg-august-universität göttingen","georg-august-universitat-gottingen","Tyskland","Göttingen","","0","0","{'master i nordisk litteratur':['1024'],}"
"le mans université (tidligere université du maine)","le-mans-universite-(tidligere-universite-du-maine)","Frankrike","Le Mans","","0","0","{'elektronisk systemdesign og innovasjon':['1011'],}"
"universty of minnesota","universty-of-minnesota","USA","Minnesota","","0","0","{'energi og miljø':['1000'],}"
"universitetet i lille, lille 1(uit-a, universitaire de lille institut technologie)","universitetet-i-lille-lille-1(uit-a-universitaire-de-lille-institut-technologie)","Frankrike","Lille","","0","0","{'matteknologi':['983'],}"
"university of minnesota","university-of-minnesota","USA","Minneapolis","","0","0","{'energi og miljø - elkraft':['981', '919'],'elkraft - energi og miljø':['838'],'bachelor engelsk':['713'],'mtenerg':['569'],'energi og miljø':['294'],'fysikk og matematikk, siving.':['215'],}"
"universiteit utrecht","universiteit-utrecht","Nederland","Amersfoort og Utrecht","","0","0","{'lektorutdanning i realfag':['976'],'ppu':['975'],}"
"etsam","etsam","Spania","Madrid","","0","0","{'arkitektur':['971'],}"
"université de pau et des pays de ladour","universite-de-pau-et-des-pays-de-ladour","Frankrike","Pau","","0","0","{'petroleumsfag':['966'],}"
"university of melbourne","university-of-melbourne","Australia","Melbourne","","0","0","{'kybernetikk og robotikk':['961'],}"
"christ university","christ-university","India","Bangalore","","0","0","{'sosialt arbeid':['950', '949', '920'],}"
"england","england","Storbritannia","York","","0","0","{'lektor språk':['912'],}"
"stockholms universitet","stockholms-universitet","Sverige","Stockholm","","0","0","{'sosialantropologi':['909'],'master i arbeids- og organisasjonspsykologi':['905'],}"
"aalborg universitet","aalborg-universitet","Danmark","Aalborg","","0","0","{'mlreal':['908'],'psykologi':['840'],'psykologi bachelor':['350'],}"
"ctu in prague","ctu-in-prague","Tsjekkia","Praha","","0","0","{'mt-bygg':['903'],'bygg og miljøteknikk siv.ing':['501'],}"
"österreich","osterreich","Østerrike","Innsbruck","","0","0","{'medisin profesjonsstudium':['899'],}"
"sungkyunkwan university/skkku","sungkyunkwan-university/skkku","Korea","Seoul","","0","0","{'samfunnsøkonomi':['897'],}"
"edinburgh napier university","edinburgh-napier-university","Storbritannia","Edinburgh","","0","0","{'mtkj':['893'],}"
"uc san diego","uc-san-diego","USA","San Diego","","0","0","{'mtkom':['881'],'energi og miljø':['311'],'bygg- og miljøteknikk':['285'],}"
"tu darmstadt","tu-darmstadt","Tyskland","Darmstadt","","0","0","{'industriell kjemi og bioteknologi':['876'],}"
"boise state university","boise-state-university","USA","Boise","","0","0","{'elektroingjeniør':['869'],}"
"universitet utrecht","universitet-utrecht","Nederland","Utrecht","","0","0","{'lektorutdanning med språk':['866'],}"
"université pierre et marie curie","universite-pierre-et-marie-curie","Frankrike","PARIS","","0","0","{'siving. fysikk og matematikk':['854'],}"
"tohoku university","tohoku-university","Japan","Sendai","","0","0","{'materialteknologi':['843'],}"
"unsa","unsa","Bosnia and Herzegovina","Sarajevo","","0","0","{'sustainable architecture':['832'],}"
"fudan university","fudan-university","Kina","shanghai","","0","0","{'master i ledelse av teknologi':['786'],}"
"universidade federal do rio de janeiro","universidade-federal-do-rio-de-janeiro","Brazil","Rio de Janeiro","","0","0","{'marin teknikk':['782', '177'],}"
"university of washington","university-of-washington","USA","Seattle","","0","0","{'filmvitenskap':['776'],'datateknologi':['194'],}"
"metropol","metropol","Danmark","Kalundborg","","0","0","{'':['767'],}"
"uc santa barbara","uc-santa-barbara","USA","Santa Barbara","","0","0","{'nanoteknologi':['766'],}"
"ubc","ubc","USA","berkeley","","0","0","{'mtbygg':['757'],'industriell kjemi og bioteknologi':['159'],}"
"puc-rio - pontifícia universidade católica do rio de janeiro","puc-rio---pontificia-universidade-catolica-do-rio-de-janeiro","Brazil","Rio De Janeiro","","0","0","{'bygg og miljøteknikk':['755'],}"
"the university of modena and reggio emilia (unimore)","the-university-of-modena-and-reggio-emilia-(unimore)","Italia","Modena","","0","0","{'biology (masters programme)':['753'],}"
"california state university monterey bay","california-state-university-monterey-bay","USA","Seaside/Marina, California","","0","0","{'master of interaction design':['746'],}"
"sophiahemmet högskola","sophiahemmet-hogskola","Sverige","Stockholm","","0","0","{'sykepleie':['737', '658'],'bachelor i sykepleie':['660'],}"
"syddansk universitet","syddansk-universitet","Danmark","Odense","","0","0","{'samfunnsøkonomi (2-årig master)':['717'],'master i samfunnsøkonomi':['699'],}"
"emily carr university for art + design","emily-carr-university-for-art-+-design","Canada","Vancouver","","0","0","{'industriell design':['715'],}"
"hochschule luzern / lucerne university of applied sciences and arts","hochschule-luzern-/-lucerne-university-of-applied-sciences-and-arts","Sveits","Luzern","","0","0","{'økonomi og administrasjon':['712'],}"
"berlin school of economics and law","berlin-school-of-economics-and-law","Tyskland","Berlin","","0","0","{'økonomi og administrasjon':['711', '468'],}"
"universitetet i bonn","universitetet-i-bonn","Tyskland","Bonn","","0","0","{'msmnfma':['703'],}"
"tokyo university","tokyo-university","Japan","Tokyo","","0","0","{'':['702'],}"
"california university of monterey bay (csumb)","california-university-of-monterey-bay-(csumb)","USA","Monterey","","0","0","{'profesjonsstudiet i psykologi':['698'],'marine coastal development, master':['689'],}"
"kit","kit","Tyskland","Karlsuhe","","0","0","{'indøk':['683'],'fysmat':['633'],'mtkj':['628'],}"
"fh joanneum","fh-joanneum","Østerrike","Graz","","0","0","{'økonomi og administrasjon':['677'],}"
"spbu","spbu","Russland","St. Petersburg","","0","0","{'historie bachelor':['675'],}"
"wästfelische wilhelms-unitversität münster","wastfelische-wilhelms-unitversitat-munster","Tyskland","Münster","","0","0","{'mlspråk - tysk/engelsk':['671'],}"
"pucv","pucv","Chile","Valparaíso","","0","0","{'arkitektur':['655'],}"
"tu-freiberg","tu-freiberg","Tyskland","Freiberg","","0","0","{'petroleumsfag':['650'],}"
"hafencity universität","hafencity-universitat","Tyskland","Hamburg","","0","0","{'arkitekt':['649'],'arkitektur':['648'],}"
"hcu hamburg","hcu-hamburg","Tyskland","Hamburg","","0","0","{'arkitektur':['647'],}"
"poznan university of economics","poznan-university-of-economics","Polen","Poznan","","0","0","{'økonomi og administrasjon':['637', '636'],'bachelor i økonomi og administrasjon':['489'],}"
"novancia business school paris","novancia-business-school-paris","Frankrike","Paris","","0","0","{'master international business and marketing':['622'],'master in international business and marketing':['621'],'international business and marketing':['620'],}"
"kanazawa university","kanazawa-university","Japan","Kanazawa","","0","0","{'bachelor i samfunnsøkonomi':['619'],}"
"école nationale supérieure de techniques avancées ensta","ecole-nationale-superieure-de-techniques-avancees-ensta","Frankrike","Paliseau","","0","0","{'teknisk kybernetikk mttk':['616'],}"
"albert-ludwigs universität","albert-ludwigs-universitat","Tyskland","Freiburg (Breisgau)","","0","0","{'nanoteknologi':['614'],}"
"indian institute of technology bombay (iit)","indian-institute-of-technology-bombay-(iit)","India","Mumbai","","0","0","{'bygg- og miljøteknikk':['592'],}"
"rheinisch-westfalische technische hochschule","rheinisch-westfalische-technische-hochschule","Tyskland","Aachen","","0","0","{'industriell økonomi og teknologiledelse, energi og miljø':['583'],}"
"university of portsmouth","university-of-portsmouth","Storbritannia","Portsmouth","","0","0","{'europastudier':['577'],'arkitektur':['138'],}"
"technische universität dresden","technische-universitat-dresden","Tyskland","Dresden","","0","0","{'produktutvikling og produksjon':['559'],'fysikk og matematikk':['549'],}"
"universität osnabrück","universitat-osnabruck","Tyskland","Osnabrück","","0","0","{'geomatikk':['552'],}"
"upc, etsab","upc-etsab","Spania","Barcelona","","0","0","{'master arkitektur':['544'],'arkitektur':['68'],}"
"université francois rabelais tours","universite-francois-rabelais-tours","Frankrike","Tours","","0","0","{'psykologi profesjon':['541'],}"
"universität freiburg","universitat-freiburg","Tyskland","Freiburg","","0","0","{'europastudier':['532'],}"
"pontifical universidade catholica","pontifical-universidade-catholica","Brazil","Rio de Janeiro","","0","0","{'petroleumsteknologi':['522'],}"
"unlar","unlar","Argentina","La Rioja","","0","0","{'medisin':['518'],}"
"florida atlantic university","florida-atlantic-university","USA","Boca Raton","","0","0","{'marin teknikk (hydrodynamikk)':['511'],}"
"medizinische universität innsbruck","medizinische-universitat-innsbruck","Østerrike","Innsbruck","","0","0","{'medisin':['506', '503'],}"
"humboldt universität zu berlin","humboldt-universitat-zu-berlin","Tyskland","Berlin","","0","0","{'mtfyma':['485'],}"
"universitat rovira i virgili","universitat-rovira-i-virgili","Spania","tortosa","","0","0","{'sykepleien':['483'],}"
"ece paris","ece-paris","Frankrike","Paris","","0","0","{'teknisk kybernetikk - embedded systems':['463'],}"
"university of south wales","university-of-south-wales","Storbritannia","Pontypridd","","0","0","{'psykologi':['445'],}"
"university of alberta","university-of-alberta","Canada","Edmonton","","0","0","{'petroleumsfag':['439'],}"
"universitatea &quot;alexandru ioan cuza&quot; din iasi","universitatea-&quot;alexandru-ioan-cuza&quot;-din-iasi","Romania","Iasi","","0","0","{'vernepleie':['424', '240'],}"
"the university of hong kong (hku)","the-university-of-hong-kong-(hku)","Kina","Hongkong","","0","0","{'industriell økonomi og teknologiledelse (spes. datateknologi)':['417'],}"
"universidad de extremadura","universidad-de-extremadura","Spania","Badajoz","","0","0","{'ingeniør fornybar energi':['413'],}"
"paris 4 sorbonne","paris-4-sorbonne","Frankrike","Paris","","0","0","{'lektor':['408'],'lektorutdanning med fransk':['337'],'mlspråk':['115'],}"
"université lille 1 - sciences et technologies","universite-lille-1---sciences-et-technologies","Frankrike","Lille","","0","0","{'industriell kjemi og bioteknologi - analytisk kjemi':['407'],}"
"university of ulsan","university-of-ulsan","Korea","Ulsan","","0","0","{'marin teknikk':['399'],}"
"tekniske universitet i danmark","tekniske-universitet-i-danmark","Danmark","København","","0","0","{'industriell matematikk':['398'],}"
"leiden universitet/tu delft","leiden-universitet/tu-delft","Nederland","Leiden/Delft","","0","0","{'energi og miljø':['385'],}"
"dublin institue of technology","dublin-institue-of-technology","Irland","Dublin","","0","0","{'utøvende musikk':['381'],}"
"malmö musikhögskola","malmo-musikhogskola","Sverige","Malmö","","0","0","{'jazzlinjen':['380'],}"
"universidad pontificia de comillas","universidad-pontificia-de-comillas","Spania","Madrid","","0","0","{'energi og miljo':['374'],}"
"university of oklahoma","university-of-oklahoma","USA","Norman","","0","0","{'petroleumsfag - reservoarteknologi og petrofysikk':['364'],'petroleumsfag':['223'],'petroleumsfag - boreteknologi':['152'],}"
"école nationale des sciences géographiques ensg","ecole-nationale-des-sciences-geographiques-ensg","Frankrike","Paris","","0","0","{'ingeniørvitenskap og ikt, geomatikk':['354'],}"
"universidad técnica del norte","universidad-tecnica-del-norte","Ecuador","Ibarra","","0","0","{'profesjonsstudiet, psykologi':['353'],}"
"ku leuven sint-lucas gent","ku-leuven-sint-lucas-gent","Belgia","Gent","","0","0","{'master i arkitektur':['352'],}"
"muhimbili university of health and allied sciences","muhimbili-university-of-health-and-allied-sciences","Tanzania","Dar es Salaam","","0","0","{'medisin':['342'],}"
"james cook university","james-cook-university","Australia","Townsville","","0","0","{'bachelor i marinbiologi':['333'],}"
"université laval","universite-laval","Canada","Québec","","0","0","{'lektor med fransk og sosiologi':['332'],}"
"muhimbili university of health and allied sciences (muhas)","muhimbili-university-of-health-and-allied-sciences-(muhas)","Tanzania","Dar Es Salaam","","0","0","{'medisin':['321'],}"
"université rennes 2","universite-rennes-2","Frankrike","Rennes","","0","0","{'historie bachelor':['310'],}"
"university of kwazulu natal","university-of-kwazulu-natal","Sør Afrika","Durban","","0","0","{'medisin':['300', '76'],}"
"pusan national university","pusan-national-university","Korea","Busan","","0","0","{'marin teknikk':['277'],}"
"ingen universitet, praksis på dagsenteret agenepal","ingen-universitet-praksis-pa-dagsenteret-agenepal","Nepal","Kathmandu","","0","0","{'fysioterapiutdanning':['274'],}"
"far eastern federal university","far-eastern-federal-university","Russland","Vladivostok","","0","0","{'bygg og miljøteknikk':['269'],}"
"göteborgs universitet, högskolan för scen och musik","goteborgs-universitet-hogskolan-for-scen-och-musik","Sverige","Göteborg","","0","0","{'utøvende musikk, bacehlor':['268'],}"
"paris-sorbonne (sorbonne iv)","paris-sorbonne-(sorbonne-iv)","Frankrike","Paris","","0","0","{'lektor i engelsk/fransk, bachelor i fransk':['248'],}"
"university of new orleans","university-of-new-orleans","USA","New Orleans","","0","0","{'marin teknikk':['246', '244'],}"
"memorial university","memorial-university","Canada","St. Johns","","0","0","{'ingenørvitenskap og ikt':['242'],}"
"hong kong university of science and technology","hong-kong-university-of-science-and-technology","Kina","Hong Kong","","0","0","{'sivilingeniør i fysikk og matematikk':['241'],}"
"loughborough university","loughborough-university","Storbritannia","Loughborough","","0","0","{'industriell design':['233'],}"
"lincoln university, lincoln","lincoln-university-lincoln","New Zealand","Christchurch","","0","0","{'pup':['232'],}"
"ecole centrale de nantes","ecole-centrale-de-nantes","Frankrike","Nantes","","0","0","{'marin teknikk':['197'],}"
"university of aberdeen","university-of-aberdeen","Storbritannia","Aberdeen","","0","0","{'arkeologi':['176'],}"
"stanford university","stanford-university","USA","Palo Alto","","0","0","{'petroleumsfag':['171'],}"
"massachusetts institute of technology (mit)","massachusetts-institute-of-technology-(mit)","USA","Boston/Cambridge","","0","0","{'tekniske geofag':['166'],}"
"universidad nacional de la rioja","universidad-nacional-de-la-rioja","Argentina","La Rioja","","0","0","{'medisin profesjon':['158'],}"
"polytech montpellier","polytech-montpellier","Frankrike","Montpellier","","0","0","{'mttk':['127'],}"
"ensta bretagne","ensta-bretagne","Frankrike","Brest","","0","0","{'marin teknikk':['126'],}"
"université pierre et marie curie (upmc)","universite-pierre-et-marie-curie-(upmc)","Frankrike","Paris","","0","0","{'sivilingeniørstudiet i fysikk og matematikk (teknisk fysikk)':['122'],}"
"professionshøjskolen metropol","professionshojskolen-metropol","Danmark","København","","0","0","{'sykepleie':['120'],}"
"erasmus school of economics","erasmus-school-of-economics","Nederland","Rotterdam","","0","0","{'samfunnsøkonomi':['99', '87'],}"
"htw","htw","Tyskland","Berlin","","0","0","{'markedsføring og ledelse, spesialisering eksport markedsføring':['82'],}"
"flinders university","flinders-university","Australia","Adelaide","","0","0","{'bachelor i fremmedspråk':['61'],}"
"pucrio","pucrio","Brazil","rio","","0","0","{'bygg':['58'],}"
"universitet utland","universitet-utland","Argentina","By","","0","0","{'mtkom':['53'],}"
"university of katmandu","university-of-katmandu","Nepal","Dhulikhel","","0","0","{'medisin':['52'],}"
